<?xml version='1.0' encoding='UTF-8'?>
<osm version="0.6" generator="Osmosis 0.45">
  <bounds minlon="37.11831" minlat="55.42577" maxlon="37.97562" maxlat="56.05624" origin="http://www.openstreetmap.org/api/0.6"/>
  <node id="253038783" version="3" timestamp="2014-01-05T16:51:30Z" uid="152074" user="beweta" changeset="19827248" lat="55.7466351" lon="37.6032972">
    <tag k="name" v="Музей Рериха"/>
    <tag k="name:de" v="Roerich-Museum"/>
    <tag k="name:en" v="Roerich Museum"/>
    <tag k="tourism" v="museum"/>
  </node>
  <node id="273354709" version="8" timestamp="2017-01-26T09:41:23Z" uid="2853561" user="Владимир К" changeset="45506048" lat="55.7473762" lon="37.6071231">
    <tag k="contact:phone" v="+7 495 6971610"/>
    <tag k="contact:website" v="http://www.artprivatecollections.ru"/>
    <tag k="name" v="Отдел личных коллекций"/>
    <tag k="name:en" v="Museum of Private Collections"/>
    <tag k="opening_hours" v="We-Su 12:00-20:00; Th 12:00-21:00"/>
    <tag k="tourism" v="museum"/>
    <tag k="wikidata" v="Q4306373"/>
    <tag k="wikipedia" v="ru:Музей личных коллекций"/>
  </node>
  <node id="273354762" version="7" timestamp="2017-01-11T11:48:00Z" uid="830106" user="literan" changeset="45074428" lat="55.7464647" lon="37.6053748">
    <tag k="description:en" v="19th and 20th century European &amp; American art."/>
    <tag k="name" v="Галерея искусства Европы и Америки"/>
    <tag k="name:en" v="Gallery of European and American Art"/>
    <tag k="official_name" v="Галерея искусства стран Европы и Америки XIX-ХХ веков ГМИИ им. А.С.Пушкина"/>
    <tag k="tourism" v="museum"/>
  </node>
  <node id="273355572" version="2" timestamp="2009-10-05T08:22:28Z" uid="11132" user="liosha" changeset="2746505" lat="55.774745" lon="37.6097265">
    <tag k="name" v="Всероссийский музей декоративно-прикладного и народного искусства"/>
    <tag k="tourism" v="museum"/>
  </node>
  <node id="273355916" version="5" timestamp="2017-01-08T04:39:48Z" uid="3580412" user="Alexander-II" changeset="44993517" lat="55.7437689" lon="37.597281">
    <tag k="description:en" v="Museum about the author AS Pushkin."/>
    <tag k="name" v="Государственный музей А.С.Пушкина"/>
    <tag k="name:en" v="Pushkin State Museum"/>
    <tag k="tourism" v="museum"/>
    <tag k="website" v="www.pushkinmuseum.ru"/>
  </node>
  <node id="273356351" version="3" timestamp="2015-05-26T20:33:34Z" uid="113416" user="karmatsky" changeset="31486687" lat="55.7318143" lon="37.6380763">
    <tag k="name" v="Государственный центральный театральный музей им. А.А.Бахрушина"/>
    <tag k="tourism" v="museum"/>
    <tag k="wheelchair" v="limited"/>
  </node>
  <node id="288506766" version="8" timestamp="2017-01-26T09:41:31Z" uid="2853561" user="Владимир К" changeset="45506048" lat="55.6905811" lon="37.5614978">
    <tag k="addr:housenumber" v="6/1"/>
    <tag k="addr:street" v="улица Дмитрия Ульянова"/>
    <tag k="email" v="info@darwin.museum.ru"/>
    <tag k="name" v="Дарвиновский музей"/>
    <tag k="opening_hours" v="10:00-18:00"/>
    <tag k="phone" v="+7 (499)1346124"/>
    <tag k="tourism" v="museum"/>
    <tag k="website" v="http://www.darwin.museum.ru/"/>
    <tag k="wikidata" v="Q1107243"/>
    <tag k="wikipedia" v="ru:Государственный Дарвиновский музей"/>
  </node>
  <node id="470962167" version="2" timestamp="2011-09-16T17:34:15Z" uid="397326" user="trolleway" changeset="9317923" lat="55.9671721" lon="37.9083708">
    <tag k="name" v="Краеведческий музей"/>
    <tag k="tourism" v="museum"/>
  </node>
  <node id="537564521" version="5" timestamp="2014-07-11T22:52:39Z" uid="830106" user="literan" changeset="24091521" lat="55.7940863" lon="37.6325067">
    <tag k="name" v="Музей истории железнодорожной техники МЖД"/>
    <tag k="tourism" v="museum"/>
  </node>
  <node id="612042411" version="3" timestamp="2011-06-12T15:58:10Z" uid="133332" user="AMDmi3" changeset="8416753" lat="55.8358144" lon="37.6590738">
    <tag k="amenity" v="arts_centre"/>
    <tag k="tourism" v="museum"/>
  </node>
  <node id="664104815" version="3" timestamp="2014-11-12T13:37:14Z" uid="830106" user="literan" changeset="26735020" lat="55.7655131" lon="37.5921544">
    <tag k="name" v="Московский музей современного искусства"/>
    <tag k="name:en" v="Moscow Museum of Modern Art"/>
    <tag k="tourism" v="museum"/>
    <tag k="alt_name" v="MMOMA"/>
    <tag k="contact:website" v="http://www.mmoma.ru"/>
  </node>
  <node id="665334623" version="1" timestamp="2010-03-13T16:44:37Z" uid="154487" user="Calibrator" changeset="4116471" lat="55.6447691" lon="37.5259429">
    <tag k="name" v="Государственный выставочный зал &quot;Галерея &quot;Беляево&quot;"/>
    <tag k="phone" v="+7 495 3358322"/>
    <tag k="tourism" v="museum"/>
  </node>
  <node id="668036470" version="8" timestamp="2016-07-27T06:29:20Z" uid="864907" user="Angrycat" changeset="41054176" lat="55.6239794" lon="37.5139616">
    <tag k="contact:phone" v="+7 495 3394544; +7 495 3391500"/>
    <tag k="contact:website" v="http://www.paleo.ru/museum/"/>
    <tag k="name" v="Палеонтологический музей"/>
    <tag k="name:de" v="Paläontologisches Museum Moskau"/>
    <tag k="name:en" v="Moscow Paleontological Museum"/>
    <tag k="name:ru" v="Палеонтологический музей"/>
    <tag k="name:sk" v="Paleontologičeskij muzej imeni Ju. A. Orlova"/>
    <tag k="official_name" v="Палеонтологический музей им. Ю. А. Орлова РАН"/>
    <tag k="opening_hours" v="We-Su 10:00-18:00; Mo, Tu off"/>
    <tag k="start_date" v="1937"/>
    <tag k="tourism" v="museum"/>
    <tag k="wikidata" v="Q1327180"/>
    <tag k="wikipedia" v="ru:Палеонтологический музей имени Ю. А. Орлова"/>
  </node>
  <node id="703628600" version="6" timestamp="2017-01-08T02:43:23Z" uid="5094532" user="olba999" changeset="44992681" lat="55.7475414" lon="37.5858475">
    <tag k="addr:housenumber" v="53"/>
    <tag k="addr:street" v="улица Арбат"/>
    <tag k="contact:phone" v="+7 499 2419295"/>
    <tag k="contact:website" v="http://www.pushkinmuseum.ru/?q=content/memorialnaya-kvartira-pushkina-na-arbate"/>
    <tag k="name" v="Музей-квартира А.С.Пушкина"/>
    <tag k="name:en" v="Pushkin Flat-museum"/>
    <tag k="name:es" v="Casa de Pushkin"/>
    <tag k="name:zh" v="阿尔巴特街普希金故居"/>
    <tag k="official_name" v="Мемориальный Музей-квартира А.С.Пушкина"/>
    <tag k="opening_hours" v="We-Su 10:00-17:30; Th 12:00-20:30"/>
    <tag k="tourism" v="museum"/>
  </node>
  <node id="710059435" version="4" timestamp="2014-03-16T16:36:38Z" uid="308" user="MichaelCollinson" changeset="21139435" lat="55.7489932" lon="37.6082877">
    <tag k="name" v="Картинная галерея А. Шилова"/>
    <tag k="phone" v="8(495)6974208"/>
    <tag k="name:en" v="Shilov Art gallery"/>
    <tag k="tourism" v="museum"/>
    <tag k="official_name" v="Московская государственная картинная галерея народного художника СССР А. Шилова"/>
  </node>
  <node id="724149771" version="2" timestamp="2011-06-12T08:38:55Z" uid="370914" user="jazzroutine" changeset="8412616" lat="55.8500531" lon="37.6323463">
    <tag k="name" v="Центральный музей МЧС России"/>
    <tag k="tourism" v="museum"/>
  </node>
  <node id="781539465" version="3" timestamp="2014-08-07T13:14:38Z" uid="830106" user="literan" changeset="24596197" lat="55.7625681" lon="37.6281205">
    <tag k="name" v="Фонд культуры &quot;Екатерина&quot;"/>
    <tag k="source" v="spam"/>
    <tag k="amenity" v="arts_centre"/>
    <tag k="name:en" v="Ekaterina Art Foundation"/>
    <tag k="tourism" v="museum"/>
    <tag k="contact:phone" v="+7 495 6215522"/>
    <tag k="opening_hours" v="Mo-Su 11:00-19:30"/>
    <tag k="contact:website" v="http://www.ekaterina-fondation.ru"/>
  </node>
  <node id="864424236" version="6" timestamp="2017-03-26T11:26:53Z" uid="830106" user="literan" changeset="47172745" lat="55.6503128" lon="37.3165853">
    <tag k="addr:housenumber" v="11"/>
    <tag k="addr:street" v="улица Довженко"/>
    <tag k="description" v="В дни концертов экскурсии проводятся до 14 часов. Экскурсии для групп — по предварительной записи."/>
    <tag k="name" v="Государственный мемориальный музей Б.Ш. Окуджавы"/>
    <tag k="name:es" v="The State Memorial Museum of B.Sh. Okudzhava"/>
    <tag k="opening_hours" v="Th-Su 11:00-16:00"/>
    <tag k="tourism" v="museum"/>
  </node>
  <node id="913308087" version="5" timestamp="2016-09-11T19:28:13Z" uid="4464584" user="Cristian Arias" changeset="42085654" lat="55.7257389" lon="37.6487933">
    <tag k="description:en" v="A museum about boots and traditional Russian footwear."/>
    <tag k="name" v="Русские валенки"/>
    <tag k="name:en" v="Russian Boots"/>
    <tag k="name:es" v="Museo Tren Fúnebre de Lennin"/>
    <tag k="opening_hours" v="Tu,We,Fr,Sa 11:00-17:30"/>
    <tag k="tourism" v="museum"/>
    <tag k="website" v="http://www.museum.ru/M2097"/>
  </node>
  <node id="922497297" version="2" timestamp="2010-10-08T06:42:20Z" uid="65083" user="deep125" changeset="5983534" lat="55.8206006" lon="37.5047097">
    <tag k="name" v="Музей Героев Советского Союза Зои и Александра Космодемьянских"/>
    <tag k="tourism" v="museum"/>
  </node>
  <node id="944400411" version="3" timestamp="2014-02-18T07:00:00Z" uid="1831780" user="Angrysquid" changeset="20630230" lat="55.6772038" lon="37.8946557">
    <tag k="name" v="Краеведческий музей"/>
    <tag k="source" v="http://www.musej.ru/"/>
    <tag k="tourism" v="museum"/>
    <tag k="contact:phone" v="+7 4955548296"/>
    <tag k="contact:website" v="www.museum.ru/M462"/>
  </node>
  <node id="984569918" version="2" timestamp="2010-12-21T20:25:43Z" uid="206282" user="Amigo" changeset="6729526" lat="55.7709133" lon="37.5913114">
    <tag k="name" v="Постоянная выставка по градостроительству г. Москвы"/>
    <tag k="tourism" v="museum"/>
    <tag k="operator" v="Правительство Москвы. Москомархитектура."/>
  </node>
  <node id="1040080046" version="4" timestamp="2016-09-13T14:18:29Z" uid="830106" user="literan" changeset="42126853" lat="55.637668" lon="37.2122931">
    <tag k="name" v="Музей игрушки"/>
    <tag k="tourism" v="museum"/>
  </node>
  <node id="1106417588" version="2" timestamp="2016-05-21T18:45:57Z" uid="2580205" user="alexey_zakharenkov" changeset="39474643" lat="55.9407317" lon="37.5133194">
    <tag k="name" v="Долгопрудненский историко-художественный музей"/>
    <tag k="opening_hours" v="We 10:00-19:00; Th 12:00-21:00; Fr-Sa 10:00-19:00; Su 10:00-18:00"/>
    <tag k="tourism" v="museum"/>
  </node>
  <node id="1106845052" version="6" timestamp="2017-03-29T12:15:42Z" uid="830106" user="literan" changeset="47258458" lat="55.759434" lon="37.6295369">
    <tag k="contact:phone" v="+7 495 6219075"/>
    <tag k="contact:website" v="http://mayakovsky.museum"/>
    <tag k="description:en" v="Vladimir Vladimirovich Mayakovsky 1893 – 1930, poet, actor, playwright,."/>
    <tag k="name" v="Музей В.В. Маяковского"/>
    <tag k="name:en" v="Museum of VV Mayakovsky"/>
    <tag k="tourism" v="museum"/>
    <tag k="wikidata" v="Q4146875"/>
    <tag k="wikipedia" v="ru:Государственный музей В. В. Маяковского"/>
  </node>
  <node id="1161887242" version="6" timestamp="2017-04-02T23:09:14Z" uid="830106" user="literan" changeset="47395511" lat="55.7601513" lon="37.6144128">
    <tag k="contact:phone" v="+7 495 6920567"/>
    <tag k="contact:website" v="http://www.glinka.museum/about/museum_of_prokofiev"/>
    <tag k="name" v="Музей С. С. Прокофьева"/>
    <tag k="name:en" v="Prokofiev Museum"/>
    <tag k="opening_hours" v="We-Sa 11:00-19:00; Th 12:00-21:00; Su 11:00-18:00"/>
    <tag k="tourism" v="museum"/>
  </node>
  <node id="1305562161" version="4" timestamp="2016-12-10T10:44:35Z" uid="830106" user="literan" changeset="44300359" lat="55.7430233" lon="37.6679736">
    <tag k="name" v="Музей кулинарного искуства"/>
    <tag k="name:en" v="Museum of Culinary Art"/>
    <tag k="tourism" v="museum"/>
  </node>
  <node id="1327904475" version="6" timestamp="2016-05-31T17:18:07Z" uid="911970" user="lromanov" changeset="39693526" lat="55.7506982" lon="37.5102343">
    <tag k="name" v="Музей &quot;Храм Покрова в Филях&quot;"/>
    <tag k="tourism" v="museum"/>
    <tag k="website" v="http://www.rublev-museum.ru/filial/church.aspx"/>
  </node>
  <node id="1347158881" version="9" timestamp="2017-03-16T20:58:08Z" uid="3708354" user="eugene-lisovskiy" changeset="46910392" lat="55.7614474" lon="37.5836608">
    <tag k="addr:housenumber" v="5"/>
    <tag k="addr:postcode" v="123242"/>
    <tag k="addr:street" v="Садовая-Кудринская улица"/>
    <tag k="amenity" v="planetarium"/>
    <tag k="email" v="info@planetarium-moscow.ru"/>
    <tag k="name" v="Московский Планетарий"/>
    <tag k="name:en" v="Moscow Planetarium"/>
    <tag k="opening_hours" v="We-Mo 10:00-21:00"/>
    <tag k="phone" v="+7 (495) 221-76-90"/>
    <tag k="tourism" v="museum"/>
    <tag k="website" v="http://www.planetarium-moscow.ru"/>
    <tag k="wikidata" v="Q4304240"/>
    <tag k="wikipedia" v="ru:Московский планетарий"/>
  </node>
  <node id="1359123836" version="4" timestamp="2016-04-21T16:07:06Z" uid="830106" user="literan" changeset="38761182" lat="55.7388301" lon="37.6263434">
    <tag k="contact:phone" v="+7 495 9538684"/>
    <tag k="contact:website" v="http://www.gctm.ru/branches/dmo"/>
    <tag k="name" v="Дом-музей А.Н. Островского"/>
    <tag k="name:en" v="Ostrovsky Museum"/>
    <tag k="opening_hours" v="We-Su 12:00-18:30; Th 13:00-20:30"/>
    <tag k="tourism" v="museum"/>
  </node>
  <node id="1361240106" version="3" timestamp="2017-01-26T17:00:01Z" uid="830106" user="literan" changeset="45520067" lat="55.7564862" lon="37.6787349">
    <tag k="name" v="Музей Водки"/>
    <tag k="tourism" v="museum"/>
  </node>
  <node id="1396324038" version="5" timestamp="2016-07-27T06:44:49Z" uid="864907" user="Angrycat" changeset="41054441" lat="55.7834974" lon="37.6103574">
    <tag k="contact:email" v="dostoevskij_f_m@mail.ru"/>
    <tag k="contact:phone" v="+7 495 6811085"/>
    <tag k="name" v="Музей-квартира Ф.М.Достоевского"/>
    <tag k="name:en" v="Apartment Museum of Fyodor Dostoevsky"/>
    <tag k="opening_hours" v="Tu-Su 11:00-18:00; We,Th 14:00-21:00"/>
    <tag k="start_date" v="11.11.1928"/>
    <tag k="tourism" v="museum"/>
    <tag k="wikidata" v="Q4306050"/>
    <tag k="wikipedia" v="ru:Музей-квартира Ф. М. Достоевского (Москва)"/>
  </node>
  <node id="1406961084" version="2" timestamp="2016-08-04T13:22:54Z" uid="4112185" user="Ngel" changeset="41237842" lat="55.7162148" lon="37.5555292">
    <tag k="name" v="Музей Спорта"/>
    <tag k="name:es" v="Museo del deporte"/>
    <tag k="tourism" v="museum"/>
  </node>
  <node id="1429094469" version="1" timestamp="2011-09-10T17:20:26Z" uid="252707" user="Alekc G" changeset="9263890" lat="55.7518208" lon="37.5920261">
    <tag k="name" v="Точка G"/>
    <tag k="tourism" v="museum"/>
  </node>
  <node id="1492999563" version="2" timestamp="2016-07-27T06:20:59Z" uid="864907" user="Angrycat" changeset="41054038" lat="55.722366" lon="37.5619814">
    <tag k="contact:phone" v="+7 495 6227309"/>
    <tag k="contact:website" v="http://old.mosmetro.ru/pages/page_0.php?id_page=74"/>
    <tag k="name" v="Народный музей истории Московского метрополитена"/>
    <tag k="start_date" v="1967"/>
    <tag k="tourism" v="museum"/>
    <tag k="wikidata" v="Q4313373"/>
    <tag k="wikipedia" v="ru:Народный музей Московского метрополитена"/>
  </node>
  <node id="1592025111" version="5" timestamp="2016-12-12T11:24:27Z" uid="830106" user="literan" changeset="44343104" lat="55.7451872" lon="37.6119663">
    <tag k="contact:email" v="museumdom@yandex.ru"/>
    <tag k="contact:phone" v="+7 495 9594936"/>
    <tag k="contact:website" v="http://www.museum.ru/m427"/>
    <tag k="full_name" v="Государственный краеведческий музей &quot;Дом на набережной&quot;"/>
    <tag k="name" v="Дом на набережной"/>
    <tag k="opening_hours" v="Tu-Sa 13:00-21:00"/>
    <tag k="tourism" v="museum"/>
  </node>
  <node id="1601983152" version="6" timestamp="2015-05-10T22:58:05Z" uid="478018" user="Fantomas" changeset="30977391" lat="55.8006028" lon="37.5841686">
    <tag k="name" v="Музей человека &quot;Живые системы&quot;"/>
    <tag k="tourism" v="museum"/>
    <tag k="contact:email" v="museum@bioexp.ru"/>
    <tag k="contact:phone" v="+7 495 1200504"/>
    <tag k="opening_hours" v="Mo-Fr 09:30-19:00; Sa-Su 10:00-20:00"/>
    <tag k="contact:website" v="http://www.bioexperimentanium.ru"/>
  </node>
  <node id="1733057309" version="8" timestamp="2017-03-11T12:08:16Z" uid="3580412" user="Alexander-II" changeset="46760915" lat="55.7416458" lon="37.6491082">
    <tag k="contact:email" v="hsale@bunker42.com"/>
    <tag k="contact:fax" v="+7 495 5000554"/>
    <tag k="contact:phone" v="+7 495 5000553"/>
    <tag k="contact:website" v="http://www.bunker42.com"/>
    <tag k="name" v="Музей холодной войны (экспозиционный комплекс Бункер-42)"/>
    <tag k="name:de" v="Bunker GO-42"/>
    <tag k="name:el" v="Κρατικό Ακίνητο αρ. 42"/>
    <tag k="name:en" v="Bunker 42 -Tagansky Protected Command Point"/>
    <tag k="name:pl" v="Bunkier GO-42"/>
    <tag k="name:sv" v="Bunker GO-42"/>
    <tag k="opening_hours" v="24/7"/>
    <tag k="tourism" v="museum"/>
    <tag k="wikidata" v="Q1009559"/>
    <tag k="wikipedia" v="ru:Музей холодной войны (Россия)"/>
  </node>
  <node id="1762104769" version="1" timestamp="2012-05-22T11:58:10Z" uid="451665" user="Solundir" changeset="11670846" lat="55.9183032" lon="37.8136946">
    <tag k="name" v="Королёвский исторический музей"/>
    <tag k="tourism" v="museum"/>
  </node>
  <node id="1826640863" version="3" timestamp="2016-03-30T12:28:38Z" uid="830106" user="literan" changeset="38165742" lat="55.7392507" lon="37.5805508">
    <tag k="name" v="Музей-квартира священника Павла Флоренского"/>
    <tag k="tourism" v="museum"/>
  </node>
  <node id="1933730593" version="1" timestamp="2012-09-26T13:50:51Z" uid="283440" user="AlexSek" changeset="13259896" lat="55.76945" lon="37.7110632">
    <tag k="name" v="Музей истории &quot;Лефортово&quot;"/>
    <tag k="tourism" v="museum"/>
  </node>
  <node id="2007252296" version="1" timestamp="2012-11-10T22:44:06Z" uid="260756" user="Felis Pimeja" changeset="13826906" lat="55.7908746" lon="37.7703539">
    <tag k="name" v="Галерея &quot;Измайлово&quot;"/>
    <tag k="tourism" v="museum"/>
  </node>
  <node id="2028471347" version="2" timestamp="2014-08-13T20:05:16Z" uid="1101663" user="Mikhail Kalenkov" changeset="24731441" lat="55.7609828" lon="37.8605297">
    <tag k="name" v="Музейно-выставочный комплекс"/>
    <tag k="tourism" v="museum"/>
  </node>
  <node id="2110345584" version="7" timestamp="2017-05-03T09:03:12Z" uid="2853561" user="Владимир К" changeset="48359121" lat="55.7771129" lon="37.6137325">
    <tag k="contact:phone" v="+7 495 6217310"/>
    <tag k="contact:website" v="http://www.gmig.ru"/>
    <tag k="name" v="Музей истории ГУЛАГа"/>
    <tag k="name:en" v="Gulag Museum"/>
    <tag k="name:es" v="Museo de la historia del Gulag"/>
    <tag k="name:ru" v="Музей истории ГУЛАГа"/>
    <tag k="opening_hours" v="Tu-Su 11:00-19:00; Th 12:00-21:00"/>
    <tag k="tourism" v="museum"/>
    <tag k="website" v="http://www.gmig.ru/"/>
  </node>
  <node id="2161495261" version="3" timestamp="2017-01-26T09:57:00Z" uid="2853561" user="Владимир К" changeset="45506048" lat="55.7187353" lon="37.592779">
    <tag k="name" v="Минералогический музей им. Ферсмана"/>
    <tag k="name:en" v="Fersman Mineralogical Museum"/>
    <tag k="name:ja" v="フェルスマン鉱物博物館"/>
    <tag k="official_name" v="Минералогический музей им. А. Е. Ферсмана Российской Академии Наук"/>
    <tag k="opening_hours" v="We-Sa 11:00-17:00"/>
    <tag k="tourism" v="museum"/>
    <tag k="website" v="www.fmm.ru"/>
    <tag k="wikidata" v="Q4294140"/>
    <tag k="wikipedia" v="ru:Минералогический музей имени А. Е. Ферсмана РАН"/>
  </node>
  <node id="2184565587" version="2" timestamp="2014-03-16T15:56:53Z" uid="308" user="MichaelCollinson" changeset="21138262" lat="55.7546691" lon="37.6384659">
    <tag k="name" v="галерея &quot;На Солянке&quot;"/>
    <tag k="name:en" v="Gallery &quot;On Solianke&quot;"/>
    <tag k="tourism" v="museum"/>
  </node>
  <node id="2219502268" version="1" timestamp="2013-03-24T20:46:25Z" uid="397326" user="trolleway" changeset="15484490" lat="55.758499" lon="37.5965918">
    <tag k="name" v="Мемориальный музей-квартира А.Н. Толстого"/>
    <tag k="tourism" v="museum"/>
  </node>
  <node id="2250142414" version="2" timestamp="2014-03-16T17:04:20Z" uid="308" user="MichaelCollinson" changeset="21139841" lat="55.7508458" lon="37.6459004">
    <tag k="name" v="Центральный пограничный музей ФСБ России"/>
    <tag k="name:en" v="Museum of the Russian FSB"/>
    <tag k="tourism" v="museum"/>
    <tag k="website" v="www.svrpu.ru"/>
    <tag k="contact:phone" v="+7-495-9173104"/>
  </node>
  <node id="2368886148" version="3" timestamp="2016-01-24T12:41:22Z" uid="2052948" user="Maturi0n" changeset="36775152" lat="55.7505495" lon="37.6169097">
    <tag k="name" v="Грановитая палата"/>
    <tag k="name:de" v="Facettenpalast"/>
    <tag k="name:en" v="Palace of the Facets"/>
    <tag k="name:es" v="Palacio de las Facetas"/>
    <tag k="name:fr" v="Palais à Facettes"/>
    <tag k="name:it" v="Palazzo delle Faccette"/>
    <tag k="name:pt" v="Palácio das Facetas"/>
    <tag k="tourism" v="museum"/>
    <tag k="wikidata" v="Q2307647"/>
    <tag k="wikipedia" v="ru:Грановитая палата"/>
  </node>
  <node id="2368886164" version="5" timestamp="2017-01-08T04:40:23Z" uid="3580412" user="Alexander-II" changeset="44993517" lat="55.7506384" lon="37.6157295">
    <tag k="name" v="Теремной дворец"/>
    <tag k="name:de" v="Terem-Palast"/>
    <tag k="name:en" v="Terem Palace"/>
    <tag k="name:fr" v="Palais des Térems"/>
    <tag k="name:it" v="Palazzo Terem"/>
    <tag k="name:pt" v="Palácio dos Terems"/>
    <tag k="tourism" v="museum"/>
  </node>
  <node id="2368886170" version="2" timestamp="2013-11-27T13:08:11Z" uid="260756" user="Felis Pimeja" changeset="19144093" lat="55.7507042" lon="37.616391">
    <tag k="name" v="Золотая Царицына палата"/>
    <tag k="name:de" v="Goldene Zarinnenkammer"/>
    <tag k="name:en" v="Tsarina&apos;s Golden Chamber"/>
    <tag k="name:it" v="Camera d&apos;oro della zarina"/>
    <tag k="tourism" v="museum"/>
  </node>
  <node id="2411252956" version="5" timestamp="2017-01-08T04:40:25Z" uid="3580412" user="Alexander-II" changeset="44993517" lat="55.739789" lon="37.6102265">
    <tag k="contact:phone" v="+7 495 2289878"/>
    <tag k="contact:website" v="http://www.lumiere.ru"/>
    <tag k="description:en" v="The center operates an open library, whose mission - to collect all the best literature on photography over the past 80 years."/>
    <tag k="name" v="Центр фотографии им. братьев Люмьер"/>
    <tag k="name:en" v="Center of Photography Lumiere Brothers"/>
    <tag k="opening_hours" v="Tu-Fr 12:00-21:00; Sa,Su 13:00-21:00"/>
    <tag k="source:description:en" v="contact:website"/>
    <tag k="tourism" v="museum"/>
  </node>
  <node id="2451397144" version="1" timestamp="2013-09-09T08:45:23Z" uid="321862" user="DanX" changeset="17745962" lat="55.6612444" lon="37.3338545">
    <tag k="name" v="Дом-музей Б. Пастернака"/>
    <tag k="tourism" v="museum"/>
    <tag k="addr:street" v="улица Павленко"/>
    <tag k="addr:housenumber" v="3"/>
  </node>
  <node id="2451397153" version="3" timestamp="2017-03-25T11:45:06Z" uid="5554581" user="Lmg Lmg" changeset="47148388" lat="55.6535947" lon="37.3275084">
    <tag k="addr:housenumber" v="1"/>
    <tag k="addr:street" v="улица Гоголя"/>
    <tag k="name" v="Музей-галерея Е.А. Евтушенко"/>
    <tag k="name:es" v="Museum-gallery Yevtushenko"/>
    <tag k="opening_hours" v="Th-Su 10:00-17:00; Mo-We &quot;только по предварительной договоренности&quot;"/>
    <tag k="tourism" v="museum"/>
  </node>
  <node id="2465851425" version="2" timestamp="2015-04-21T21:59:41Z" uid="1925053" user="J_Doe" changeset="30391840" lat="55.9863638" lon="37.1716648">
    <tag k="name" v="Историко-краеведческий музей"/>
    <tag k="phone" v="+7 499 7314512"/>
    <tag k="tourism" v="museum"/>
    <tag k="website" v="http://www.zelmuseum.ru"/>
  </node>
  <node id="2468882311" version="5" timestamp="2017-03-09T06:38:05Z" uid="2853561" user="Владимир К" changeset="46700483" lat="55.7349612" lon="37.6064232">
    <tag k="contact:phone" v="+7 499 2307788"/>
    <tag k="contact:website" v="http://www.tretyakovgallery.ru/ru/museum/branch/gtg_krimskiy_val"/>
    <tag k="name" v="Третьяковская галерея на Крымском Валу"/>
    <tag k="name:en" v="The Tretyakov Gallery on Krymsky Val"/>
    <tag k="name:ru" v="Третьяковская галерея на Крымском Валу"/>
    <tag k="opening_hours" v="Tu-Su 10:00-18:00; Th-Sa 10:00-21:00"/>
    <tag k="tourism" v="museum"/>
  </node>
  <node id="2506932067" version="1" timestamp="2013-10-24T09:24:43Z" uid="24702" user="Dmitry &apos;MAD&apos; Artamonow" changeset="18516511" lat="55.7910895" lon="37.7816015">
    <tag k="name" v="Музей Буратино-Пиноккио"/>
    <tag k="tourism" v="museum"/>
    <tag k="website" v="http://www.domskazok.ru/wood-tale/"/>
    <tag k="opening_hours" v="Mo-Su 10:00-17:30"/>
  </node>
  <node id="2511951122" version="1" timestamp="2013-10-28T19:46:33Z" uid="163023" user="ajvol" changeset="18590690" lat="55.7604459" lon="37.6407394">
    <tag k="name" v="Музей книги"/>
    <tag k="tourism" v="museum"/>
  </node>
  <node id="2519943163" version="1" timestamp="2013-11-04T16:23:02Z" uid="363136" user="neo-plan" changeset="18714738" lat="55.5804127" lon="37.9007882">
    <tag k="name" v="Лыткаринский историко-краеведческий музей"/>
    <tag k="tourism" v="museum"/>
  </node>
  <node id="2590877091" version="2" timestamp="2014-02-24T08:15:05Z" uid="131244" user="Torx" changeset="20746190" lat="55.7601236" lon="37.6099196">
    <tag k="name" v="Музей-квартира В.Э. Мейерхольда"/>
    <tag k="name:en" v="Vsevolod Meyerhold Flat-Museum"/>
    <tag k="tourism" v="museum"/>
    <tag k="contact:phone" v="+7 495 6295322"/>
    <tag k="opening_hours" v="We-Su 12:00-19:00"/>
  </node>
  <node id="2594744195" version="4" timestamp="2017-04-14T10:53:34Z" uid="830106" user="literan" changeset="47776234" lat="55.7595636" lon="37.5992678">
    <tag k="alt_name" v="MMOMA"/>
    <tag k="contact:website" v="http://www.mmoma.ru"/>
    <tag k="name" v="Московский музей современного искусства"/>
    <tag k="name:en" v="Moscow Museum of Modern Art"/>
    <tag k="name:ru" v="Московский музей современного искусства"/>
    <tag k="tourism" v="museum"/>
  </node>
  <node id="2613597034" version="1" timestamp="2014-01-07T17:37:28Z" uid="830106" user="literan" changeset="19867203" lat="55.7563931" lon="37.5998947">
    <tag k="name" v="Музей искусства народов Востока"/>
    <tag k="name:en" v="Museum of Oriental Arts"/>
    <tag k="tourism" v="museum"/>
    <tag k="contact:phone" v="+7 495 6910212"/>
    <tag k="opening_hours" v="Tu-Su 11:00-20:00; Th 12:00-21:00"/>
    <tag k="contact:website" v="http://www.orientmuseum.ru"/>
  </node>
  <node id="2640796034" version="2" timestamp="2016-03-18T20:06:28Z" uid="152074" user="beweta" changeset="37927069" lat="55.7566941" lon="37.5833111">
    <tag k="email" v="shalyapin.museum@gmail.com"/>
    <tag k="name" v="Дом-музей Шаляпина"/>
    <tag k="name:en" v="Chaliapin House Museum"/>
    <tag k="phone" v="+7 495 6056236"/>
    <tag k="tourism" v="museum"/>
    <tag k="website" v="http://www.shalyapin-museum.org/"/>
  </node>
  <node id="2657740547" version="2" timestamp="2015-09-08T22:12:19Z" uid="830106" user="literan" changeset="33895534" lat="55.8330022" lon="37.3292841">
    <tag k="name" v="Музей Красногорского завода им. С.А. Зверева"/>
    <tag k="tourism" v="museum"/>
    <tag k="contact:phone" v="+7 495 5618860"/>
    <tag k="opening_hours" v="Mo-Fr 08:00-13:00,14:00-17:00"/>
  </node>
  <node id="2675498162" version="4" timestamp="2017-02-04T01:46:59Z" uid="5256228" user="Adverte" changeset="45794936" lat="55.753169" lon="37.7990588">
    <tag k="addr:city" v="район Новогиреево"/>
    <tag k="addr:housenumber" v="37А"/>
    <tag k="addr:postcode" v="111394"/>
    <tag k="addr:street" v="Новогиреевская улица"/>
    <tag k="name" v="Московский государственный музей Вадима Сидура"/>
    <tag k="phone" v="+7 495 6459277"/>
    <tag k="tourism" v="museum"/>
  </node>
  <node id="2675521498" version="3" timestamp="2014-10-26T18:45:36Z" uid="519501" user="parukhin" changeset="26347400" lat="55.757888" lon="37.774538">
    <tag k="name" v="Музей истории войны в Афганистане"/>
    <tag k="phone" v="+7(495) 306-43-39"/>
    <tag k="tourism" v="museum"/>
    <tag k="addr:city" v="район Перово"/>
    <tag k="addr:street" v="1-я Владимирская улица"/>
    <tag k="addr:postcode" v="111123"/>
    <tag k="addr:housenumber" v="12 к1"/>
  </node>
  <node id="2678333852" version="1" timestamp="2014-02-18T06:34:11Z" uid="1831780" user="Angrysquid" changeset="20629984" lat="55.8891973" lon="37.4457276">
    <tag k="name" v="Химкинская картинная галерея им. С.Н. Горшина"/>
    <tag k="tourism" v="museum"/>
    <tag k="start_date" v="24.12.1993"/>
    <tag k="contact:email" v="khimki-galery@yandex.ru"/>
    <tag k="contact:phone" v="+7 4955758557"/>
    <tag k="opening_hours" v="Mo-Fr 11:00-18:00"/>
    <tag k="contact:website" v="www.museum.ru/M3208"/>
  </node>
  <node id="2715045290" version="4" timestamp="2017-01-08T04:40:31Z" uid="3580412" user="Alexander-II" changeset="44993517" lat="55.7445426" lon="37.6519451">
    <tag k="alt_name" v="Государственный культурный центр-музейВ.С. Высоцкого"/>
    <tag k="alt_name:en" v="State Cultural Center and MuseumVS Vysotsky"/>
    <tag k="contact:phone" v="+7 495 9152979"/>
    <tag k="description" v="Museum to Vladimir Vysotsky 1938 - 1980, famous Russion singer, actor and poet."/>
    <tag k="name" v="Дом Высоцкого на Таганке"/>
    <tag k="name:en" v="House on Taganka"/>
    <tag k="operator" v="Государственное учреждение культуры г.Москвы"/>
    <tag k="operator:en" v="State Institution of Culture of Moscow"/>
    <tag k="tourism" v="museum"/>
    <tag k="website" v="www.visotsky.ru"/>
  </node>
  <node id="2758278217" version="8" timestamp="2016-10-17T13:23:23Z" uid="2853561" user="Владимир К" changeset="42959778" lat="55.7522086" lon="37.6088753">
    <tag k="addr:city" v="Москва"/>
    <tag k="addr:country" v="RU"/>
    <tag k="addr:entrance" v="3"/>
    <tag k="addr:floor" v="4"/>
    <tag k="addr:housenumber" v="3/5 кГ"/>
    <tag k="addr:postcode" v="121019"/>
    <tag k="addr:room" v="Г-405"/>
    <tag k="addr:street" v="улица Воздвиженка"/>
    <tag k="name" v="Музей книги"/>
    <tag k="opening_hours" v="Mo-Sa 10:00-18:00"/>
    <tag k="tourism" v="museum"/>
  </node>
  <node id="2798179186" version="4" timestamp="2016-06-18T11:31:46Z" uid="830106" user="literan" changeset="40114021" lat="55.7428122" lon="37.5969685">
    <tag k="contact:phone" v="+7 499 7669328"/>
    <tag k="contact:website" v="http://tolstoymuseum.ru/museums/museum_branchs/prechistenka"/>
    <tag k="name" v="Государственный музей Л.Н. Толстого"/>
    <tag k="name:de" v="Staatliches Leo-Tolstoi-Museum"/>
    <tag k="name:en" v="State Tolstoy Museum"/>
    <tag k="opening_hours" v="Tu-Su 10:00-18:00; Th 12:00-20:00"/>
    <tag k="tourism" v="museum"/>
  </node>
  <node id="2820078760" version="2" timestamp="2016-05-15T14:56:38Z" uid="3914341" user="Mihail Arhipov" changeset="39332623" lat="55.76335" lon="37.6791904">
    <tag k="name" v="Научно-мемориальный музей профессора Н.Е. Жуковского"/>
    <tag k="tourism" v="museum"/>
  </node>
  <node id="2992354935" version="2" timestamp="2016-05-29T09:33:47Z" uid="3830689" user="Little_Hedgehog" changeset="39638414" lat="55.4313187" lon="37.5471492">
    <tag k="addr:housenumber" v="113"/>
    <tag k="addr:street" v="проспект Ленина"/>
    <tag k="name" v="Выставочный зал"/>
    <tag k="tourism" v="museum"/>
  </node>
  <node id="2992380329" version="1" timestamp="2014-08-02T15:17:51Z" uid="363136" user="neo-plan" changeset="24499459" lat="55.4376659" lon="37.5553836">
    <tag k="name" v="Музей-заповедник &quot;Подолье&quot;"/>
    <tag k="tourism" v="museum"/>
  </node>
  <node id="3002385204" version="3" timestamp="2016-09-25T11:47:37Z" uid="830106" user="literan" changeset="42421673" lat="55.762016" lon="37.624186">
    <tag k="contact:phone" v="+7 495 6247952"/>
    <tag k="name" v="Кузнецкий мост 20. Выставочный зал"/>
    <tag k="opening_hours" v="Tu-Su 12:00-19:00"/>
    <tag k="tourism" v="museum"/>
  </node>
  <node id="3069066677" version="2" timestamp="2014-09-09T21:21:42Z" uid="830106" user="literan" changeset="25337686" lat="55.7507105" lon="37.5958118">
    <tag k="name" v="Выставочный зал &quot;АхДи&quot;"/>
    <tag k="tourism" v="museum"/>
    <tag k="contact:phone" v="+7 495 6906463"/>
    <tag k="opening_hours" v="Mo-Su 11:00-20:00"/>
    <tag k="contact:website" v="http://www.ahdi.ru"/>
  </node>
  <node id="3069066678" version="4" timestamp="2017-02-24T20:50:04Z" uid="3580412" user="Alexander-II" changeset="46379546" lat="55.7510584" lon="37.5966417">
    <tag k="contact:phone" v="+7 962 9511717"/>
    <tag k="name" v="Музей истории аквариумистики"/>
    <tag k="name:en" v="Fishkeeping History Museum"/>
    <tag k="opening_hours" v="Mo-Su 12:00-22:00"/>
    <tag k="tourism" v="museum"/>
  </node>
  <node id="3114388064" version="3" timestamp="2015-11-06T08:09:19Z" uid="2853561" user="Владимир К" changeset="35120139" lat="55.8343574" lon="37.6214271">
    <tag k="name" v="Политехнический музей на ВДНХ"/>
    <tag k="email" v="pm26@polymus.ru"/>
    <tag k="phone" v="+7 495 7305438 доб.1446"/>
    <tag k="tourism" v="museum"/>
    <tag k="website" v="http://polymus.ru/"/>
    <tag k="alt_name" v="Политех"/>
    <tag k="operator" v="Государственный Политехнический музей"/>
    <tag k="opening_hours" v="Tu-Fr 10:00-19:00; Sa,Su 10:00-20:00; Mo off"/>
  </node>
  <node id="3150444112" version="10" timestamp="2017-03-13T00:16:30Z" uid="3580412" user="Alexander-II" changeset="46798821" lat="55.7560109" lon="37.6186423">
    <tag k="email" v="1812info@shm.ru"/>
    <tag k="name" v="Музей Отечественной войны 1812 года"/>
    <tag k="name:de" v="Museum des Vaterländischen Krieges von 1812"/>
    <tag k="name:en" v="Museum of the Patriotic War of 1812"/>
    <tag k="name:es" v="Museo de la guerra patria 1812"/>
    <tag k="name:fr" v="Musée de la Campagne de Russie"/>
    <tag k="name:ru" v="Музей Отечественной войны 1812 года"/>
    <tag k="tourism" v="museum"/>
    <tag k="website" v="http://1812shm.ru/"/>
  </node>
  <node id="3182704484" version="2" timestamp="2015-04-22T00:30:36Z" uid="152074" user="beweta" changeset="30393519" lat="55.7470341" lon="37.6002885">
    <tag k="name" v="Московский музей современного искусства"/>
    <tag k="name:de" v="Moskauer Museum für Moderne Kunst"/>
    <tag k="name:en" v="Moscow Museum of Modern Art"/>
    <tag k="tourism" v="museum"/>
    <tag k="alt_name" v="MMOMA"/>
    <tag k="contact:website" v="http://www.mmoma.ru"/>
  </node>
  <node id="3182704485" version="1" timestamp="2014-11-12T13:37:07Z" uid="830106" user="literan" changeset="26735020" lat="55.7662408" lon="37.5769988">
    <tag k="name" v="Московский музей современного искусства"/>
    <tag k="name:en" v="Moscow Museum of Modern Art"/>
    <tag k="tourism" v="museum"/>
    <tag k="alt_name" v="MMOMA"/>
    <tag k="opening_hours" v="Mo-Su 11:00-19:00; Th 13:00-21:00"/>
    <tag k="contact:website" v="http://www.mmoma.ru"/>
  </node>
  <node id="3206046372" version="1" timestamp="2014-11-26T12:33:46Z" uid="830106" user="literan" changeset="27043980" lat="55.7593066" lon="37.6445089">
    <tag k="name" v="Музей уникальных кукол"/>
    <tag k="name:en" v="Museum of Unique Dolls"/>
    <tag k="tourism" v="museum"/>
    <tag k="contact:phone" v="+7 495 6256405"/>
    <tag k="opening_hours" v="Tu-Su 10:00-14:00,14:30-18:00"/>
    <tag k="contact:website" v="http://dollmuseum.ru"/>
  </node>
  <node id="3251246210" version="5" timestamp="2016-10-25T17:30:09Z" uid="481934" user="iWowik" changeset="43164751" lat="55.7973575" lon="37.7516046">
    <tag k="addr:housenumber" v="80 с1"/>
    <tag k="addr:street" v="Советская улица"/>
    <tag k="email" v="sbunker@mail.ru"/>
    <tag k="military" v="bunker"/>
    <tag k="name" v="Запасной командный пункт Верховного Главнокомандующего (&quot;Бункер Сталина&quot;)"/>
    <tag k="name:en" v="Stalin&apos;s bunker"/>
    <tag k="opening_hours" v="Mo-Fr 10:00-18:00"/>
    <tag k="phone" v="+7 499 166-67-68"/>
    <tag k="tourism" v="museum"/>
    <tag k="website" v="http://www.cmaf.ru/branchs/bun/"/>
  </node>
  <node id="3325191509" version="2" timestamp="2017-01-26T09:58:46Z" uid="2853561" user="Владимир К" changeset="45506048" lat="55.771822" lon="37.5945538">
    <tag k="contact:phone" v="+7 499 2516730"/>
    <tag k="contact:website" v="http://www.mosmuseum.ru/museum-menu-mireka.html"/>
    <tag k="name" v="Музей русской гармоники А. Мирека"/>
    <tag k="name:en" v="Russian Garmonika Museum"/>
    <tag k="opening_hours" v="Tu,We 10:00-17:30; Th 10:00-20:30; Fr-Su 10:00-16:30"/>
    <tag k="tourism" v="museum"/>
    <tag k="wikidata" v="Q12130578"/>
    <tag k="wikipedia" v="ru:Музей русской гармоники А. Мирека"/>
  </node>
  <node id="3350346072" version="2" timestamp="2016-01-05T17:26:34Z" uid="152074" user="beweta" changeset="36385751" lat="55.7089892" lon="37.7226516">
    <tag k="name" v="Политехнический музей, открытые фонды"/>
    <tag k="tourism" v="museum"/>
  </node>
  <node id="3361538621" version="11" timestamp="2016-07-27T06:40:57Z" uid="864907" user="Angrycat" changeset="41054382" lat="55.7670276" lon="37.5939442">
    <tag k="addr:flat" v="50"/>
    <tag k="contact:email" v="bulgakovmuseum@gmail.com"/>
    <tag k="contact:phone" v="+7 495 6995366"/>
    <tag k="contact:website" v="http://bulgakovmuseum.ru"/>
    <tag k="name" v="Государственный музей М. А. Булгакова"/>
    <tag k="name:en" v="Bulgakov Museum in Moscow"/>
    <tag k="name:hy" v="Միխայիլ Բուլգակովի թանգարան"/>
    <tag k="name:it" v="Museo Bulgakov"/>
    <tag k="opening_hours" v="Tu-Su 12:00-19:00"/>
    <tag k="tourism" v="museum"/>
    <tag k="wikidata" v="Q4146884"/>
    <tag k="wikipedia" v="ru:Музей Михаила Булгакова"/>
  </node>
  <node id="3382996910" version="2" timestamp="2015-03-04T16:08:52Z" uid="363136" user="neo-plan" changeset="29247582" lat="55.7985106" lon="37.9531462">
    <tag k="name" v="Балашихинский историко-краеведческий музей"/>
    <tag k="tourism" v="museum"/>
  </node>
  <node id="3387496562" version="3" timestamp="2016-06-18T11:31:47Z" uid="830106" user="literan" changeset="40114021" lat="55.7603164" lon="37.5860712">
    <tag k="contact:phone" v="+7 495 6916154"/>
    <tag k="contact:website" v="http://goslitmuz.ru/museums/dom-muzey-a-p-chekhova"/>
    <tag k="name" v="Дом-музей А.П. Чехова"/>
    <tag k="name:en" v="Anton Chekhov House-museum"/>
    <tag k="opening_hours" v="Tu-Su 11:00-17:30; Th 14:00-19:15"/>
    <tag k="tourism" v="museum"/>
  </node>
  <node id="3390705964" version="1" timestamp="2015-03-09T09:18:44Z" uid="830106" user="literan" changeset="29347302" lat="55.7690366" lon="37.6689115">
    <tag k="name" v="Дом-музей В.Л. Пушкина"/>
    <tag k="name:en" v="V.L. Pushkin Museum"/>
    <tag k="tourism" v="museum"/>
    <tag k="alt_name" v="Дом-музей В.Л. Пушкина на Старой Басманной"/>
    <tag k="description" v="Последняя пятница каждого месяца – санитарный день"/>
    <tag k="contact:email" v="info@a-s-pushkinmus.ru"/>
    <tag k="contact:phone" v="+7 499 2631057"/>
    <tag k="opening_hours" v="We-Su 10:00-18:00; Th 12:00-21:00"/>
    <tag k="contact:website" v="http://www.pushkinmuseum.ru/?q=node/2"/>
  </node>
  <node id="3423510101" version="1" timestamp="2015-03-28T15:29:15Z" uid="830106" user="literan" changeset="29807284" lat="55.755259" lon="37.592232">
    <tag k="name" v="Мемориальный музей-квартира Е.Ф.Гнесиной"/>
    <tag k="name:en" v="E.F.Gnesina Museum"/>
    <tag k="tourism" v="museum"/>
    <tag k="contact:phone" v="+7 495 6904505"/>
    <tag k="contact:website" v="http://www.gnesin-academy.ru/museum"/>
  </node>
  <node id="3437732377" version="5" timestamp="2017-04-05T23:34:46Z" uid="3580412" user="Alexander-II" changeset="47491745" lat="55.7293577" lon="37.656708">
    <tag k="comment" v="Каждая последняя рабочая неделя месяца: понедельник – выходной, суббота - рабочая."/>
    <tag k="description" v="Экскурсии проводятся по предварительной записи"/>
    <tag k="fee" v="no"/>
    <tag k="name" v="Музей воды"/>
    <tag k="opening_hours" v="Mo-Th 10:00-17:00; Fr 10:00-16:00; Mo[-1] off; Sa[-1] 10:00-17:00"/>
    <tag k="tourism" v="museum"/>
    <tag k="website" v="http://www.mosvodokanal.ru/about/museum.php"/>
  </node>
  <node id="3441521467" version="1" timestamp="2015-04-06T19:00:40Z" uid="363136" user="neo-plan" changeset="30023571" lat="55.760394" lon="37.6249678">
    <tag k="name" v="Музей детства"/>
    <tag k="tourism" v="museum"/>
  </node>
  <node id="3454298446" version="4" timestamp="2016-06-14T11:57:32Z" uid="3029855" user="PNovikov" changeset="40015869" lat="55.80889" lon="37.5107349">
    <tag k="email" v="enjoy@experimentanium.ru"/>
    <tag k="name" v="Экспериментаниум"/>
    <tag k="opening_hours" v="Mo-Fr 09:30-19:00;Sa,Su 10:00-20:00"/>
    <tag k="phone" v="+7 495 120 05 20"/>
    <tag k="tourism" v="museum"/>
    <tag k="website" v="http://experimentanium.ru/ru/"/>
  </node>
  <node id="3466483914" version="1" timestamp="2015-04-19T23:24:14Z" uid="830106" user="literan" changeset="30343828" lat="55.7548303" lon="37.586737">
    <tag k="name" v="Дом И.С. Остроухова в Трубниках"/>
    <tag k="tourism" v="museum"/>
    <tag k="contact:phone" v="+7 495 6954618"/>
    <tag k="opening_hours" v="Tu-Su 11:00-18:00; Th 14:00-20:00"/>
    <tag k="contact:website" v="http://goslitmuz.ru/museums/dom-i-s-ostroukhova-v-trubnikakh"/>
  </node>
  <node id="3484120452" version="1" timestamp="2015-04-28T13:38:40Z" uid="149412" user="Haserbaba" changeset="30581786" lat="55.7318124" lon="37.6563244">
    <tag k="name" v="Усыпальница бояр Романовых"/>
    <tag k="tourism" v="museum"/>
  </node>
  <node id="3500707688" version="2" timestamp="2016-08-05T06:19:35Z" uid="4112185" user="Ngel" changeset="41252509" lat="55.7500824" lon="37.5949446">
    <tag k="addr:housenumber" v="25"/>
    <tag k="addr:street" v="улица Арбат"/>
    <tag k="name" v="Музей истории телесных наказаний"/>
    <tag k="name:es" v="Museo de historia del castigo corporal"/>
    <tag k="tourism" v="museum"/>
    <tag k="website" v="http://www.pereverzev.su/Dobro_pozalovat%21.html"/>
  </node>
  <node id="3500710699" version="2" timestamp="2016-08-05T06:19:30Z" uid="4112185" user="Ngel" changeset="41252509" lat="55.7470749" lon="37.5854902">
    <tag k="addr:housenumber" v="55"/>
    <tag k="addr:street" v="улица Арбат"/>
    <tag k="name" v="Мемориальная квартира Андрея Белого"/>
    <tag k="name:es" v="Departamento de Andrei Belly"/>
    <tag k="tourism" v="museum"/>
    <tag k="website" v="http://kvartira-belogo.guru.ru/"/>
  </node>
  <node id="3500729458" version="3" timestamp="2017-01-26T09:58:54Z" uid="2853561" user="Владимир К" changeset="45506048" lat="55.7471255" lon="37.5918975">
    <tag k="addr:housenumber" v="27"/>
    <tag k="addr:street" v="переулок Сивцев Вражек"/>
    <tag k="name" v="Дом-музей А.И. Герцена"/>
    <tag k="tourism" v="museum"/>
    <tag k="website" v="http://goslitmuz.ru/museums/dom-muzey-a-i-gertsena/"/>
    <tag k="wikidata" v="Q4165185"/>
    <tag k="wikipedia" v="ru:Дом-музей А. И. Герцена"/>
  </node>
  <node id="3500775990" version="2" timestamp="2015-11-16T14:30:04Z" uid="830106" user="literan" changeset="35352233" lat="55.7152789" lon="37.5741033">
    <tag k="name" v="Ар Деко"/>
    <tag k="tourism" v="museum"/>
    <tag k="website" v="https://www.facebook.com/artdecomuseum"/>
    <tag k="addr:street" v="Лужнецкая набережная"/>
    <tag k="addr:housenumber" v="2/4 с4"/>
  </node>
  <node id="3500790779" version="3" timestamp="2016-08-09T15:41:13Z" uid="830106" user="literan" changeset="41347952" lat="55.7404075" lon="37.5781424">
    <tag k="addr:housenumber" v="9 с2"/>
    <tag k="addr:street" v="Земледельческий переулок"/>
    <tag k="name" v="Творческое наследие академика Юрия Орехова"/>
    <tag k="tourism" v="museum"/>
    <tag k="website" v="http://www.sculptura.ru/Ru/Hs/Orekhov_museum/Museum.htm"/>
  </node>
  <node id="3500852153" version="1" timestamp="2015-05-06T12:02:44Z" uid="2335615" user="a_isaeva" changeset="30840411" lat="55.7466123" lon="37.6418981">
    <tag k="name" v="Музей-квартира Г. С. Улановой"/>
    <tag k="tourism" v="museum"/>
    <tag k="website" v="http://www.gctm.ru/branches/mku/"/>
  </node>
  <node id="3500887936" version="1" timestamp="2015-05-06T12:19:56Z" uid="2335615" user="a_isaeva" changeset="30840862" lat="55.7551257" lon="37.6381335">
    <tag k="name" v="Музей Императорского православного палестинского общества"/>
    <tag k="tourism" v="museum"/>
    <tag k="website" v="http://ippo.ru/about/centre/1/1/"/>
  </node>
  <node id="3500891969" version="1" timestamp="2015-05-06T12:23:31Z" uid="2335615" user="a_isaeva" changeset="30840968" lat="55.7578336" lon="37.6331977">
    <tag k="name" v="Музей Ю.В. Никулина"/>
    <tag k="tourism" v="museum"/>
    <tag k="website" v="http://www.fond-nikulin.ru/o-muzee.html"/>
  </node>
  <node id="3501032524" version="2" timestamp="2017-03-19T18:12:53Z" uid="1724658" user="tssst" changeset="46989572" lat="55.7538794" lon="37.6277982">
    <tag k="name" v="Археологический выставочный комплекс &quot;Старый &quot;Гостиный двор&quot;"/>
    <tag k="tourism" v="museum"/>
    <tag k="website" v="http://dkn.mos.ru/popularization/the-old-gostiny-dvor/"/>
  </node>
  <node id="3501044091" version="2" timestamp="2016-09-02T17:56:14Z" uid="830106" user="literan" changeset="41874134" lat="55.7581464" lon="37.5853162">
    <tag k="name" v="П.И. Чайковский и Москва"/>
    <tag k="tourism" v="museum"/>
  </node>
  <node id="3501050337" version="2" timestamp="2016-04-15T15:35:55Z" uid="260756" user="Felis Pimeja" changeset="38592147" lat="55.7610315" lon="37.5836102">
    <tag k="name" v="Интерактивный музей &quot;Лунариум&quot;"/>
    <tag k="tourism" v="museum"/>
    <tag k="website" v="http://www.planetarium-moscow.ru/in-the-planetarium/lunarium/"/>
  </node>
  <node id="3501078381" version="1" timestamp="2015-05-06T14:49:45Z" uid="2335615" user="a_isaeva" changeset="30844822" lat="55.7299494" lon="37.4330928">
    <tag k="name" v="Педагогический музей А.С.Макаренко"/>
    <tag k="tourism" v="museum"/>
    <tag k="website" v="http://www.makarenko-museum.narod.ru/"/>
  </node>
  <node id="3501090950" version="1" timestamp="2015-05-06T14:55:01Z" uid="2335615" user="a_isaeva" changeset="30844975" lat="55.7719604" lon="37.481038">
    <tag k="name" v="Музей барона Мюнхгаузена"/>
    <tag k="tourism" v="museum"/>
    <tag k="website" v="http://www.museum.ru/M3082"/>
  </node>
  <node id="3501092305" version="2" timestamp="2015-05-07T08:44:40Z" uid="830106" user="literan" changeset="30866013" lat="55.7810999" lon="37.4795144">
    <tag k="name" v="Самоцветы"/>
    <tag k="tourism" v="museum"/>
    <tag k="website" v="http://gemmuseum.ru/?object=static_page&amp;id=1"/>
  </node>
  <node id="3501093152" version="1" timestamp="2015-05-06T15:00:17Z" uid="2335615" user="a_isaeva" changeset="30845147" lat="55.787592" lon="37.5109055">
    <tag k="name" v="Центральный музей им. Б.В.Зимина Всероссийского общества слепых"/>
    <tag k="tourism" v="museum"/>
    <tag k="website" v="http://www.ksrk.ru/1285829492056082.html"/>
  </node>
  <node id="3501108218" version="1" timestamp="2015-05-06T15:07:52Z" uid="2335615" user="a_isaeva" changeset="30845355" lat="55.7956302" lon="37.5034669">
    <tag k="name" v="Музей истории телефонной связи МГТС"/>
    <tag k="tourism" v="museum"/>
    <tag k="website" v="http://www.mgts.ru/partner/company/about/museum/"/>
  </node>
  <node id="3501114729" version="1" timestamp="2015-05-06T15:11:29Z" uid="2335615" user="a_isaeva" changeset="30845491" lat="55.8099708" lon="37.4563707">
    <tag k="name" v="Музей памяти погибших воинов в Афганистане, Чечне и других горячих точках"/>
    <tag k="tourism" v="museum"/>
    <tag k="website" v="http://www.sovinformburo.com/terms/detail/?item_id=1005&amp;type=1"/>
  </node>
  <node id="3501119667" version="1" timestamp="2015-05-06T15:15:12Z" uid="2335615" user="a_isaeva" changeset="30845606" lat="55.793716" lon="37.5605257">
    <tag k="name" v="Музей истории евреев в России"/>
    <tag k="tourism" v="museum"/>
    <tag k="website" v="http://www.mievr.ru/"/>
  </node>
  <node id="3501130870" version="1" timestamp="2015-05-06T15:23:47Z" uid="2335615" user="a_isaeva" changeset="30845861" lat="55.7948522" lon="37.538643">
    <tag k="name" v="Музей спортивной славы ЦСКА"/>
    <tag k="tourism" v="museum"/>
    <tag k="website" v="http://www.cska.ru/museum.html"/>
  </node>
  <node id="3501148879" version="1" timestamp="2015-05-06T15:30:58Z" uid="2335615" user="a_isaeva" changeset="30846061" lat="55.8398495" lon="37.4887573">
    <tag k="name" v="Музей охоты и рыболовства"/>
    <tag k="tourism" v="museum"/>
    <tag k="website" v="http://rors-museum.ru/?page_id=76"/>
  </node>
  <node id="3502556677" version="1" timestamp="2015-05-07T08:38:10Z" uid="2335615" user="a_isaeva" changeset="30865833" lat="55.7876993" lon="37.6299878">
    <tag k="name" v="Музей Морского космического флота"/>
    <tag k="tourism" v="museum"/>
    <tag k="website" v="http://ski-omer.ru/museum/"/>
  </node>
  <node id="3502560194" version="1" timestamp="2015-05-07T08:42:28Z" uid="2335615" user="a_isaeva" changeset="30865952" lat="55.8434168" lon="37.4340882">
    <tag k="name" v="Музей экономики и быта"/>
    <tag k="tourism" v="museum"/>
    <tag k="wikipedia" v="ru:Музей экономики и быта"/>
  </node>
  <node id="3502599105" version="3" timestamp="2016-08-26T04:11:17Z" uid="524417" user="geevee" changeset="41705942" lat="55.8578944" lon="37.4656142">
    <tag k="name" v="Музей денег"/>
    <tag k="name:en" v="Money Museum"/>
    <tag k="name:ru" v="Музей денег"/>
    <tag k="opening_hours" v="Mo-Fr 10:00-18:00; Sa-Su 11:00-19:00"/>
    <tag k="phone" v="+7 499 652 94 56"/>
    <tag k="tourism" v="museum"/>
    <tag k="website" v="http://muzeydeneg.ru/contacts/"/>
  </node>
  <node id="3502676039" version="2" timestamp="2016-07-27T08:03:06Z" uid="864907" user="Angrycat" changeset="41056028" lat="55.8305994" lon="37.553283">
    <tag k="contact:email" v="webmaster@deol.ru"/>
    <tag k="contact:phone" v="+7 495 9761003"/>
    <tag k="contact:website" v="http://www.deol.ru/culture/museum/koni.htm"/>
    <tag k="name" v="Научно-художественный музей коневодства"/>
    <tag k="opening_hours" v="Mo-Th 10:00-17:00; Fr 10:00-16:00"/>
    <tag k="tourism" v="museum"/>
    <tag k="website" v="http://www.timacad.ru/departments/museum/"/>
  </node>
  <node id="3502683505" version="1" timestamp="2015-05-07T10:18:44Z" uid="2335615" user="a_isaeva" changeset="30868471" lat="55.8489299" lon="37.5871807">
    <tag k="name" v="Музей русского костюма"/>
    <tag k="phone" v="+7 495 973-33-64"/>
    <tag k="tourism" v="museum"/>
    <tag k="website" v="http://www.mosstarina.narod.ru/"/>
    <tag k="addr:street" v="Алтуфьевское шоссе"/>
    <tag k="addr:housenumber" v="2 к1"/>
  </node>
  <node id="3502818838" version="1" timestamp="2015-05-07T11:48:37Z" uid="2335615" user="a_isaeva" changeset="30870847" lat="55.800441" lon="37.714">
    <tag k="name" v="Музей истории телефона"/>
    <tag k="phone" v="+7 (495) 800-13-30"/>
    <tag k="name:en" v="The Museum of Telephone History"/>
    <tag k="tourism" v="museum"/>
    <tag k="website" v="http://www.telhistory.ru/"/>
    <tag k="opening_hours" v="Sa-Su 11:00-17:00"/>
  </node>
  <node id="3502825887" version="1" timestamp="2015-05-07T11:55:53Z" uid="2335615" user="a_isaeva" changeset="30871080" lat="55.79666" lon="37.7332167">
    <tag k="name" v="Музей народной игрушки &quot;Забавушка&quot;"/>
    <tag k="phone" v="+7 (499)1612618"/>
    <tag k="tourism" v="museum"/>
    <tag k="website" v="http://www.zabawushka.ru/"/>
  </node>
  <node id="3502875291" version="1" timestamp="2015-05-07T12:34:18Z" uid="2335615" user="a_isaeva" changeset="30872195" lat="55.7944017" lon="37.7517782">
    <tag k="name" v="Музей истории Российского флота"/>
    <tag k="tourism" v="museum"/>
    <tag k="website" v="http://www.kremlin-izmailovo.com/muzei/muzey-istorii-rossiyskogo-flota"/>
  </node>
  <node id="3502875292" version="3" timestamp="2017-03-26T11:26:54Z" uid="830106" user="literan" changeset="47172745" lat="55.7939815" lon="37.7510901">
    <tag k="name" v="Музей янтаря"/>
    <tag k="name:es" v="Museo del ambar"/>
    <tag k="name:ru" v="Музей янтаря"/>
    <tag k="tourism" v="museum"/>
  </node>
  <node id="3502875693" version="1" timestamp="2015-05-07T12:34:18Z" uid="2335615" user="a_isaeva" changeset="30872195" lat="55.7941171" lon="37.7519522">
    <tag k="name" v="Музей колоколов"/>
    <tag k="tourism" v="museum"/>
  </node>
  <node id="3502875694" version="1" timestamp="2015-05-07T12:34:18Z" uid="2335615" user="a_isaeva" changeset="30872195" lat="55.7942772" lon="37.7519126">
    <tag k="name" v="Музей национального костюма"/>
    <tag k="tourism" v="museum"/>
  </node>
  <node id="3502875695" version="1" timestamp="2015-05-07T12:34:18Z" uid="2335615" user="a_isaeva" changeset="30872195" lat="55.7945951" lon="37.7505642">
    <tag k="name" v="Музей русской игрушки"/>
    <tag k="tourism" v="museum"/>
  </node>
  <node id="3502875696" version="1" timestamp="2015-05-07T12:34:18Z" uid="2335615" user="a_isaeva" changeset="30872195" lat="55.7945462" lon="37.7511613">
    <tag k="name" v="Музей русской сказки"/>
    <tag k="tourism" v="museum"/>
  </node>
  <node id="3502875697" version="2" timestamp="2016-07-26T09:08:22Z" uid="397326" user="trolleway" changeset="41032475" lat="55.7940393" lon="37.750584">
    <tag k="name" v="Музей истории водки"/>
    <tag k="name:en" v="Museum of vodka history"/>
    <tag k="tourism" v="museum"/>
  </node>
  <node id="3502875698" version="3" timestamp="2016-07-29T13:32:51Z" uid="830106" user="literan" changeset="41109754" lat="55.794126" lon="37.7495321">
    <tag k="name" v="Музей хлеба"/>
    <tag k="tourism" v="museum"/>
  </node>
  <node id="3502875699" version="1" timestamp="2015-05-07T12:34:18Z" uid="2335615" user="a_isaeva" changeset="30872195" lat="55.7939326" lon="37.7516002">
    <tag k="name" v="Музей миниатюр"/>
    <tag k="phone" v="+7 (903) 746-41-40"/>
    <tag k="tourism" v="museum"/>
    <tag k="website" v="http://www.plastmuseum.ru/"/>
    <tag k="opening_hours" v="We-Su 10:00-17:00"/>
  </node>
  <node id="3502923947" version="2" timestamp="2016-12-19T16:33:50Z" uid="519501" user="parukhin" changeset="44519943" lat="55.7604841" lon="37.6984822">
    <tag k="name" v="Центральный музей Внутренних войск МВД России"/>
    <tag k="opening_hours" v="Mo-Su 09:00-18:00; We off"/>
    <tag k="tourism" v="museum"/>
    <tag k="website" v="http://www.museum.ru/M344"/>
  </node>
  <node id="3502941745" version="1" timestamp="2015-05-07T13:30:40Z" uid="2335615" user="a_isaeva" changeset="30873789" lat="55.7637405" lon="37.6485028">
    <tag k="name" v="Музей-квартира А.М. Васнецова"/>
    <tag k="phone" v="+7 495-608-90-45"/>
    <tag k="tourism" v="museum"/>
    <tag k="website" v="http://www.tretyakovgallery.ru/ru/visitors/address/flatamvasn/"/>
    <tag k="opening_hours" v="Tu-Sa 11:00-17:00"/>
  </node>
  <node id="3502959734" version="2" timestamp="2016-05-15T09:47:09Z" uid="3914341" user="Mihail Arhipov" changeset="39327624" lat="55.7468011" lon="37.7163464">
    <tag k="name" v="Музей службы внешней разведки"/>
    <tag k="phone" v="+7 (495) 673-17-29"/>
    <tag k="tourism" v="museum"/>
    <tag k="website" v="http://svr.mfua.ru/index.php"/>
  </node>
  <node id="3502990779" version="1" timestamp="2015-05-07T14:16:50Z" uid="2335615" user="a_isaeva" changeset="30874953" lat="55.7447338" lon="37.7195663">
    <tag k="name" v="Музей кочевой культуры"/>
    <tag k="tourism" v="museum"/>
    <tag k="website" v="http://nomadic.ru/"/>
  </node>
  <node id="3503033016" version="2" timestamp="2015-06-26T14:00:23Z" uid="260756" user="Felis Pimeja" changeset="32226183" lat="55.7246933" lon="37.6088853">
    <tag k="name" v="Музей предпринимателей, меценатов и благотворителей"/>
    <tag k="note" v="В выходные музей работает только по предварительной договоренности"/>
    <tag k="phone" v="+7 499 237-53-49"/>
    <tag k="tourism" v="museum"/>
    <tag k="website" v="http://muzeum.me/index.php"/>
    <tag k="opening_hours" v="Mo-Fr 13:00-18:00"/>
  </node>
  <node id="3503035852" version="1" timestamp="2015-05-07T14:42:07Z" uid="2335615" user="a_isaeva" changeset="30875561" lat="55.7305417" lon="37.620206">
    <tag k="name" v="Союзники и Ленд-Лиз"/>
    <tag k="note" v="По вопросам посещения музея обращаться по контактным телефонам"/>
    <tag k="phone" v="+7 499 238-75-89"/>
    <tag k="tourism" v="museum"/>
  </node>
  <node id="3503058809" version="2" timestamp="2015-06-26T14:00:22Z" uid="260756" user="Felis Pimeja" changeset="32226183" lat="55.7360189" lon="37.6294935">
    <tag k="name" v="Московский музей образования"/>
    <tag k="note" v="Только экскурсионное обслуживание по предварительной договоренности"/>
    <tag k="tourism" v="museum"/>
    <tag k="opening_hours" v="Mo-Su 11:00-17:00; Fr off; Th[1] off"/>
  </node>
  <node id="3503097494" version="4" timestamp="2017-03-25T12:17:24Z" uid="830106" user="literan" changeset="47149349" lat="55.7436562" lon="37.6262588">
    <tag k="fee" v="yes"/>
    <tag k="name" v="Музей Игоря Талькова"/>
    <tag k="opening_hours" v="We-Sa 12:00-18:00; Su 12:00-17:00"/>
    <tag k="tourism" v="museum"/>
    <tag k="website" v="http://www.talkov.su/museum.php"/>
  </node>
  <node id="3503118696" version="2" timestamp="2015-10-05T16:54:18Z" uid="520239" user="Gutsycat" changeset="34451938" lat="55.7126717" lon="37.5776918">
    <tag k="name" v="Экоцентр &quot;Воробьёвы горы&quot;"/>
    <tag k="note" v="Со вторника по пятницу проводятся экскурсии для организованных групп (школьных классов). Самостоятельных посетителей Экоцентр приглашает по выходным."/>
    <tag k="phone" v="+7 495 2256592"/>
    <tag k="tourism" v="museum"/>
    <tag k="website" v="http://www.ecocenter-vg.ru/"/>
    <tag k="opening_hours" v="Tu-Su 10:00-18:00"/>
  </node>
  <node id="3503120479" version="1" timestamp="2015-05-07T15:38:45Z" uid="2335615" user="a_isaeva" changeset="30877017" lat="55.7086433" lon="37.5756483">
    <tag k="name" v="Музей-кабинет П.Л. Капицы"/>
    <tag k="note" v="Посещение музея возможно исключительно по предварительной договоренности"/>
    <tag k="tourism" v="museum"/>
    <tag k="website" v="http://www.kapitza.ras.ru/museum/index.htm"/>
  </node>
  <node id="3503130075" version="2" timestamp="2015-10-04T15:14:01Z" uid="520239" user="Gutsycat" changeset="34429775" lat="55.7053245" lon="37.5496523">
    <tag k="name" v="Мемориальный кабинет-музей академика А.П. Виноградова"/>
    <tag k="note" v="Только экскурсионное обслуживание по предварительной договоренности"/>
    <tag k="phone" v="+7 495 9397700"/>
    <tag k="tourism" v="museum"/>
    <tag k="website" v="http://www.museum.ru/M1635"/>
    <tag k="opening_hours" v="Mo-Fr 10:00-18:00"/>
  </node>
  <node id="3503152531" version="2" timestamp="2015-10-04T15:14:01Z" uid="520239" user="Gutsycat" changeset="34429775" lat="55.6745198" lon="37.4347453">
    <tag k="name" v="Музей традиционных русских напитков"/>
    <tag k="note" v="Экскурсии проводятся только по предварительной записи"/>
    <tag k="phone" v="+7 495 7853907"/>
    <tag k="tourism" v="museum"/>
    <tag k="website" v="http://www.ochakovo.ru/museum/"/>
    <tag k="opening_hours" v="Mo-Sa 09:00-18:00"/>
  </node>
  <node id="3504855620" version="1" timestamp="2015-05-08T11:45:53Z" uid="2335615" user="a_isaeva" changeset="30901427" lat="55.7020943" lon="37.7458006">
    <tag k="name" v="Родные истоки"/>
    <tag k="source" v="http://www.infokniga.ru/muzej-rodnye-istoki-v-cdb-80"/>
    <tag k="tourism" v="museum"/>
  </node>
  <node id="3504886574" version="1" timestamp="2015-05-08T12:12:02Z" uid="2335615" user="a_isaeva" changeset="30902048" lat="55.7202157" lon="37.8177448">
    <tag k="name" v="Музей воинской славы «Победные дни России»"/>
    <tag k="source" v="http://veshnyaki.org/publ/1-1-0-9"/>
    <tag k="tourism" v="museum"/>
  </node>
  <node id="3504985010" version="3" timestamp="2016-12-19T16:33:50Z" uid="519501" user="parukhin" changeset="44519943" lat="55.9112688" lon="37.7356398">
    <tag k="name" v="Мытищинский историко-художественный музей"/>
    <tag k="opening_hours" v="We-Sa 09:00-17:00; Su 09:00-16:00; Fr[-1] off"/>
    <tag k="phone" v="+7 495 5865298"/>
    <tag k="tourism" v="museum"/>
    <tag k="website" v="http://www.museum.ru/m476"/>
  </node>
  <node id="3504988274" version="2" timestamp="2015-10-04T13:18:09Z" uid="520239" user="Gutsycat" changeset="34427547" lat="55.9084124" lon="37.7360153">
    <tag k="name" v="Мытищинский музей охраны природы"/>
    <tag k="phone" v="+7 495 586-75-14"/>
    <tag k="source" v="http://mytishi.wikia.com/wiki/%D0%9C%D1%83%D0%B7%D0%B5%D0%B9_%D0%BE%D1%85%D1%80%D0%B0%D0%BD%D1%8B_%D0%BF%D1%80%D0%B8%D1%80%D0%BE%D0%B4%D1%8B"/>
    <tag k="tourism" v="museum"/>
    <tag k="opening_hours" v="Mo-Fr 10:00-18:00; Sa 10:00-15:00"/>
  </node>
  <node id="3554560005" version="1" timestamp="2015-05-28T16:36:19Z" uid="830106" user="literan" changeset="31535926" lat="55.7721743" lon="37.5939598">
    <tag k="name" v="Музей АЗ"/>
    <tag k="name:en" v="Anatoly Zverev Museum"/>
    <tag k="tourism" v="museum"/>
    <tag k="alt_name" v="Музей Анатолия Зверева"/>
    <tag k="contact:phone" v="+7 495 7305526"/>
    <tag k="contact:website" v="http://www.museum-az.com"/>
    <tag k="contact:facebook" v="https://www.facebook.com/museumAZ"/>
  </node>
  <node id="3558465025" version="3" timestamp="2017-04-08T11:36:15Z" uid="830106" user="literan" changeset="47565404" lat="55.7973125" lon="37.5492298">
    <tag k="name" v="Музей авиации и космонавтики"/>
    <tag k="opening_hours" v="We-Su 10:00-18:00"/>
    <tag k="tourism" v="museum"/>
  </node>
  <node id="3621783485" version="1" timestamp="2015-06-27T13:47:41Z" uid="947413" user="Autmn" changeset="32243248" lat="55.728085" lon="37.4997806">
    <tag k="tourism" v="museum"/>
  </node>
  <node id="3640280293" version="2" timestamp="2016-09-05T16:04:53Z" uid="830106" user="literan" changeset="41934659" lat="55.7461879" lon="37.600707">
    <tag k="contact:phone" v="+7 495 6904188"/>
    <tag k="contact:website" v="http://www.foto-expo.ru"/>
    <tag k="name" v="Фотоцентр"/>
    <tag k="opening_hours" v="Tu-Su 11:00-19:00"/>
    <tag k="tourism" v="museum"/>
  </node>
  <node id="3670614109" version="2" timestamp="2015-07-28T16:55:13Z" uid="1529694" user="VadimZ" changeset="32936808" lat="56.0074343" lon="37.6445656">
    <tag k="name" v="Музей подносов в Жостово"/>
    <tag k="tourism" v="museum"/>
    <tag k="website" v="http://www.zhostovo.ru/rus/museum"/>
  </node>
  <node id="3744335329" version="2" timestamp="2016-01-03T11:11:10Z" uid="363136" user="neo-plan" changeset="36335477" lat="55.6837287" lon="37.8918359">
    <tag k="name" v="По ленинским местам"/>
    <tag k="tourism" v="museum"/>
    <tag k="addr:city" v="Люберцы"/>
  </node>
  <node id="3749077353" version="2" timestamp="2016-07-27T08:24:00Z" uid="864907" user="Angrycat" changeset="41056487" lat="55.7701978" lon="37.5939994">
    <tag k="contact:phone" v="+7 495 2338212"/>
    <tag k="contact:website" v="http://www.chocoandcacao.ru"/>
    <tag k="name" v="Музей шоколада"/>
    <tag k="official_name" v="Музей истории русского шоколада"/>
    <tag k="opening_hours" v="Tu-Su 11:00-19:00"/>
    <tag k="short_name" v="М. И. Р. Шоколада"/>
    <tag k="tourism" v="museum"/>
    <tag k="wikidata" v="Q21043170"/>
    <tag k="wikipedia" v="ru:Музей шоколада (Москва)"/>
  </node>
  <node id="3794298653" version="1" timestamp="2015-10-20T13:22:29Z" uid="830106" user="literan" changeset="34755069" lat="55.7477911" lon="37.6004296">
    <tag k="name" v="Музей шахмат Российской шахматной федерации"/>
    <tag k="tourism" v="museum"/>
    <tag k="contact:website" v="http://ruchess.ru/chess_in_museums/museums/museum_tsdsh"/>
  </node>
  <node id="3848611737" version="4" timestamp="2017-03-09T06:38:05Z" uid="2853561" user="Владимир К" changeset="46700483" lat="55.734393" lon="37.6043823">
    <tag k="name" v="Центральный дом художника"/>
    <tag k="name:de" v="Zentrales Haus der Künstler"/>
    <tag k="name:en" v="Central House of Artists"/>
    <tag k="name:ru" v="Центральный дом художника"/>
    <tag k="phone" v="+7 499 2389634"/>
    <tag k="toilets:wheelchair" v="no"/>
    <tag k="tourism" v="museum"/>
    <tag k="website" v="http://www.cha.ru"/>
    <tag k="wheelchair" v="no"/>
  </node>
  <node id="3865094589" version="4" timestamp="2015-12-30T20:48:39Z" uid="152074" user="beweta" changeset="36271038" lat="55.7627819" lon="37.575478">
    <tag k="name" v="Музей истории зоопарка"/>
    <tag k="name:de" v="Museum der Geschichte des Zoos"/>
    <tag k="tourism" v="museum"/>
  </node>
  <node id="3876474244" version="5" timestamp="2016-07-27T06:56:38Z" uid="864907" user="Angrycat" changeset="41054686" lat="55.7617042" lon="37.6209646">
    <tag k="contact:email" v="0rub@15kop.ru"/>
    <tag k="contact:website" v="http://www.15kop.ru"/>
    <tag k="name" v="Музей советских игровых автоматов"/>
    <tag k="name:de" v="Museum der sowjetischen Arcade Maschinen"/>
    <tag k="name:en" v="Museum of Soviet arcade machines"/>
    <tag k="opening_hours" v="Mo-Su 11:00-21:00"/>
    <tag k="start_date" v="13.04.2007"/>
    <tag k="tourism" v="museum"/>
    <tag k="wikidata" v="Q21240844"/>
    <tag k="wikipedia" v="ru:Музей советских игровых автоматов"/>
  </node>
  <node id="3890722601" version="1" timestamp="2015-12-13T18:04:34Z" uid="409491" user="a1exus" changeset="35930619" lat="56.0114743" lon="37.8140108">
    <tag k="name" v="Дача-музей Маяковского"/>
    <tag k="tourism" v="museum"/>
    <tag k="website" v="http://www.акулова-гора.рф"/>
    <tag k="opening_hours" v="Tu-Su 12:00-18:00"/>
  </node>
  <node id="3891826990" version="1" timestamp="2015-12-14T14:14:42Z" uid="397326" user="trolleway" changeset="35946400" lat="55.7230083" lon="37.6512651">
    <tag k="name" v="Институт русского реалистического искусства"/>
    <tag k="name:en" v="Institut of Russian Realist Art"/>
    <tag k="tourism" v="museum"/>
    <tag k="entrance" v="yes"/>
    <tag k="contact:phone" v="+7 495 2761212"/>
    <tag k="opening_hours" v="Tu-Su 11:00-20:00; Th 12:00-21:00"/>
    <tag k="contact:website" v="http://www.rusrealart.ru"/>
  </node>
  <node id="3923292385" version="2" timestamp="2017-03-05T23:57:35Z" uid="3580412" user="Alexander-II" changeset="46609340" lat="55.6604706" lon="37.850529">
    <tag k="name" v="Музей истории овощеводства защищённого грунта России"/>
    <tag k="tourism" v="museum"/>
  </node>
  <node id="3982039118" version="3" timestamp="2016-12-20T06:05:35Z" uid="519501" user="parukhin" changeset="44532771" lat="55.7437685" lon="37.6102627">
    <tag k="addr:housenumber" v="9/13"/>
    <tag k="addr:postcode" v="115035"/>
    <tag k="addr:street" v="Черниговский переулок"/>
    <tag k="name" v="Музей пряника"/>
    <tag k="opening_hours" v="Mo-Su 10:00-20:00"/>
    <tag k="tourism" v="museum"/>
    <tag k="website" v="http://xn----8sbnhhejkntl4a6n.xn--p1ai/"/>
  </node>
  <node id="4088301220" version="1" timestamp="2016-03-31T14:28:15Z" uid="830106" user="literan" changeset="38199154" lat="55.7436565" lon="37.5879232">
    <tag k="name" v="Мемориальная квартира-музей Е.Б. Вахтангова"/>
    <tag k="tourism" v="museum"/>
  </node>
  <node id="4116418323" version="5" timestamp="2016-07-27T07:23:02Z" uid="864907" user="Angrycat" changeset="41055258" lat="55.8060829" lon="37.5902156">
    <tag k="addr:housenumber" v="3 с1"/>
    <tag k="addr:postcode" v="127015"/>
    <tag k="addr:street" v="Складочная улица"/>
    <tag k="contact:email" v="info@apple-museum.ru"/>
    <tag k="contact:phone" v="+7 915 1233527"/>
    <tag k="contact:website" v="http://apple-museum.ru"/>
    <tag k="level" v="2"/>
    <tag k="name" v="Музей техники Apple"/>
    <tag k="opening_hours" v="Tu-Th 17:00-21:00; Sa,Su 12:00-18:00"/>
    <tag k="tourism" v="museum"/>
    <tag k="wheelchair" v="yes"/>
  </node>
  <node id="4118442289" version="4" timestamp="2016-07-27T06:32:43Z" uid="864907" user="Angrycat" changeset="41054237" lat="55.7266294" lon="37.6307776">
    <tag k="contact:phone" v="+7 495 9549764; +7 495 9581674"/>
    <tag k="contact:website" v="http://esenin-museum.ru"/>
    <tag k="name" v="Московский государственный музей С.А. Есенина"/>
    <tag k="opening_hours" v="We-Su 10:00-18:00; Th 13:00-21:00"/>
    <tag k="tourism" v="museum"/>
    <tag k="wikidata" v="Q4304081"/>
    <tag k="wikipedia" v="ru:Московский государственный музей С. А. Есенина"/>
  </node>
  <node id="4139540604" version="1" timestamp="2016-04-21T22:12:42Z" uid="830106" user="literan" changeset="38770012" lat="55.7387307" lon="37.6258699">
    <tag k="contact:phone" v="+7 495 9531245"/>
    <tag k="contact:website" v="http://bakhrushin.theatre.ru/branches/mo"/>
    <tag k="name" v="Театральная галерея на Малой Ордынке"/>
    <tag k="opening_hours" v="We,Th 13:00-21:00; Fr-Su 12:00-19:00"/>
    <tag k="tourism" v="museum"/>
  </node>
  <node id="4197044090" version="3" timestamp="2017-02-01T11:02:47Z" uid="864907" user="Angrycat" changeset="45713325" lat="55.7750767" lon="37.6326814">
    <tag k="contact:phone" v="+7 495 6081403"/>
    <tag k="name" v="Садовое кольцо"/>
    <tag k="opening_hours" v="Mo-Sa 10:00-18:00; Th 10:00-21:00"/>
    <tag k="tourism" v="museum"/>
  </node>
  <node id="4197331909" version="3" timestamp="2016-07-27T14:55:48Z" uid="830106" user="literan" changeset="41064644" lat="55.7946296" lon="37.6673518">
    <tag k="contact:email" v="ussr-v-sokolniki@mail.ru"/>
    <tag k="contact:phone" v="+7 977 9067725"/>
    <tag k="contact:website" v="http://ussr-museum.com"/>
    <tag k="name" v="Билет в СССР"/>
    <tag k="opening_hours" v="Tu-Fr 11:00-21:00; Sa,Su 11:00-22:00"/>
    <tag k="tourism" v="museum"/>
  </node>
  <node id="4207039833" version="2" timestamp="2016-05-26T09:49:54Z" uid="830106" user="literan" changeset="39577049" lat="55.7803701" lon="37.5704021">
    <tag k="contact:facebook" v="https://www.facebook.com/rusimp.su"/>
    <tag k="contact:phone" v="+7 985 7588364"/>
    <tag k="contact:website" v="http://www.rusimp.su"/>
    <tag k="name" v="Музей русского импрессионизма"/>
    <tag k="opening_hours" v="Mo-Su 11:00-20:00"/>
    <tag k="tourism" v="museum"/>
    <tag k="website" v="http://www.rusimp.su/"/>
  </node>
  <node id="4226587395" version="3" timestamp="2016-06-06T11:15:55Z" uid="3708354" user="eugene-lisovskiy" changeset="39836207" lat="55.6899491" lon="37.7849539">
    <tag k="name" v="Музей Русской Усадебной Культуры"/>
    <tag k="opening_hours" v="Tu-Su 10:00-18:00"/>
    <tag k="tourism" v="museum"/>
  </node>
  <node id="4230479619" version="1" timestamp="2016-06-07T16:54:27Z" uid="4080330" user="Pavel513" changeset="39865977" lat="55.7860164" lon="37.6507404">
    <tag k="name" v="Двухосный вагон-музей депо ЛВЧД-1 Окт. ж. д."/>
    <tag k="tourism" v="museum"/>
  </node>
  <node id="4250506199" version="1" timestamp="2016-06-18T14:59:37Z" uid="2088235" user="dbf_" changeset="40117901" lat="55.8350724" lon="37.6228278">
    <tag k="name" v="Музей оптических иллюзий"/>
    <tag k="tourism" v="museum"/>
  </node>
  <node id="4268290189" version="1" timestamp="2016-06-27T15:48:54Z" uid="24702" user="Dmitry &apos;MAD&apos; Artamonow" changeset="40324469" lat="55.7960677" lon="37.7954339">
    <tag k="contact:email" v="musnaive@gmail.com"/>
    <tag k="contact:phone" v="+74956085251"/>
    <tag k="contact:website" v="http://naive-museum.ru"/>
    <tag k="name" v="Музей русского лубка и наивного искусства"/>
    <tag k="name:en" v="Museum of russian lubok and naive art"/>
    <tag k="opening_hours" v="We,Fr 12:00-19:00; Th 12:00-21:00; Sa,Su 12:00-18:00"/>
    <tag k="tourism" v="museum"/>
  </node>
  <node id="4273939096" version="2" timestamp="2017-04-12T18:04:42Z" uid="830106" user="literan" changeset="47703529" lat="55.761756" lon="37.6049648">
    <tag k="name" v="Алисиум"/>
    <tag k="opening_hours" v="Tu-Fr 11:00-22:00; Sa-Su 12:00-22:00"/>
    <tag k="tourism" v="museum"/>
  </node>
  <node id="4308709106" version="1" timestamp="2016-07-18T10:31:59Z" uid="830106" user="literan" changeset="40815554" lat="55.7642483" lon="37.607018">
    <tag k="contact:phone" v="+7 495 6298552"/>
    <tag k="contact:website" v="http://museumpreod.ru"/>
    <tag k="name" v="Myзeй – гyмaнитapный цeнтp «Пpeoдoлeниe» имeни H.A.Ocтpoвcкoгo"/>
    <tag k="opening_hours" v="Tu-Su 10:00-18:00; Th 13:00-21:00"/>
    <tag k="tourism" v="museum"/>
  </node>
  <node id="4311296093" version="3" timestamp="2017-02-01T19:56:59Z" uid="3580412" user="Alexander-II" changeset="45725817" lat="55.7503234" lon="37.5928533">
    <tag k="name" v="Музей оптических иллюзий"/>
    <tag k="tourism" v="museum"/>
  </node>
  <node id="4320799995" version="3" timestamp="2016-07-27T06:33:52Z" uid="864907" user="Angrycat" changeset="41054267" lat="55.7821016" lon="37.6091568">
    <tag k="contact:website" v="http://esenin-museum.ru"/>
    <tag k="disused" v="yes"/>
    <tag k="name" v="Московский государственный музей С.А. Есенина"/>
    <tag k="tourism" v="museum"/>
    <tag k="wikidata" v="Q4304081"/>
    <tag k="wikipedia" v="ru:Московский государственный музей С. А. Есенина"/>
  </node>
  <node id="4320816461" version="3" timestamp="2016-09-28T18:33:20Z" uid="363136" user="neo-plan" changeset="42501613" lat="55.8932375" lon="37.529104">
    <tag k="contact:email" v="klyazma@esenin-museum.ru"/>
    <tag k="contact:phone" v="+7 495 4839515"/>
    <tag k="contact:website" v="http://esenin-museum.ru"/>
    <tag k="name" v="Московский государственный музей С.А. Есенина (филиал)"/>
    <tag k="opening_hours" v="Th 13:00-20:00; Fr-Su 11:00-18:00"/>
    <tag k="tourism" v="museum"/>
    <tag k="wikidata" v="Q4304081"/>
    <tag k="wikipedia" v="ru:Московский государственный музей С. А. Есенина"/>
  </node>
  <node id="4322797804" version="1" timestamp="2016-07-27T07:23:02Z" uid="864907" user="Angrycat" changeset="41055258" lat="55.7520884" lon="37.5805628">
    <tag k="contact:phone" v="+7 919 9654939"/>
    <tag k="contact:website" v="http://www.pereverzev.su"/>
    <tag k="name" v="Музей истории телесных наказаний"/>
    <tag k="opening_hours" v="Mo-Su 12:00-22:00"/>
    <tag k="tourism" v="museum"/>
    <tag k="wikidata" v="Q21641929"/>
    <tag k="wikipedia" v="ru:Музей истории телесных наказаний"/>
  </node>
  <node id="4322816346" version="1" timestamp="2016-07-27T07:48:41Z" uid="864907" user="Angrycat" changeset="41055751" lat="55.6939222" lon="37.7888031">
    <tag k="contact:email" v="mlmc-kgp@mail.ru"/>
    <tag k="contact:phone" v="+7 499 1727791"/>
    <tag k="contact:website" v="http://www.mirpaustowskogo.ru"/>
    <tag k="name" v="Московский литературный музей-центр К. Г. Паустовского"/>
    <tag k="name:en" v="Moscow Literary Museum Centre of KG Paustovsky"/>
    <tag k="official_name" v="ГБУК г. Москвы «Московский литературный музей-центр К. Г. Паустовского»"/>
    <tag k="tourism" v="museum"/>
  </node>
  <node id="4322817538" version="1" timestamp="2016-07-27T07:52:06Z" uid="864907" user="Angrycat" changeset="41055808" lat="55.6933643" lon="37.7881916">
    <tag k="contact:phone" v="+7 495 3773593; +7 495 9158132"/>
    <tag k="name" v="Музей меда"/>
    <tag k="opening_hours" v="Tu-Su 10:00-17:30"/>
    <tag k="tourism" v="museum"/>
  </node>
  <node id="4322849512" version="1" timestamp="2016-07-27T08:14:23Z" uid="864907" user="Angrycat" changeset="41056269" lat="55.7866193" lon="37.6593373">
    <tag k="contact:fax" v="+7 495 9825743"/>
    <tag k="contact:phone" v="+7 495 9825797; +7 915 0276577"/>
    <tag k="contact:website" v="http://chokomuseum.ru"/>
    <tag k="name" v="Музей истории шоколада и какао"/>
    <tag k="opening_hours" v="Mo-Su 09:30-17:30"/>
    <tag k="tourism" v="museum"/>
  </node>
  <node id="4385020794" version="1" timestamp="2016-09-05T10:03:25Z" uid="4531314" user="Виталий Копылов" changeset="41926567" lat="55.6228239" lon="37.6546088">
    <tag k="name" v="Мир тайн"/>
    <tag k="name:ru" v="Мир тайн"/>
    <tag k="tourism" v="museum"/>
  </node>
  <node id="4402371491" version="1" timestamp="2016-09-15T09:52:52Z" uid="4542596" user="Ситников Андрей" changeset="42168621" lat="55.6808367" lon="37.7374812">
    <tag k="addr:housenumber" v="48"/>
    <tag k="addr:street" v="Люблинская улица"/>
    <tag k="internet_access" v="wlan"/>
    <tag k="name" v="РОСИЗО"/>
    <tag k="name:ru" v="РОСИЗО"/>
    <tag k="opening_hours" v="Mo-Su 08:00-11:45, 20:15-23:00"/>
    <tag k="operator" v="Министерство Культуры РФ"/>
    <tag k="tourism" v="museum"/>
    <tag k="website" v="http://rosizo.ru"/>
  </node>
  <node id="4402914748" version="1" timestamp="2016-09-15T17:01:45Z" uid="830106" user="literan" changeset="42179182" lat="55.7408625" lon="37.5964848">
    <tag k="contact:phone" v="+7 495 6372810"/>
    <tag k="contact:website" v="http://www.kournikovagallery.ru"/>
    <tag k="name" v="Галерея &quot;Наши художники&quot;"/>
    <tag k="opening_hours" v="Tu-Su 11:00-20:00"/>
    <tag k="tourism" v="museum"/>
  </node>
  <node id="4438805089" version="2" timestamp="2016-10-16T11:58:28Z" uid="830106" user="literan" changeset="42934640" lat="55.8419239" lon="37.366496">
    <tag k="name" v="Галерея &quot;Праздник души&quot;"/>
    <tag k="name:ru" v="Галерея &quot;Праздник души&quot;"/>
    <tag k="tourism" v="museum"/>
  </node>
  <node id="4462006506" version="1" timestamp="2016-10-24T15:15:31Z" uid="363136" user="neo-plan" changeset="43126166" lat="55.7805004" lon="37.7236135">
    <tag k="name" v="Школьный музей 2-й Дивизии Народного Ополчения"/>
    <tag k="tourism" v="museum"/>
  </node>
  <node id="4491847389" version="1" timestamp="2016-11-10T08:06:11Z" uid="830106" user="literan" changeset="43527333" lat="55.7599877" lon="37.5974097">
    <tag k="contact:phone" v="+7 495 6958346"/>
    <tag k="contact:website" v="http://www.sviatoslav-richter.ru"/>
    <tag k="level" v="16"/>
    <tag k="name" v="Мемориальная квартира Святослава Рихтера"/>
    <tag k="opening_hours" v="We-Sa 14:00-20:00; Su 12:00-18:00"/>
    <tag k="reservation" v="required"/>
    <tag k="tourism" v="museum"/>
  </node>
  <node id="4511029489" version="1" timestamp="2016-11-19T19:17:50Z" uid="4817517" user="Oleg Fetisov" changeset="43807763" lat="56.0238494" lon="37.4725219">
    <tag k="addr:postcode" v="141731"/>
    <tag k="name" v="Музей истории города Лобня"/>
    <tag k="name:ru" v="Музей истории города Лобня"/>
    <tag k="opening_hours" v="Tu-Sa 10:00-18:00"/>
    <tag k="tourism" v="museum"/>
    <tag k="website" v="http://museum-lobnya.ru"/>
  </node>
  <node id="4518520587" version="1" timestamp="2016-11-24T06:42:56Z" uid="1083405" user="vylekzhanin" changeset="43912032" lat="55.6900474" lon="37.793434">
    <tag k="name" v="Музей истории усадьбы Кузьминки"/>
    <tag k="tourism" v="museum"/>
  </node>
  <node id="4518521720" version="1" timestamp="2016-11-24T06:42:57Z" uid="1083405" user="vylekzhanin" changeset="43912032" lat="55.6883812" lon="37.7720841">
    <tag k="name" v="Музей индустриальной культуры"/>
    <tag k="tourism" v="museum"/>
  </node>
  <node id="4565595670" version="3" timestamp="2016-12-30T14:27:03Z" uid="336354" user="esaulenka" changeset="44785554" lat="55.7548702" lon="37.6244065">
    <tag k="addr:housenumber" v="3/8 с5"/>
    <tag k="addr:postcode" v="109012"/>
    <tag k="addr:street" v="улица Ильинка"/>
    <tag k="name" v="Галерея «Триумф»"/>
    <tag k="opening_hours" v="11:00-20:00"/>
    <tag k="phone" v="+7 495 162 0893"/>
    <tag k="tourism" v="museum"/>
    <tag k="website" v="http://www.triumph-gallery.ru/"/>
    <tag k="wheelchair" v="no"/>
  </node>
  <node id="4579285186" version="1" timestamp="2016-12-29T11:44:36Z" uid="830106" user="literan" changeset="44755218" lat="55.7499753" lon="37.5405621">
    <tag k="contact:phone" v="+7 499 3216461"/>
    <tag k="contact:website" v="http://mosmetro.ru/about/prof-center"/>
    <tag k="layer" v="-2"/>
    <tag k="name" v="Центр профориентации Московского метрополитена"/>
    <tag k="note" v="несмотря на название, это именно музей, см. сайт"/>
    <tag k="opening_hours" v="Mo-Su 10:00-18:00"/>
    <tag k="tourism" v="museum"/>
  </node>
  <node id="4621388189" version="1" timestamp="2017-01-20T21:35:15Z" uid="5161469" user="Артём Т" changeset="45338980" lat="55.831234" lon="37.3315264">
    <tag k="addr:housenumber" v="8"/>
    <tag k="addr:street" v="Речная улица"/>
    <tag k="name" v="Музей ПАО КМЗ"/>
    <tag k="name:en" v="JSC KMZ museum"/>
    <tag k="name:ru" v="Музей ПАО КМЗ"/>
    <tag k="tourism" v="museum"/>
  </node>
  <node id="4625222504" version="1" timestamp="2017-01-23T11:21:36Z" uid="363136" user="neo-plan" changeset="45396627" lat="55.7724725" lon="37.8328649">
    <tag k="name" v="Районный краеведческий музей &quot;Ивановское&quot;"/>
    <tag k="tourism" v="museum"/>
  </node>
  <node id="4653903018" version="1" timestamp="2017-02-01T19:56:09Z" uid="3580412" user="Alexander-II" changeset="45725817" lat="55.7410324" lon="37.5928938">
    <tag k="alt_name" v="Галерея искусств Зураба Церетели"/>
    <tag k="name" v="Выставочный комплекс Российской академии художеств"/>
    <tag k="name:de" v="Russische Akademie der Künste"/>
    <tag k="name:en" v="Russian Academy of Arts"/>
    <tag k="tourism" v="museum"/>
  </node>
  <node id="4658944491" version="2" timestamp="2017-02-15T03:59:59Z" uid="3580412" user="Alexander-II" changeset="46095785" lat="55.8281909" lon="37.6466344">
    <tag k="charge" v="200₽"/>
    <tag k="contact:email" v="info@moscowmanege.ru"/>
    <tag k="contact:phone" v="+7 495 683 56 40; +7 495 683 61 96."/>
    <tag k="contact:website" v="http://moscowmanege.ru/ru/o-ploshhadke-rabochij-i-kolxoznica/"/>
    <tag k="fee" v="yes"/>
    <tag k="name" v="Выставочный центр «Рабочий и колхозница»"/>
    <tag k="note" v="Вынесено отдельной точкой, чтобы указать start_date начала работы музея, а не постройки здания"/>
    <tag k="opening_hours" v="12:00-21:00; 12:00-20:30 &quot;кассы открыты&quot;; Mo off"/>
    <tag k="start_date" v="2010-09-04"/>
    <tag k="tourism" v="museum"/>
  </node>
  <node id="4688642872" version="1" timestamp="2017-02-16T11:38:19Z" uid="830106" user="literan" changeset="46134605" lat="55.7584994" lon="37.2342337">
    <tag k="contact:phone" v="+7 495 5614332"/>
    <tag k="name" v="Музей Дворцового села Ильинское"/>
    <tag k="reservation" v="required"/>
    <tag k="tourism" v="museum"/>
  </node>
  <node id="4692951498" version="1" timestamp="2017-02-18T23:59:34Z" uid="3580412" user="Alexander-II" changeset="46204349" lat="55.7581621" lon="37.596354">
    <tag k="contact:phone" v="+7 495 6905130"/>
    <tag k="contact:website" v="http://www.museum.ru/M402"/>
    <tag k="name" v="Мемориальный музей-квартира А.М. Горького"/>
    <tag k="name:en" v="Gorky Museum"/>
    <tag k="opening_hours" v="We-Su 11:00-17:30"/>
    <tag k="tourism" v="museum"/>
    <tag k="wikidata" v="Q16678355"/>
    <tag k="wikipedia" v="ru:Музей-квартира А. М. Горького (Москва)"/>
  </node>
  <node id="4693655015" version="1" timestamp="2017-02-19T15:06:25Z" uid="363136" user="neo-plan" changeset="46218092" lat="55.7542692" lon="37.7753984">
    <tag k="name" v="Музей кинозвёзд"/>
    <tag k="tourism" v="museum"/>
  </node>
  <node id="4719450733" version="1" timestamp="2017-03-05T23:57:05Z" uid="3580412" user="Alexander-II" changeset="46609340" lat="55.6604653" lon="37.8503854">
    <tag k="name" v="Музей истории агрофирмы &quot;Белая Дача&quot;"/>
    <tag k="opening_hours" v="Mo-Fr 09:00-19:00; Sa-Su 09:00-15:00"/>
    <tag k="tourism" v="museum"/>
    <tag k="website" v="http://www.zya.ru/dosug/dosug_offers/?id_realty_object=48473"/>
  </node>
  <node id="4729018560" version="2" timestamp="2017-03-13T11:57:26Z" uid="3580412" user="Alexander-II" changeset="46810584" lat="55.8590072" lon="37.6939543">
    <tag k="contact:website" v="http://mgsu.ru/resources/MuzeyMisi-Mgsu/"/>
    <tag k="start_date" v="1972-12"/>
    <tag k="tourism" v="museum"/>
  </node>
  <node id="4736041824" version="1" timestamp="2017-03-15T12:57:26Z" uid="5489738" user="Alexei Zapari" changeset="46868382" lat="55.6503551" lon="37.3229902">
    <tag k="name" v="Дом-музей Зураба Церетели"/>
    <tag k="tourism" v="museum"/>
  </node>
  <node id="4749731883" version="1" timestamp="2017-03-22T22:10:36Z" uid="830106" user="literan" changeset="47080799" lat="55.7430911" lon="37.6265752">
    <tag k="contact:phone" v="+7 967 1505287"/>
    <tag k="name" v="Музей ОСАО «Ингосстрах»"/>
    <tag k="tourism" v="museum"/>
  </node>
</osm>
