<?xml version='1.0' encoding='UTF-8'?>
<osm version="0.6" generator="Osmosis 0.45">
  <bounds minlon="37.11831" minlat="55.42577" maxlon="37.97562" maxlat="56.05624" origin="http://www.openstreetmap.org/api/0.6"/>
  <node id="249719606" version="3" timestamp="2017-03-09T23:07:07Z" uid="3580412" user="Alexander-II" changeset="46724535" lat="55.6893577" lon="37.6757689">
    <tag k="amenity" v="ferry_terminal"/>
    <tag k="harbour" v="yes"/>
    <tag k="name" v="Южный речной вокзал"/>
    <tag k="name:da" v="Sydlige flodterminal"/>
    <tag k="name:en" v="Southern River Station"/>
    <tag k="tourism" v="attraction"/>
    <tag k="wikidata" v="Q4534176"/>
    <tag k="wikipedia" v="ru:Южный_речной_вокзал"/>
  </node>
  <node id="266720662" version="10" timestamp="2017-02-04T23:44:34Z" uid="403870" user="BushmanK" changeset="45817967" lat="55.7469576" lon="37.6427946">
    <tag k="description:en" v="Grand Stalinist high-rise aparment bloc, built 1938-1952. One of the so-called Seven Sisters."/>
    <tag k="name" v="Жилой дом на Котельнической набережной"/>
    <tag k="name:en" v="Kotelnicheskaya Embankment Building"/>
    <tag k="tourism" v="attraction"/>
    <tag k="wikidata" v="Q2022067"/>
    <tag k="wikipedia" v="ru:Жилой дом на Котельнической набережной"/>
  </node>
  <node id="270920014" version="13" timestamp="2017-01-19T10:08:31Z" uid="1925053" user="J_Doe" changeset="45293393" lat="55.9286013" lon="37.2414645">
    <tag k="historic" v="manor"/>
    <tag k="name" v="усадьба Середниково"/>
    <tag k="name:en" v="Serednikovo"/>
    <tag k="name:ru" v="усадьба Середниково"/>
    <tag k="tourism" v="attraction"/>
  </node>
  <node id="272669303" version="6" timestamp="2015-03-22T15:13:38Z" uid="830106" user="literan" changeset="29658794" lat="55.756784" lon="37.5886476">
    <tag k="name" v="Особняк Миндовского"/>
    <tag k="name:en" v="Mindovsky mansion"/>
    <tag k="tourism" v="attraction"/>
  </node>
  <node id="311999396" version="16" timestamp="2017-02-25T18:27:06Z" uid="554227" user="Maxmeles" changeset="46399749" lat="55.7514667" lon="37.6179211">
    <tag k="historic" v="cannon"/>
    <tag k="name" v="Царь-пушка"/>
    <tag k="name:be" v="Цар-гармата"/>
    <tag k="name:chm" v="Кугыжа-орудий"/>
    <tag k="name:de" v="Zarenkanone"/>
    <tag k="name:en" v="Tsar Cannon"/>
    <tag k="name:es" v="cañón zar"/>
    <tag k="name:et" v="Tsaar-suurtükk"/>
    <tag k="name:ru" v="Царь-пушка"/>
    <tag k="name:sl" v="Car-puška"/>
    <tag k="name:uk" v="Цар-гармата"/>
    <tag k="tourism" v="attraction"/>
    <tag k="wikidata" v="Q147881"/>
    <tag k="wikipedia" v="ru:Царь-пушка"/>
  </node>
  <node id="311999397" version="18" timestamp="2017-01-24T14:19:26Z" uid="2853561" user="Владимир К" changeset="45437071" lat="55.7508375" lon="37.6184908">
    <tag k="name" v="Царь-колокол"/>
    <tag k="name:be" v="Цар-звон"/>
    <tag k="name:de" v="Zarenglocke"/>
    <tag k="name:en" v="Tsar Bell"/>
    <tag k="name:eo" v="Caro-sonorilo"/>
    <tag k="name:es" v="La Campana del Zar"/>
    <tag k="tourism" v="attraction"/>
    <tag k="wheelchair" v="yes"/>
    <tag k="wikidata" v="Q147875"/>
    <tag k="wikipedia" v="ru:Царь-колокол"/>
  </node>
  <node id="416562790" version="13" timestamp="2017-01-12T18:49:14Z" uid="3580412" user="Alexander-II" changeset="45113007" lat="55.7653354" lon="37.6054856">
    <tag k="historic" v="memorial"/>
    <tag k="memorial" v="statue"/>
    <tag k="name" v="А. С. Пушкину"/>
    <tag k="name:de" v="Denkmal für A. S. Puschkin"/>
    <tag k="tourism" v="attraction"/>
  </node>
  <node id="429259987" version="3" timestamp="2012-10-31T13:29:25Z" uid="31385" user="Skippern" changeset="13698851" lat="55.8899813" lon="37.4588022">
    <tag k="name" v="Заброшенное судно"/>
    <tag k="tourism" v="attraction"/>
    <tag k="historic" v="wreck"/>
    <tag k="seamark:type" v="wreck"/>
  </node>
  <node id="510624974" version="4" timestamp="2016-08-03T08:55:06Z" uid="382604" user="MosKartograf" changeset="41209628" lat="55.6156575" lon="37.6845333">
    <tag k="barrier" v="gate"/>
    <tag k="tourism" v="attraction"/>
  </node>
  <node id="517339850" version="3" timestamp="2017-03-05T23:57:11Z" uid="3580412" user="Alexander-II" changeset="46609340" lat="55.6840511" lon="37.8749481">
    <tag k="historic" v="memorial"/>
    <tag k="name" v="Пожарная машина ГАЗ-51"/>
    <tag k="tourism" v="attraction"/>
  </node>
  <node id="566683529" version="14" timestamp="2016-06-18T11:31:46Z" uid="830106" user="literan" changeset="40114021" lat="55.769621" lon="37.5956487">
    <tag k="historic" v="memorial"/>
    <tag k="memorial" v="statue"/>
    <tag k="name" v="В. В. Маяковский"/>
    <tag k="tourism" v="attraction"/>
  </node>
  <node id="583204619" version="7" timestamp="2016-08-10T12:31:36Z" uid="4112185" user="Ngel" changeset="41366505" lat="55.7558399" lon="37.6176755">
    <tag k="name" v="Нулевой километр"/>
    <tag k="name:be" v="Нулявы кіламетр"/>
    <tag k="name:de" v="Kilometer Null"/>
    <tag k="name:en" v="Kilometre zero"/>
    <tag k="name:es" v="Kilómetro 0"/>
    <tag k="name:ru" v="Нулевой километр"/>
    <tag k="tourism" v="attraction"/>
  </node>
  <node id="598961578" version="2" timestamp="2009-12-24T14:00:30Z" uid="177747" user="Vadim Zudkin" changeset="3442484" lat="55.5908933" lon="37.8521002">
    <tag k="name" v="Смотровая площадка"/>
    <tag k="tourism" v="attraction"/>
  </node>
  <node id="599196211" version="1" timestamp="2009-12-25T10:32:13Z" uid="177747" user="Vadim Zudkin" changeset="3447043" lat="55.7887321" lon="37.9150262">
    <tag k="name" v="Заброшенный грот"/>
    <tag k="tourism" v="attraction"/>
  </node>
  <node id="601766365" version="8" timestamp="2017-01-24T14:19:41Z" uid="2853561" user="Владимир К" changeset="45437071" lat="55.7626564" lon="37.6689087">
    <tag k="description" v="Вост. флигель парадного дворца, 1800-1801 гг., 1841-1843 гг."/>
    <tag k="description:en" v="Eastern front wing of the palace, built 1800-1801, 1841-1843"/>
    <tag k="historic" v="manor"/>
    <tag k="name" v="Городская усадьба Разумовского"/>
    <tag k="name:en" v="Razumovsky house"/>
    <tag k="tourism" v="attraction"/>
    <tag k="wikidata" v="Q4145444"/>
    <tag k="wikipedia" v="ru:Городская усадьба Разумовского"/>
  </node>
  <node id="614438912" version="13" timestamp="2017-01-24T14:19:41Z" uid="2853561" user="Владимир К" changeset="45437071" lat="55.8280999" lon="37.6470354">
    <tag k="addr:street" v="проспект Мира"/>
    <tag k="historic" v="monument"/>
    <tag k="name" v="Рабочий и колхозница"/>
    <tag k="name:af" v="Arbeider en Kolchoswerkster"/>
    <tag k="name:ar" v="العامل والمزارعة النموذجية"/>
    <tag k="name:az" v="Fəhlə və kolxozçu"/>
    <tag k="name:be" v="Рабочы і калгасніца"/>
    <tag k="name:bg" v="Работник и колхозничка"/>
    <tag k="name:ca" v="Obrer i Dona del Kolkhoz"/>
    <tag k="name:cs" v="Dělník a kolchoznice"/>
    <tag k="name:de" v="Arbeiter und Kolchosbäuerin"/>
    <tag k="name:en" v="Worker and Kolkhoz Woman"/>
    <tag k="name:eo" v="Laboristo kaj Kolĥozanino"/>
    <tag k="name:es" v="Obrero y koljosiana"/>
    <tag k="name:fa" v="کارگر و زن کلخوز"/>
    <tag k="name:fi" v="Työläinen ja kolhoosinainen"/>
    <tag k="name:fr" v="L&apos;Ouvrier et la Kolkhozienne"/>
    <tag k="name:he" v="הפועל ואשת הקולחוז"/>
    <tag k="name:id" v="Pekerja dan Wanita Kolkhoz"/>
    <tag k="name:is" v="Iðnverkamaðurinn og samyrkjukonan"/>
    <tag k="name:it" v="L&apos;operaio e la kolchoziana"/>
    <tag k="name:lt" v="Darbininkas ir kolūkietė"/>
    <tag k="name:nl" v="Arbeider en kolchozboerin"/>
    <tag k="name:no" v="Arbeider og kolkhoskvinne"/>
    <tag k="name:pl" v="Robotnik i kołchoźnica"/>
    <tag k="name:pt" v="Operário e Mulher Kolkosiana"/>
    <tag k="name:sr" v="Радник и колхозница"/>
    <tag k="name:sv" v="Arbetare och kolchoskvinna"/>
    <tag k="name:tr" v="İşçi ve Çiftçi Kadın Heykeli"/>
    <tag k="name:uk" v="Робітник і колгоспниця"/>
    <tag k="name:vi" v="Công nhân và nữ nông trang viên"/>
    <tag k="name:zh" v="工人和集体农庄女庄员"/>
    <tag k="tourism" v="attraction"/>
    <tag k="wikidata" v="Q627114"/>
    <tag k="wikipedia" v="ru:Рабочий и колхозница"/>
  </node>
  <node id="693644274" version="6" timestamp="2017-01-26T09:48:44Z" uid="2853561" user="Владимир К" changeset="45506048" lat="55.5259464" lon="37.6624364">
    <tag k="historic" v="manor"/>
    <tag k="name" v="Усадьба Суханово"/>
    <tag k="tourism" v="attraction"/>
    <tag k="wikidata" v="Q4446901"/>
    <tag k="wikipedia" v="ru:Суханово (усадьба)"/>
  </node>
  <node id="904570014" version="3" timestamp="2017-01-26T09:50:58Z" uid="2853561" user="Владимир К" changeset="45506048" lat="55.749739" lon="37.5833507">
    <tag k="historic" v="heritage"/>
    <tag k="name" v="Жилой дом с лавками"/>
    <tag k="name:en" v="heritage buildings"/>
    <tag k="official_name" v="Жилой дом с лавками Золотаревой И.С. - Финогеновых"/>
    <tag k="tourism" v="attraction"/>
    <tag k="wikidata" v="Q4310347"/>
    <tag k="wikipedia" v="ru:Мясницкая_улица"/>
  </node>
  <node id="904570109" version="2" timestamp="2015-04-17T15:48:24Z" uid="830106" user="literan" changeset="30289438" lat="55.7559664" lon="37.5891178">
    <tag k="name" v="Городская усадьба С.С. Гагарина"/>
    <tag k="tourism" v="attraction"/>
    <tag k="historic" v="heritage"/>
  </node>
  <node id="954996466" version="2" timestamp="2011-10-19T20:04:00Z" uid="533364" user="Podonok" changeset="9603516" lat="55.4383421" lon="37.465999">
    <tag k="name" v="Недостроенная плотина"/>
    <tag k="tourism" v="attraction"/>
    <tag k="addr:housename" v="aqua"/>
  </node>
  <node id="1002952438" version="1" timestamp="2010-11-24T19:52:58Z" uid="224318" user="egens" changeset="6449641" lat="55.6889305" lon="37.7881698">
    <tag k="name" v="Трехарочный грот"/>
    <tag k="tourism" v="attraction"/>
    <tag k="historic" v="ruins"/>
  </node>
  <node id="1002952526" version="1" timestamp="2010-11-24T19:52:59Z" uid="224318" user="egens" changeset="6449641" lat="55.6891835" lon="37.788156">
    <tag k="name" v="Большой грот"/>
    <tag k="tourism" v="attraction"/>
    <tag k="historic" v="ruins"/>
  </node>
  <node id="1067164071" version="2" timestamp="2017-02-05T17:07:08Z" uid="3580412" user="Alexander-II" changeset="45834373" lat="55.8992278" lon="37.6077048">
    <tag k="description" v="два пограничных столба"/>
    <tag k="historic" v="memorial"/>
    <tag k="name" v="В честь украинско-российской дружбы"/>
    <tag k="start_date" v="2000"/>
    <tag k="tourism" v="attraction"/>
    <tag k="website" v="http://wikimapia.org/9657046/ru/%D0%9C%D0%BE%D0%BD%D1%83%D0%BC%D0%B5%D0%BD%D1%82-%D0%B2-%D1%87%D0%B5%D1%81%D1%82%D1%8C-%D1%83%D0%BA%D1%80%D0%B0%D0%B8%D0%BD%D1%81%D0%BA%D0%BE-%D1%80%D0%BE%D1%81%D1%81%D0%B8%D0%B9%D1%81%D0%BA%D0%BE%D0%B9-%D0%B4%D1%80%D1%83%D"/>
  </node>
  <node id="1081354475" version="11" timestamp="2016-06-18T11:31:47Z" uid="830106" user="literan" changeset="40114021" lat="55.7459623" lon="37.6194741">
    <tag k="artist_name" v="Михаил Шемякин"/>
    <tag k="historic" v="memorial"/>
    <tag k="name" v="Дети — жертвы пороков взрослых"/>
    <tag k="name:en" v="The Children — Victims Of Adult Vices"/>
    <tag k="tourism" v="attraction"/>
  </node>
  <node id="1126133883" version="9" timestamp="2017-01-28T07:16:30Z" uid="3580412" user="Alexander-II" changeset="45584000" lat="55.8135074" lon="37.5990514">
    <tag k="historic" v="memorial"/>
    <tag k="name" v="плавленому сырку «Дружба» («Ворона и Лисица»)"/>
    <tag k="note" v="С 2015 года убран с постамента"/>
    <tag k="tourism" v="attraction"/>
    <tag k="wikidata" v="Q4343558"/>
    <tag k="wikipedia" v="ru:Памятник плавленому сырку «Дружба»"/>
  </node>
  <node id="1142662936" version="8" timestamp="2017-01-28T07:16:30Z" uid="3580412" user="Alexander-II" changeset="45584000" lat="55.748162" lon="37.5878316">
    <tag k="en:description" v="Monument to where lived Bulat Shalvovich Okudzhava, poet and musician 1924 - 1997"/>
    <tag k="historic" v="memorial"/>
    <tag k="memorial" v="statue"/>
    <tag k="name" v="Б. Ш. Окуджаве"/>
    <tag k="name:en" v="BS Okudzhava, poet/musician"/>
    <tag k="tourism" v="attraction"/>
  </node>
  <node id="1183421873" version="2" timestamp="2011-03-12T07:55:50Z" uid="127100" user="kaa" changeset="7530350" lat="56.027923" lon="37.2261883">
    <tag k="name" v="Эталонное время России"/>
    <tag k="amenity" v="clock"/>
    <tag k="tourism" v="attraction"/>
  </node>
  <node id="1234552468" version="1" timestamp="2011-04-06T08:51:32Z" uid="397326" user="trolleway" changeset="7782567" lat="55.9764686" lon="37.9059635">
    <tag k="amenity" v="clock"/>
    <tag k="disused" v="yes"/>
    <tag k="tourism" v="attraction"/>
  </node>
  <node id="1322990221" version="1" timestamp="2011-06-12T22:45:40Z" uid="314211" user="OldIvantey" changeset="8420791" lat="55.677517" lon="37.2643484">
    <tag k="name" v="Черепаха"/>
    <tag k="tourism" v="attraction"/>
  </node>
  <node id="1322990319" version="1" timestamp="2011-06-12T22:45:43Z" uid="314211" user="OldIvantey" changeset="8420791" lat="55.6781349" lon="37.264721">
    <tag k="name" v="Скульптуры"/>
    <tag k="tourism" v="attraction"/>
  </node>
  <node id="1322990353" version="1" timestamp="2011-06-12T22:45:43Z" uid="314211" user="OldIvantey" changeset="8420791" lat="55.6775541" lon="37.2643192">
    <tag k="name" v="Лягушка"/>
    <tag k="tourism" v="attraction"/>
  </node>
  <node id="1322990579" version="1" timestamp="2011-06-12T22:45:54Z" uid="314211" user="OldIvantey" changeset="8420791" lat="55.6774932" lon="37.2644116">
    <tag k="name" v="Крокодил"/>
    <tag k="tourism" v="attraction"/>
  </node>
  <node id="1359087023" version="5" timestamp="2011-10-26T13:58:56Z" uid="206282" user="Amigo" changeset="9660551" lat="55.7802502" lon="37.7251764">
    <tag k="name" v="Могилёвский дворик"/>
    <tag k="tourism" v="attraction"/>
  </node>
  <node id="1361992768" version="2" timestamp="2013-05-25T19:14:13Z" uid="1482676" user="Alexander Elagin" changeset="16283580" lat="55.8615577" lon="37.6123493">
    <tag k="name" v="Памятник проходившей здесь Бескудниковской железнодорожной ветке"/>
    <tag k="note" v="Сохранившаяся опора контактной сети и небольшая инсталляция возле неё."/>
    <tag k="tourism" v="attraction"/>
  </node>
  <node id="1398359178" version="4" timestamp="2012-07-12T14:15:50Z" uid="126304" user="TarzanASG" changeset="12196299" lat="55.5747261" lon="37.3513391">
    <tag k="name" v="Братская могила, обелиск погибшим воинам"/>
    <tag k="tourism" v="attraction"/>
    <tag k="historic" v="memorial"/>
  </node>
  <node id="1398408362" version="2" timestamp="2011-08-26T16:51:45Z" uid="126304" user="TarzanASG" changeset="9131206" lat="55.5727504" lon="37.3509819">
    <tag k="name" v="Поклонный крест на месте разрушенного Покровского Храма"/>
    <tag k="tourism" v="attraction"/>
    <tag k="historic" v="memorial"/>
  </node>
  <node id="1416377937" version="1" timestamp="2011-08-28T17:34:50Z" uid="397326" user="trolleway" changeset="9149533" lat="55.9106774" lon="37.4801027">
    <tag k="name" v="ДОТ"/>
    <tag k="tourism" v="attraction"/>
  </node>
  <node id="1445250151" version="1" timestamp="2011-09-25T08:37:01Z" uid="356391" user="Ilyin19" changeset="9390320" lat="55.7486479" lon="37.957269">
    <tag k="name" v="Маяк"/>
    <tag k="tourism" v="attraction"/>
  </node>
  <node id="1649310016" version="2" timestamp="2012-10-01T09:58:53Z" uid="316868" user="LexIgnatov" changeset="13320155" lat="55.8075564" lon="37.4643659">
    <tag k="tourism" v="attraction"/>
    <tag k="description" v="Клумба с садовой вазой, около 1940 г."/>
  </node>
  <node id="1666070895" version="8" timestamp="2016-08-19T18:30:34Z" uid="326091" user="vadp" changeset="41562528" lat="55.7537642" lon="37.6153707">
    <tag k="alt_name" v="Итальянский грот"/>
    <tag k="alt_name:en" v="Itallian Grotto"/>
    <tag k="description:en" v="Reminder of the War of 1812, lined with debris of Moscow buildings destroyed by Napoleon&apos;s army."/>
    <tag k="historic" v="ruins"/>
    <tag k="name" v="Грот «Руины»"/>
    <tag k="name:en" v="&quot;Ruins&quot; Grotto"/>
    <tag k="name:es" v="ruinas de grotto"/>
    <tag k="tourism" v="attraction"/>
  </node>
  <node id="1838704625" version="3" timestamp="2016-03-18T20:06:27Z" uid="152074" user="beweta" changeset="37927069" lat="55.762846" lon="37.5817734">
    <tag k="attraction" v="animal"/>
    <tag k="is_in:zoo" v="Московский зоопарк"/>
    <tag k="name" v="Белые медведи"/>
    <tag k="name:de" v="Eisbären"/>
    <tag k="name:en" v="Polar Bears"/>
    <tag k="tourism" v="attraction"/>
  </node>
  <node id="1838704634" version="5" timestamp="2016-12-08T09:34:10Z" uid="149412" user="Haserbaba" changeset="44254090" lat="55.7625502" lon="37.5797725">
    <tag k="attraction" v="animal"/>
    <tag k="is_in:zoo" v="Московский зоопарк"/>
    <tag k="name" v="Северные морские котики"/>
    <tag k="name:de" v="Nördliche Seebären"/>
    <tag k="name:en" v="Northern fur seals"/>
    <tag k="tourism" v="attraction"/>
  </node>
  <node id="1839631442" version="3" timestamp="2016-11-29T17:35:36Z" uid="149412" user="Haserbaba" changeset="44039322" lat="55.7628553" lon="37.5812184">
    <tag k="attraction" v="animal"/>
    <tag k="is_in:zoo" v="Московский зоопарк"/>
    <tag k="name" v="Полярные совы"/>
    <tag k="name:en" v="Polar owls"/>
    <tag k="tourism" v="attraction"/>
  </node>
  <node id="1839631444" version="3" timestamp="2016-11-29T15:50:42Z" uid="149412" user="Haserbaba" changeset="44037391" lat="55.7622604" lon="37.5833966">
    <tag k="attraction" v="animal"/>
    <tag k="name" v="Приматы"/>
    <tag k="name:de" v="Affenhaus"/>
    <tag k="tourism" v="attraction"/>
  </node>
  <node id="1839631447" version="2" timestamp="2014-03-17T08:42:15Z" uid="308" user="MichaelCollinson" changeset="21150315" lat="55.7633498" lon="37.5823827">
    <tag k="name" v="Турья горка"/>
    <tag k="tourism" v="attraction"/>
    <tag k="is_in:zoo" v="Московский зоопарк"/>
    <tag k="attraction" v="animal"/>
  </node>
  <node id="1839631468" version="3" timestamp="2014-03-17T08:46:11Z" uid="308" user="MichaelCollinson" changeset="21150315" lat="55.7626045" lon="37.5795618">
    <tag k="name" v="Ленивцы"/>
    <tag k="name:de" v="Faultiere"/>
    <tag k="name:en" v="Sloths"/>
    <tag k="tourism" v="attraction"/>
    <tag k="is_in:zoo" v="Московский зоопарк"/>
    <tag k="attraction" v="animal"/>
  </node>
  <node id="1839631470" version="3" timestamp="2014-03-17T08:42:17Z" uid="308" user="MichaelCollinson" changeset="21150315" lat="55.7640925" lon="37.5841846">
    <tag k="name" v="Экзотариум"/>
    <tag k="name:de" v="Exotarrium"/>
    <tag k="name:en" v="Exotarrium"/>
    <tag k="tourism" v="attraction"/>
    <tag k="attraction" v="animal"/>
  </node>
  <node id="1839631476" version="3" timestamp="2014-03-17T08:42:17Z" uid="308" user="MichaelCollinson" changeset="21150315" lat="55.7640503" lon="37.5837448">
    <tag k="name" v="Остров зверей"/>
    <tag k="name:de" v="Tierinsel"/>
    <tag k="name:en" v="Animal Island"/>
    <tag k="tourism" v="attraction"/>
    <tag k="is_in:zoo" v="Московский зоопарк"/>
    <tag k="attraction" v="animal"/>
  </node>
  <node id="1845119769" version="3" timestamp="2014-03-17T08:53:29Z" uid="308" user="MichaelCollinson" changeset="21151094" lat="55.7641529" lon="37.5756503">
    <tag k="name" v="Ластоногие"/>
    <tag k="name:de" v="Robben"/>
    <tag k="name:en" v="Sea Lions"/>
    <tag k="tourism" v="attraction"/>
    <tag k="is_in:zoo" v="Московский зоопарк"/>
    <tag k="attraction" v="animal"/>
  </node>
  <node id="1845119770" version="3" timestamp="2014-03-17T09:03:06Z" uid="308" user="MichaelCollinson" changeset="21151094" lat="55.761906" lon="37.5790597">
    <tag k="name" v="Капибары"/>
    <tag k="name:de" v="Wasserschweine"/>
    <tag k="name:en" v="Capybaras"/>
    <tag k="tourism" v="attraction"/>
    <tag k="is_in:zoo" v="Московский зоопарк"/>
    <tag k="attraction" v="animal"/>
  </node>
  <node id="1845119771" version="4" timestamp="2015-12-30T20:48:39Z" uid="152074" user="beweta" changeset="36271038" lat="55.7627948" lon="37.578737">
    <tag k="name" v="Журавли"/>
    <tag k="name:de" v="Kraniche"/>
    <tag k="name:en" v="Cranes"/>
    <tag k="tourism" v="attraction"/>
    <tag k="is_in:zoo" v="Московский зоопарк"/>
    <tag k="attraction" v="animal"/>
  </node>
  <node id="1845119772" version="4" timestamp="2016-04-15T15:35:55Z" uid="260756" user="Felis Pimeja" changeset="38592147" lat="55.7624191" lon="37.5790074">
    <tag k="attraction" v="animal"/>
    <tag k="is_in:zoo" v="Московский зоопарк"/>
    <tag k="name" v="Японские макаки"/>
    <tag k="name:de" v="Japanmakak"/>
    <tag k="name:en" v="Japanese Macaque"/>
    <tag k="tourism" v="attraction"/>
  </node>
  <node id="1845119773" version="3" timestamp="2015-12-30T20:48:40Z" uid="152074" user="beweta" changeset="36271038" lat="55.7621541" lon="37.5748676">
    <tag k="name" v="Кошки тропиков"/>
    <tag k="name:de" v="Tropische Katzen"/>
    <tag k="name:en" v="Tropical cats"/>
    <tag k="tourism" v="attraction"/>
    <tag k="is_in:zoo" v="Московский зоопарк"/>
    <tag k="attraction" v="animal"/>
  </node>
  <node id="1845119778" version="2" timestamp="2013-12-01T20:40:35Z" uid="152074" user="beweta" changeset="19222636" lat="55.7640293" lon="37.5768573">
    <tag k="name" v="Кистеухие свиньи"/>
    <tag k="name:de" v="Buschschweine"/>
    <tag k="tourism" v="attraction"/>
    <tag k="attraction" v="animal"/>
  </node>
  <node id="1845119782" version="3" timestamp="2014-03-17T08:53:29Z" uid="308" user="MichaelCollinson" changeset="21151094" lat="55.7635945" lon="37.5744594">
    <tag k="name" v="Непарнокопытные"/>
    <tag k="name:de" v="Unpaarhufer"/>
    <tag k="name:en" v="Ungulates"/>
    <tag k="tourism" v="attraction"/>
    <tag k="is_in:zoo" v="Московский зоопарк"/>
    <tag k="attraction" v="animal"/>
  </node>
  <node id="1845119786" version="3" timestamp="2014-03-17T08:53:29Z" uid="308" user="MichaelCollinson" changeset="21151094" lat="55.7636309" lon="37.5754465">
    <tag k="name" v="Овцебыки"/>
    <tag k="name:de" v="Moschusochse"/>
    <tag k="name:en" v="Musk oxen"/>
    <tag k="tourism" v="attraction"/>
    <tag k="is_in:zoo" v="Московский зоопарк"/>
    <tag k="attraction" v="animal"/>
  </node>
  <node id="1845119797" version="3" timestamp="2014-03-17T09:03:06Z" uid="308" user="MichaelCollinson" changeset="21151094" lat="55.7623269" lon="37.5758381">
    <tag k="name" v="Гепарды"/>
    <tag k="name:de" v="Geparden"/>
    <tag k="name:en" v="Cheetahs"/>
    <tag k="tourism" v="attraction"/>
    <tag k="is_in:zoo" v="Московский зоопарк"/>
    <tag k="attraction" v="animal"/>
  </node>
  <node id="1845119798" version="4" timestamp="2015-12-30T20:48:40Z" uid="152074" user="beweta" changeset="36271038" lat="55.7627057" lon="37.576542">
    <tag k="name" v="Хищные птицы"/>
    <tag k="name:de" v="Raubvögel"/>
    <tag k="name:en" v="Birds of Prey"/>
    <tag k="tourism" v="attraction"/>
    <tag k="is_in:zoo" v="Московский зоопарк"/>
    <tag k="attraction" v="animal"/>
  </node>
  <node id="1845119799" version="2" timestamp="2014-03-17T09:03:06Z" uid="308" user="MichaelCollinson" changeset="21151094" lat="55.7632762" lon="37.5780404">
    <tag k="name" v="Сумеречный мир"/>
    <tag k="name:en" v="Twilight World"/>
    <tag k="tourism" v="attraction"/>
    <tag k="is_in:zoo" v="Московский зоопарк"/>
    <tag k="attraction" v="animal"/>
  </node>
  <node id="1845119800" version="5" timestamp="2016-06-18T11:31:47Z" uid="830106" user="literan" changeset="40114021" lat="55.7631271" lon="37.5772738">
    <tag k="is_in:zoo" v="Московский зоопарк"/>
    <tag k="name" v="Круг катания"/>
    <tag k="name:en" v="Skating rink"/>
    <tag k="tourism" v="attraction"/>
  </node>
  <node id="1845119806" version="3" timestamp="2014-03-17T08:53:29Z" uid="308" user="MichaelCollinson" changeset="21151094" lat="55.7645031" lon="37.5751407">
    <tag k="name" v="Дельфины"/>
    <tag k="name:de" v="Delphine"/>
    <tag k="name:en" v="Dolphins"/>
    <tag k="tourism" v="attraction"/>
    <tag k="is_in:zoo" v="Московский зоопарк"/>
    <tag k="attraction" v="animal"/>
  </node>
  <node id="1845119810" version="3" timestamp="2014-03-17T08:53:29Z" uid="308" user="MichaelCollinson" changeset="21151094" lat="55.7634709" lon="37.5762243">
    <tag k="name" v="Снежные козы"/>
    <tag k="name:de" v="Bergziegen"/>
    <tag k="name:en" v="Mountain Goats"/>
    <tag k="tourism" v="attraction"/>
    <tag k="is_in:zoo" v="Московский зоопарк"/>
    <tag k="attraction" v="animal"/>
  </node>
  <node id="1845119825" version="2" timestamp="2014-03-17T08:53:29Z" uid="308" user="MichaelCollinson" changeset="21151094" lat="55.7630996" lon="37.575248">
    <tag k="name" v="Кошачий и собачий ряд"/>
    <tag k="name:en" v="Dogs and Cat Row"/>
    <tag k="tourism" v="attraction"/>
    <tag k="is_in:zoo" v="Московский зоопарк"/>
    <tag k="attraction" v="animal"/>
  </node>
  <node id="1845119826" version="3" timestamp="2014-03-17T09:03:05Z" uid="308" user="MichaelCollinson" changeset="21151094" lat="55.7631208" lon="37.5758863">
    <tag k="name" v="Антилопы"/>
    <tag k="name:de" v="Antilopen"/>
    <tag k="name:en" v="Antelopes"/>
    <tag k="tourism" v="attraction"/>
    <tag k="is_in:zoo" v="Московский зоопарк"/>
    <tag k="attraction" v="animal"/>
  </node>
  <node id="1845119831" version="3" timestamp="2013-12-01T20:40:34Z" uid="152074" user="beweta" changeset="19222636" lat="55.7626629" lon="37.5748592">
    <tag k="name" v="Очковые медведи"/>
    <tag k="name:de" v="Brillenbären"/>
    <tag k="tourism" v="attraction"/>
    <tag k="attraction" v="animal"/>
  </node>
  <node id="1845119835" version="3" timestamp="2014-03-17T09:03:05Z" uid="308" user="MichaelCollinson" changeset="21151094" lat="55.7633758" lon="37.577858">
    <tag k="name" v="Волки"/>
    <tag k="name:de" v="Wölfe"/>
    <tag k="name:en" v="Wolves"/>
    <tag k="tourism" v="attraction"/>
    <tag k="is_in:zoo" v="Московский зоопарк"/>
    <tag k="attraction" v="animal"/>
  </node>
  <node id="1869020674" version="4" timestamp="2017-01-28T07:16:32Z" uid="3580412" user="Alexander-II" changeset="45584000" lat="55.7705893" lon="37.6208914">
    <tag k="historic" v="memorial"/>
    <tag k="memorial" v="statue"/>
    <tag k="name" v="Ю. В. Никулину"/>
    <tag k="name:en" v="Nikoulin monument"/>
    <tag k="tourism" v="attraction"/>
  </node>
  <node id="1994968044" version="16" timestamp="2017-01-24T14:20:00Z" uid="2853561" user="Владимир К" changeset="45437071" lat="55.7525515" lon="37.6214371">
    <tag k="amenity" v="clock"/>
    <tag k="description:en" v="Historic clock on the Spasskaya Tower of the Moscow Kremlin.. Source: Wikipedia:en"/>
    <tag k="display" v="analog"/>
    <tag k="name" v="Кремлёвские куранты"/>
    <tag k="name:en" v="Kremlin Clock"/>
    <tag k="name:es" v="Torre del Reloj"/>
    <tag k="name:ru" v="Кремлёвские куранты"/>
    <tag k="name:zh" v="克里姆林宫大钟楼"/>
    <tag k="support" v="wall_mounted"/>
    <tag k="tourism" v="attraction"/>
    <tag k="visibility" v="area"/>
    <tag k="wikidata" v="Q4507754"/>
    <tag k="wikipedia" v="ru:Часы на Спасской башне"/>
  </node>
  <node id="2009315211" version="1" timestamp="2012-11-11T19:52:56Z" uid="397326" user="trolleway" changeset="13838349" lat="55.8003605" lon="37.470263">
    <tag k="name" v="Дореволюционный фонарь"/>
    <tag k="highway" v="street_lamp"/>
    <tag k="tourism" v="attraction"/>
  </node>
  <node id="2100459505" version="4" timestamp="2017-05-02T12:05:52Z" uid="3580412" user="Alexander-II" changeset="48333340" lat="55.7346945" lon="37.811511">
    <tag k="attraction" v="animal"/>
    <tag k="name" v="Менажереи, домики для птиц"/>
    <tag k="tourism" v="attraction"/>
  </node>
  <node id="2169414818" version="2" timestamp="2013-02-23T19:43:45Z" uid="397326" user="trolleway" changeset="15140294" lat="55.6885895" lon="37.5777448">
    <tag k="name" v="Экспериментальный каркасно-панельный жилой дом"/>
    <tag k="tourism" v="attraction"/>
  </node>
  <node id="2169414829" version="3" timestamp="2013-02-23T19:43:46Z" uid="397326" user="trolleway" changeset="15140294" lat="55.6892667" lon="37.5773892">
    <tag k="name" v="Экспериментальный каркасно-панельный жилой дом, прототип серии К-7"/>
    <tag k="tourism" v="attraction"/>
  </node>
  <node id="2175086395" version="3" timestamp="2017-05-02T12:05:52Z" uid="3580412" user="Alexander-II" changeset="48333340" lat="55.716625" lon="37.6889924">
    <tag k="historic" v="railroad_car"/>
    <tag k="name" v="Метровагон серии А"/>
    <tag k="tourism" v="attraction"/>
  </node>
  <node id="2175086396" version="5" timestamp="2017-05-02T12:05:52Z" uid="3580412" user="Alexander-II" changeset="48333340" lat="55.7164979" lon="37.6901738">
    <tag k="historic" v="locomotive"/>
    <tag k="name" v="Узкоколейный тепловоз ТУ6А-2485"/>
    <tag k="tourism" v="attraction"/>
  </node>
  <node id="2323004110" version="2" timestamp="2013-06-13T08:52:59Z" uid="830106" user="literan" changeset="16534698" lat="55.8188169" lon="37.328345">
    <tag k="name" v="дуб-долгожитель"/>
    <tag k="natural" v="tree"/>
    <tag k="tourism" v="attraction"/>
  </node>
  <node id="2392191557" version="2" timestamp="2015-07-18T11:06:38Z" uid="696711" user="ad47" changeset="32715660" lat="55.6985245" lon="37.8778887">
    <tag k="name" v="Вертолёт"/>
    <tag k="tourism" v="attraction"/>
  </node>
  <node id="2395909134" version="5" timestamp="2017-01-26T09:57:25Z" uid="2853561" user="Владимир К" changeset="45506048" lat="55.581227" lon="37.5563549">
    <tag k="historic" v="manor"/>
    <tag k="name" v="Усадьба Знаменские Садки"/>
    <tag k="tourism" v="attraction"/>
    <tag k="wikidata" v="Q4192860"/>
    <tag k="wikipedia" v="ru:Знаменское-Садки"/>
  </node>
  <node id="2395912969" version="2" timestamp="2014-09-30T11:55:11Z" uid="2335615" user="a_isaeva" changeset="25766007" lat="55.6203088" lon="37.5371256">
    <tag k="name" v="Усадьба Узкое"/>
    <tag k="tourism" v="attraction"/>
    <tag k="historic" v="manor"/>
  </node>
  <node id="2400179195" version="2" timestamp="2015-01-24T23:00:45Z" uid="696711" user="ad47" changeset="28384693" lat="55.7863166" lon="37.9596513">
    <tag k="name" v="Деревянная арка"/>
    <tag k="tourism" v="attraction"/>
  </node>
  <node id="2418895983" version="4" timestamp="2017-03-02T04:30:50Z" uid="3580412" user="Alexander-II" changeset="46512337" lat="55.7152598" lon="37.603959">
    <tag k="description:en" v="Bas-relief carvings of Christ the Savior"/>
    <tag k="name" v="Горельефы Храма Христа Спасителя"/>
    <tag k="name:en" v="Christ the Saviour bas-reliefs"/>
    <tag k="tourism" v="attraction"/>
  </node>
  <node id="2419636827" version="2" timestamp="2014-02-17T21:58:08Z" uid="830106" user="literan" changeset="20625588" lat="55.8250084" lon="37.3292267">
    <tag k="ref" v="50-0319"/>
    <tag k="name" v="Автодром"/>
    <tag k="tourism" v="attraction"/>
  </node>
  <node id="2419636828" version="2" timestamp="2014-02-19T21:21:08Z" uid="830106" user="literan" changeset="20664405" lat="55.8247176" lon="37.3290013">
    <tag k="ref" v="50-0318"/>
    <tag k="name" v="Вихрь"/>
    <tag k="tourism" v="attraction"/>
  </node>
  <node id="2419636829" version="1" timestamp="2013-08-15T09:42:24Z" uid="397326" user="trolleway" changeset="17356010" lat="55.825502" lon="37.3293781">
    <tag k="ref" v="50-0022"/>
    <tag k="name" v="Детская карусель - кувшинки"/>
    <tag k="tourism" v="attraction"/>
  </node>
  <node id="2419636830" version="1" timestamp="2013-08-15T09:42:24Z" uid="397326" user="trolleway" changeset="17356010" lat="55.8255581" lon="37.3299196">
    <tag k="name" v="Качели"/>
    <tag k="tourism" v="attraction"/>
  </node>
  <node id="2419636831" version="1" timestamp="2013-08-15T09:42:24Z" uid="397326" user="trolleway" changeset="17356010" lat="55.8258667" lon="37.3294859">
    <tag k="name" v="Колесо обозрения"/>
    <tag k="tourism" v="attraction"/>
  </node>
  <node id="2419636832" version="1" timestamp="2013-08-15T09:42:24Z" uid="397326" user="trolleway" changeset="17356010" lat="55.8256806" lon="37.3287709">
    <tag k="ref" v="50-0317"/>
    <tag k="name" v="Орбита"/>
    <tag k="tourism" v="attraction"/>
  </node>
  <node id="2419636833" version="1" timestamp="2013-08-15T09:42:24Z" uid="397326" user="trolleway" changeset="17356010" lat="55.8256673" lon="37.3291573">
    <tag k="ref" v="50-0320"/>
    <tag k="name" v="Пират"/>
    <tag k="tourism" v="attraction"/>
  </node>
  <node id="2419636834" version="2" timestamp="2016-03-27T06:34:16Z" uid="2003082" user="stlp" changeset="38094613" lat="55.8254805" lon="37.3293005">
    <tag k="name" v="Царевна-Лягушка"/>
    <tag k="ref" v="50-0323"/>
    <tag k="tourism" v="attraction"/>
  </node>
  <node id="2546043049" version="3" timestamp="2017-03-31T11:12:46Z" uid="363136" user="neo-plan" changeset="47321710" lat="55.4397448" lon="37.492218">
    <tag k="name" v="Конный двор"/>
    <tag k="tourism" v="attraction"/>
  </node>
  <node id="2552679735" version="3" timestamp="2015-07-18T11:06:40Z" uid="696711" user="ad47" changeset="32715660" lat="55.6728247" lon="37.9179758">
    <tag k="name" v="Логотип РЖД Москва-Раменское"/>
    <tag k="tourism" v="attraction"/>
  </node>
  <node id="2624695929" version="6" timestamp="2017-02-01T19:56:41Z" uid="3580412" user="Alexander-II" changeset="45725817" lat="55.7490457" lon="37.5909566">
    <tag k="name" v="Стена Цоя"/>
    <tag k="name:de" v="Wiktor-Zoi-Mauer"/>
    <tag k="name:en" v="Tsoi Wall"/>
    <tag k="name:ru" v="Стена Цоя"/>
    <tag k="tourism" v="attraction"/>
    <tag k="wikidata" v="Q4441628"/>
    <tag k="wikipedia" v="ru:Стена Цоя"/>
  </node>
  <node id="2637294957" version="3" timestamp="2016-04-19T14:09:53Z" uid="830106" user="literan" changeset="38696014" lat="55.7613595" lon="37.8599221">
    <tag k="name" v="Здание школы 1888г"/>
    <tag k="tourism" v="attraction"/>
  </node>
  <node id="2637294958" version="3" timestamp="2017-04-14T21:44:14Z" uid="3800662" user="sergesystem1" changeset="47796959" lat="55.7594882" lon="37.8611934">
    <tag k="name" v="Дом управляющих хлопкопрядильной фабрикой 1850г"/>
    <tag k="tourism" v="attraction"/>
  </node>
  <node id="2637298145" version="4" timestamp="2016-04-19T14:09:53Z" uid="830106" user="literan" changeset="38696014" lat="55.761115" lon="37.858243">
    <tag k="name" v="Общежитие им. В. М. Большакова (Четвёртая казарма) 1881г"/>
    <tag k="tourism" v="attraction"/>
  </node>
  <node id="2637306012" version="5" timestamp="2016-04-19T14:09:53Z" uid="830106" user="literan" changeset="38696014" lat="55.7614742" lon="37.8572291">
    <tag k="name" v="Общежитие им. А. Сысоева (Пятая казарма) 1910г"/>
    <tag k="tourism" v="attraction"/>
  </node>
  <node id="2637306017" version="4" timestamp="2016-04-19T14:09:53Z" uid="830106" user="literan" changeset="38696014" lat="55.7603212" lon="37.8576422">
    <tag k="name" v="Общежитие им. И. И. Топорова (Третья казарма) 1881г"/>
    <tag k="tourism" v="attraction"/>
  </node>
  <node id="2637307432" version="2" timestamp="2016-04-19T14:09:53Z" uid="830106" user="literan" changeset="38696014" lat="55.7583683" lon="37.864219">
    <tag k="name" v="Хлопкопрядильная фабрика"/>
    <tag k="tourism" v="attraction"/>
  </node>
  <node id="2637312849" version="2" timestamp="2016-04-19T14:09:53Z" uid="830106" user="literan" changeset="38696014" lat="55.7601613" lon="37.8595412">
    <tag k="name" v="Общежитие им. С. С. Богданова (Вторая казарма)"/>
    <tag k="tourism" v="attraction"/>
  </node>
  <node id="2806642758" version="1" timestamp="2014-04-21T16:26:00Z" uid="2040896" user="Erdman" changeset="21841797" lat="55.889338" lon="37.3805065">
    <tag k="name" v="Аллея Славы в честь Победителей в Великой Отечественной войне"/>
    <tag k="tourism" v="attraction"/>
  </node>
  <node id="2820064026" version="2" timestamp="2017-01-19T08:51:45Z" uid="3580412" user="Alexander-II" changeset="45291711" lat="55.7590893" lon="37.6587479">
    <tag k="historic" v="manor"/>
    <tag k="name" v="Дом В.Б. Толстого"/>
    <tag k="tourism" v="attraction"/>
  </node>
  <node id="2820078480" version="1" timestamp="2014-04-27T07:21:09Z" uid="206282" user="Amigo" changeset="21970401" lat="55.9104936" lon="37.3855098">
    <tag k="name" v="Водяное колесо"/>
    <tag k="tourism" v="attraction"/>
  </node>
  <node id="2851894092" version="3" timestamp="2016-12-25T09:18:52Z" uid="5019880" user="AlexSvast" changeset="44658077" lat="55.580456" lon="37.9003384">
    <tag k="amenity" v="clock"/>
    <tag k="display" v="sundial"/>
    <tag k="name" v="Солнечные часы"/>
    <tag k="tourism" v="attraction"/>
  </node>
  <node id="2851897981" version="5" timestamp="2017-01-05T20:01:31Z" uid="899329" user="bomzheg" changeset="44934542" lat="55.5978265" lon="37.8806859">
    <tag k="historic" v="manor"/>
    <tag k="name" v="Главный дом усадьбы Барятинских;Усадьба Петровское"/>
    <tag k="name:ru" v="Усадьба Петровское"/>
    <tag k="tourism" v="attraction"/>
  </node>
  <node id="3101728207" version="1" timestamp="2014-09-29T11:18:42Z" uid="398817" user="ullus" changeset="25744249" lat="55.8357448" lon="37.6202454">
    <tag k="name" v="Марс-Тефо"/>
    <tag k="source" v="survey"/>
    <tag k="tourism" v="attraction"/>
    <tag k="contact:email" v="marstefo2050@gmail.com"/>
    <tag k="contact:phone" v="+74952151341"/>
    <tag k="opening_hours" v="Tu-Su 11:00-19:00,20:00-12:00"/>
    <tag k="contact:website" v="http://marstefo.ru/contacts/"/>
  </node>
  <node id="3103803032" version="3" timestamp="2015-10-13T09:57:05Z" uid="689721" user="collob" changeset="34606774" lat="55.5048436" lon="37.7640444">
    <tag k="name" v="Усадьба Большие Горки"/>
    <tag k="tourism" v="attraction"/>
    <tag k="historic" v="manor"/>
  </node>
  <node id="3116081189" version="6" timestamp="2017-01-24T14:20:08Z" uid="2853561" user="Владимир К" changeset="45437071" lat="55.7919814" lon="37.7610548">
    <tag k="alt_name" v="Государев двор"/>
    <tag k="contact:email" v="info@mgomz.ru"/>
    <tag k="contact:phone" v="+7(499)165-13-36"/>
    <tag k="contact:website" v="http://mgomz.ru/izmailovo"/>
    <tag k="name" v="Усадьба Измайлово"/>
    <tag k="operator" v="Московский государственный объединенный художественный историко-архитектурный и природно-ландшафтный музей-заповедник"/>
    <tag k="tourism" v="attraction"/>
    <tag k="wikidata" v="Q4198639"/>
    <tag k="wikipedia" v="ru:Измайлово (усадьба)"/>
  </node>
  <node id="3174753717" version="1" timestamp="2014-11-08T13:10:19Z" uid="919438" user="Basiron" changeset="26641126" lat="55.6577414" lon="37.7909919">
    <tag k="name" v="Марьино"/>
    <tag k="tourism" v="attraction"/>
  </node>
  <node id="3174755608" version="1" timestamp="2014-11-08T13:11:48Z" uid="919438" user="Basiron" changeset="26641160" lat="55.6563332" lon="37.7949029">
    <tag k="name" v="Капотня"/>
    <tag k="tourism" v="attraction"/>
  </node>
  <node id="3175690698" version="1" timestamp="2014-11-08T22:06:25Z" uid="919438" user="Basiron" changeset="26652702" lat="55.6573217" lon="37.7968414">
    <tag k="tourism" v="attraction"/>
  </node>
  <node id="3223469915" version="3" timestamp="2017-01-28T06:17:58Z" uid="3580412" user="Alexander-II" changeset="45583309" lat="55.8232483" lon="37.6122053">
    <tag k="historic" v="memorial"/>
    <tag k="name" v="Владимиру Зворыкину"/>
    <tag k="tourism" v="attraction"/>
  </node>
  <node id="3280146994" version="1" timestamp="2015-01-10T10:49:20Z" uid="830106" user="literan" changeset="28037600" lat="55.8082576" lon="37.333275">
    <tag k="name" v="ДОТ"/>
    <tag k="tourism" v="attraction"/>
  </node>
  <node id="3402119517" version="2" timestamp="2017-03-05T23:57:31Z" uid="3580412" user="Alexander-II" changeset="46609340" lat="55.6839453" lon="37.8751626">
    <tag k="historic" v="memorial"/>
    <tag k="name" v="Пожарный насос"/>
    <tag k="tourism" v="attraction"/>
  </node>
  <node id="3444915431" version="2" timestamp="2016-11-01T20:29:06Z" uid="363136" user="neo-plan" changeset="43336558" lat="55.7117846" lon="37.6307689">
    <tag k="name" v="Историческое здание Воскресной школы Данилова монастыря"/>
    <tag k="tourism" v="attraction"/>
  </node>
  <node id="3605338161" version="5" timestamp="2015-06-24T18:00:29Z" uid="2999386" user="Сергей Кириченко" changeset="32189106" lat="55.899865" lon="37.5716165">
    <tag k="name" v="Вальс"/>
    <tag k="tourism" v="attraction"/>
  </node>
  <node id="3605339638" version="4" timestamp="2015-06-23T08:51:45Z" uid="149412" user="Haserbaba" changeset="32156028" lat="55.90003" lon="37.571592">
    <tag k="name" v="Cказочный поезд"/>
    <tag k="tourism" v="attraction"/>
  </node>
  <node id="3605370295" version="4" timestamp="2015-06-24T18:00:29Z" uid="2999386" user="Сергей Кириченко" changeset="32189106" lat="55.8997254" lon="37.5726444">
    <tag k="name" v="Веселые лодочки"/>
    <tag k="tourism" v="attraction"/>
  </node>
  <node id="3605412693" version="1" timestamp="2015-06-19T15:04:25Z" uid="2999386" user="Сергей Кириченко" changeset="32077113" lat="55.900051" lon="37.573398">
    <tag k="name" v="Автодром"/>
    <tag k="tourism" v="attraction"/>
  </node>
  <node id="3605420522" version="4" timestamp="2015-06-24T18:00:29Z" uid="2999386" user="Сергей Кириченко" changeset="32189106" lat="55.9002855" lon="37.5732383">
    <tag k="name" v="Карусель"/>
    <tag k="tourism" v="attraction"/>
  </node>
  <node id="3605433294" version="1" timestamp="2015-06-19T15:29:40Z" uid="2999386" user="Сергей Кириченко" changeset="32077763" lat="55.901105" lon="37.571275">
    <tag k="name" v="Водные шары"/>
    <tag k="tourism" v="attraction"/>
  </node>
  <node id="3611082687" version="2" timestamp="2015-06-23T14:23:05Z" uid="149412" user="Haserbaba" changeset="32162749" lat="55.899642" lon="37.5703078">
    <tag k="name" v="Батут"/>
    <tag k="tourism" v="attraction"/>
  </node>
  <node id="3613407348" version="1" timestamp="2015-06-23T19:54:22Z" uid="2999386" user="Сергей Кириченко" changeset="32169685" lat="55.8999473" lon="37.5702973">
    <tag k="name" v="Надувные батуты"/>
    <tag k="tourism" v="attraction"/>
  </node>
  <node id="3615709650" version="2" timestamp="2015-07-31T15:29:05Z" uid="2999386" user="Сергей Кириченко" changeset="33009729" lat="55.900187" lon="37.573288">
    <tag k="name" v="Батуты"/>
    <tag k="tourism" v="attraction"/>
  </node>
  <node id="3615709651" version="1" timestamp="2015-06-24T18:00:28Z" uid="2999386" user="Сергей Кириченко" changeset="32189106" lat="55.8997089" lon="37.5719032">
    <tag k="name" v="Весёлые горки"/>
    <tag k="tourism" v="attraction"/>
  </node>
  <node id="3615709652" version="1" timestamp="2015-06-24T18:00:28Z" uid="2999386" user="Сергей Кириченко" changeset="32189106" lat="55.8999406" lon="37.5722948">
    <tag k="name" v="Вихрь"/>
    <tag k="tourism" v="attraction"/>
  </node>
  <node id="3615709654" version="1" timestamp="2015-06-24T18:00:28Z" uid="2999386" user="Сергей Кириченко" changeset="32189106" lat="55.900382" lon="37.5714706">
    <tag k="name" v="Каноэ ривер"/>
    <tag k="tourism" v="attraction"/>
  </node>
  <node id="3615709655" version="1" timestamp="2015-06-24T18:00:28Z" uid="2999386" user="Сергей Кириченко" changeset="32189106" lat="55.9002462" lon="37.5727513">
    <tag k="name" v="Карусель"/>
    <tag k="tourism" v="attraction"/>
  </node>
  <node id="3615709656" version="1" timestamp="2015-06-24T18:00:28Z" uid="2999386" user="Сергей Кириченко" changeset="32189106" lat="55.9004694" lon="37.5731104">
    <tag k="name" v="Карусель"/>
    <tag k="tourism" v="attraction"/>
  </node>
  <node id="3615709657" version="1" timestamp="2015-06-24T18:00:28Z" uid="2999386" user="Сергей Кириченко" changeset="32189106" lat="55.9003347" lon="37.5715831">
    <tag k="name" v="Колесо обозрения"/>
    <tag k="tourism" v="attraction"/>
  </node>
  <node id="3615709658" version="1" timestamp="2015-06-24T18:00:28Z" uid="2999386" user="Сергей Кириченко" changeset="32189106" lat="55.9003141" lon="37.5713602">
    <tag k="name" v="Корсар"/>
    <tag k="tourism" v="attraction"/>
  </node>
  <node id="3615709659" version="1" timestamp="2015-06-24T18:00:28Z" uid="2999386" user="Сергей Кириченко" changeset="32189106" lat="55.8997453" lon="37.5722926">
    <tag k="name" v="Летающая тарелка"/>
    <tag k="tourism" v="attraction"/>
  </node>
  <node id="3615709660" version="2" timestamp="2015-07-31T15:29:33Z" uid="2999386" user="Сергей Кириченко" changeset="33009740" lat="55.900263" lon="37.573143">
    <tag k="name" v="Прыгающая звезда"/>
    <tag k="tourism" v="attraction"/>
  </node>
  <node id="3615709661" version="1" timestamp="2015-06-24T18:00:28Z" uid="2999386" user="Сергей Кириченко" changeset="32189106" lat="55.9001892" lon="37.5715549">
    <tag k="name" v="Малая цепочная карусель"/>
    <tag k="tourism" v="attraction"/>
  </node>
  <node id="3615709662" version="1" timestamp="2015-06-24T18:00:28Z" uid="2999386" user="Сергей Кириченко" changeset="32189106" lat="55.8999794" lon="37.5726193">
    <tag k="name" v="Орбита"/>
    <tag k="tourism" v="attraction"/>
  </node>
  <node id="3615709663" version="1" timestamp="2015-06-24T18:00:28Z" uid="2999386" user="Сергей Кириченко" changeset="32189106" lat="55.8998654" lon="37.5713559">
    <tag k="name" v="Пират"/>
    <tag k="tourism" v="attraction"/>
  </node>
  <node id="3615709664" version="1" timestamp="2015-06-24T18:00:28Z" uid="2999386" user="Сергей Кириченко" changeset="32189106" lat="55.9001067" lon="37.5720763">
    <tag k="name" v="Поросята"/>
    <tag k="tourism" v="attraction"/>
  </node>
  <node id="3615709665" version="1" timestamp="2015-06-24T18:00:28Z" uid="2999386" user="Сергей Кириченко" changeset="32189106" lat="55.9002038" lon="37.5713559">
    <tag k="name" v="Ралли"/>
    <tag k="tourism" v="attraction"/>
  </node>
  <node id="3615709666" version="1" timestamp="2015-06-24T18:00:28Z" uid="2999386" user="Сергей Кириченко" changeset="32189106" lat="55.9001225" lon="37.5730368">
    <tag k="tourism" v="attraction"/>
  </node>
  <node id="3646401099" version="3" timestamp="2017-02-03T09:36:19Z" uid="3580412" user="Alexander-II" changeset="45772990" lat="55.7262" lon="37.5878544">
    <tag k="barrier" v="gate"/>
    <tag k="bicycle" v="yes"/>
    <tag k="foot" v="yes"/>
    <tag k="tourism" v="attraction"/>
  </node>
  <node id="3676261268" version="1" timestamp="2015-08-01T12:10:53Z" uid="421932" user="pav5000" changeset="33029341" lat="55.7937227" lon="37.6724293">
    <tag k="name" v="Конвой"/>
    <tag k="tourism" v="attraction"/>
  </node>
  <node id="3731008745" version="3" timestamp="2016-08-07T22:03:47Z" uid="830106" user="literan" changeset="41312855" lat="55.7479916" lon="37.9634047">
    <tag k="description" v="Бывший железнодорожный &quot;Чёртов мост&quot; к кирпичной фабрике Милованова"/>
    <tag k="tourism" v="attraction"/>
  </node>
  <node id="3744711931" version="3" timestamp="2016-06-18T11:31:48Z" uid="830106" user="literan" changeset="40114021" lat="55.7441078" lon="37.6189697">
    <tag k="amenity" v="bench"/>
    <tag k="name" v="Скамья примирения"/>
    <tag k="tourism" v="attraction"/>
  </node>
  <node id="3773487168" version="4" timestamp="2016-10-16T22:07:00Z" uid="830106" user="literan" changeset="42946485" lat="55.7228981" lon="37.626761">
    <tag k="name" v="Бывший храм Николая Чудотворца"/>
    <tag k="tourism" v="attraction"/>
  </node>
  <node id="3801742364" version="2" timestamp="2017-03-29T15:38:39Z" uid="830106" user="literan" changeset="47263709" lat="55.7506416" lon="37.5948128">
    <tag k="contact:phone" v="+7 495 2012516"/>
    <tag k="contact:website" v="https://domvelikana.ru"/>
    <tag k="name" v="Дом великана"/>
    <tag k="opening_hours" v="Mo-Su 11:00-24:00"/>
    <tag k="tourism" v="attraction"/>
  </node>
  <node id="3801831705" version="1" timestamp="2015-10-25T08:54:17Z" uid="2809125" user="teddyfox78" changeset="34855214" lat="55.501649" lon="37.2962396">
    <tag k="name" v="Ротонда"/>
    <tag k="tourism" v="attraction"/>
  </node>
  <node id="3811194800" version="1" timestamp="2015-10-31T14:34:12Z" uid="2853561" user="Владимир К" changeset="34993023" lat="55.7554797" lon="37.5511574">
    <tag k="name" v="Я люблю Москву"/>
    <tag k="tourism" v="attraction"/>
  </node>
  <node id="3865068510" version="2" timestamp="2015-12-30T20:48:39Z" uid="152074" user="beweta" changeset="36271038" lat="55.7649637" lon="37.5743856">
    <tag k="name" v="Пингвины"/>
    <tag k="name:de" v="Pinguine"/>
    <tag k="name:en" v="Penguins"/>
    <tag k="tourism" v="attraction"/>
    <tag k="attraction" v="animal"/>
  </node>
  <node id="3865151367" version="3" timestamp="2016-04-15T15:35:55Z" uid="260756" user="Felis Pimeja" changeset="38592147" lat="55.7630395" lon="37.5785179">
    <tag k="attraction" v="animal"/>
    <tag k="is_in:zoo" v="Московский зоопарк"/>
    <tag k="name" v="Болотная сова"/>
    <tag k="name:de" v="Sumpfohreule"/>
    <tag k="tourism" v="attraction"/>
  </node>
  <node id="3865151368" version="3" timestamp="2016-04-15T15:35:55Z" uid="260756" user="Felis Pimeja" changeset="38592147" lat="55.7632449" lon="37.5781734">
    <tag k="attraction" v="animal"/>
    <tag k="is_in:zoo" v="Московский зоопарк"/>
    <tag k="name" v="Ворон"/>
    <tag k="name:de" v="Rabe"/>
    <tag k="name:en" v="Raven"/>
    <tag k="tourism" v="attraction"/>
  </node>
  <node id="3865151369" version="3" timestamp="2016-04-15T15:35:55Z" uid="260756" user="Felis Pimeja" changeset="38592147" lat="55.7632087" lon="37.5783683">
    <tag k="attraction" v="animal"/>
    <tag k="is_in:zoo" v="Московский зоопарк"/>
    <tag k="name" v="Куница"/>
    <tag k="name:de" v="Marder"/>
    <tag k="name:en" v="Marten"/>
    <tag k="tourism" v="attraction"/>
  </node>
  <node id="3865151370" version="3" timestamp="2016-04-15T15:35:56Z" uid="260756" user="Felis Pimeja" changeset="38592147" lat="55.7631109" lon="37.5784989">
    <tag k="attraction" v="animal"/>
    <tag k="is_in:zoo" v="Московский зоопарк"/>
    <tag k="name" v="Лесной хорь"/>
    <tag k="name:de" v="Waldiltis"/>
    <tag k="tourism" v="attraction"/>
  </node>
  <node id="3865151372" version="3" timestamp="2016-04-15T15:35:55Z" uid="260756" user="Felis Pimeja" changeset="38592147" lat="55.763235" lon="37.5782785">
    <tag k="attraction" v="animal"/>
    <tag k="is_in:zoo" v="Московский зоопарк"/>
    <tag k="name" v="Соболь"/>
    <tag k="name:de" v="Zobel"/>
    <tag k="name:en" v="Sable"/>
    <tag k="tourism" v="attraction"/>
  </node>
  <node id="3865151373" version="3" timestamp="2016-04-15T15:35:56Z" uid="260756" user="Felis Pimeja" changeset="38592147" lat="55.7631652" lon="37.5784473">
    <tag k="attraction" v="animal"/>
    <tag k="is_in:zoo" v="Московский зоопарк"/>
    <tag k="name" v="Степной кот"/>
    <tag k="name:de" v="Steppenkatze"/>
    <tag k="tourism" v="attraction"/>
  </node>
  <node id="3865151374" version="1" timestamp="2015-11-28T14:59:20Z" uid="2997892" user="KingCreole" changeset="35629767" lat="55.7621525" lon="37.5763194">
    <tag k="name" v="Фламинго"/>
    <tag k="name:en" v="Flamingos"/>
    <tag k="tourism" v="attraction"/>
    <tag k="is_in:zoo" v="Московский зоопарк"/>
    <tag k="attraction" v="animal"/>
  </node>
  <node id="3865153057" version="1" timestamp="2015-11-28T15:00:01Z" uid="3351026" user="Alexander Khomyak" changeset="35629775" lat="55.763329" lon="37.5818947">
    <tag k="name" v="Винторогий козёл"/>
    <tag k="tourism" v="attraction"/>
    <tag k="is_in:zoo" v="Московский зоопарк"/>
    <tag k="attraction" v="animal"/>
  </node>
  <node id="3865153058" version="1" timestamp="2015-11-28T15:00:01Z" uid="3351026" user="Alexander Khomyak" changeset="35629775" lat="55.7626348" lon="37.5802655">
    <tag k="name" v="Выдра"/>
    <tag k="tourism" v="attraction"/>
    <tag k="is_in:zoo" v="Московский зоопарк"/>
    <tag k="attraction" v="animal"/>
  </node>
  <node id="3865153060" version="1" timestamp="2015-11-28T15:00:02Z" uid="3351026" user="Alexander Khomyak" changeset="35629775" lat="55.7630796" lon="37.5799205">
    <tag k="name" v="Земляные утки"/>
    <tag k="tourism" v="attraction"/>
    <tag k="is_in:zoo" v="Московский зоопарк"/>
    <tag k="attraction" v="animal"/>
  </node>
  <node id="3865153061" version="1" timestamp="2015-11-28T15:00:02Z" uid="3351026" user="Alexander Khomyak" changeset="35629775" lat="55.7632241" lon="37.5810008">
    <tag k="name" v="Красноухая черепаха"/>
    <tag k="tourism" v="attraction"/>
    <tag k="is_in:zoo" v="Московский зоопарк"/>
    <tag k="attraction" v="animal"/>
  </node>
  <node id="3865153062" version="2" timestamp="2016-03-18T20:07:52Z" uid="152074" user="beweta" changeset="37927099" lat="55.7625994" lon="37.5797871">
    <tag k="attraction" v="animal"/>
    <tag k="is_in:zoo" v="Московский зоопарк"/>
    <tag k="name" v="Магелланов гусь"/>
    <tag k="name:de" v="Magellangans"/>
    <tag k="tourism" v="attraction"/>
  </node>
  <node id="3865153063" version="1" timestamp="2015-11-28T15:00:02Z" uid="3351026" user="Alexander Khomyak" changeset="35629775" lat="55.7630173" lon="37.5803813">
    <tag k="name" v="Нырковые утки"/>
    <tag k="tourism" v="attraction"/>
    <tag k="is_in:zoo" v="Московский зоопарк"/>
    <tag k="attraction" v="animal"/>
  </node>
  <node id="3865153064" version="1" timestamp="2015-11-28T15:00:02Z" uid="3351026" user="Alexander Khomyak" changeset="35629775" lat="55.7639041" lon="37.5821113">
    <tag k="name" v="Птицы и бабочки тропиков"/>
    <tag k="tourism" v="attraction"/>
    <tag k="is_in:zoo" v="Московский зоопарк"/>
    <tag k="attraction" v="animal"/>
  </node>
  <node id="3865153065" version="1" timestamp="2015-11-28T15:00:02Z" uid="3351026" user="Alexander Khomyak" changeset="35629775" lat="55.7629493" lon="37.5808749">
    <tag k="name" v="Речные утки"/>
    <tag k="tourism" v="attraction"/>
    <tag k="is_in:zoo" v="Московский зоопарк"/>
    <tag k="attraction" v="animal"/>
  </node>
  <node id="3865153066" version="1" timestamp="2015-11-28T15:00:02Z" uid="3351026" user="Alexander Khomyak" changeset="35629775" lat="55.7637157" lon="37.5822422">
    <tag k="name" v="Рыжая свистящая утка"/>
    <tag k="tourism" v="attraction"/>
    <tag k="is_in:zoo" v="Московский зоопарк"/>
    <tag k="attraction" v="animal"/>
  </node>
  <node id="3865153067" version="1" timestamp="2015-11-28T15:00:02Z" uid="3351026" user="Alexander Khomyak" changeset="35629775" lat="55.7631136" lon="37.5801497">
    <tag k="name" v="Сизая чайка"/>
    <tag k="tourism" v="attraction"/>
    <tag k="is_in:zoo" v="Московский зоопарк"/>
    <tag k="attraction" v="animal"/>
  </node>
  <node id="3865153068" version="1" timestamp="2015-11-28T15:00:02Z" uid="3351026" user="Alexander Khomyak" changeset="35629775" lat="55.7626999" lon="37.5805123">
    <tag k="name" v="Харза"/>
    <tag k="tourism" v="attraction"/>
    <tag k="is_in:zoo" v="Московский зоопарк"/>
    <tag k="attraction" v="animal"/>
  </node>
  <node id="3865153069" version="1" timestamp="2015-11-28T15:00:02Z" uid="3351026" user="Alexander Khomyak" changeset="35629775" lat="55.7639041" lon="37.5825091">
    <tag k="name" v="Чайки"/>
    <tag k="tourism" v="attraction"/>
    <tag k="is_in:zoo" v="Московский зоопарк"/>
    <tag k="attraction" v="animal"/>
  </node>
  <node id="3865175067" version="1" timestamp="2015-11-28T15:23:44Z" uid="3351026" user="Alexander Khomyak" changeset="35630159" lat="55.7633686" lon="37.5850649">
    <tag k="name" v="Домашний осёл"/>
    <tag k="tourism" v="attraction"/>
    <tag k="is_in:zoo" v="Московский зоопарк"/>
    <tag k="attraction" v="animal"/>
  </node>
  <node id="3865175068" version="2" timestamp="2016-04-15T15:35:55Z" uid="260756" user="Felis Pimeja" changeset="38592147" lat="55.762928" lon="37.5846735">
    <tag k="attraction" v="animal"/>
    <tag k="is_in:zoo" v="Московский зоопарк"/>
    <tag k="name" v="Домашняя лошадь"/>
    <tag k="tourism" v="attraction"/>
  </node>
  <node id="3865175069" version="1" timestamp="2015-11-28T15:23:44Z" uid="3351026" user="Alexander Khomyak" changeset="35630159" lat="55.7633006" lon="37.5840728">
    <tag k="name" v="Животные Африки"/>
    <tag k="tourism" v="attraction"/>
    <tag k="is_in:zoo" v="Московский зоопарк"/>
    <tag k="attraction" v="animal"/>
  </node>
  <node id="3939662393" version="3" timestamp="2016-02-23T19:47:26Z" uid="382604" user="MosKartograf" changeset="37397366" lat="55.61443" lon="37.6853094">
    <tag k="description" v="Вымощенная площадка, место исторической постройки"/>
    <tag k="local_name" v="Беседка Кантемира (место)"/>
    <tag k="tourism" v="attraction"/>
  </node>
  <node id="3955348430" version="1" timestamp="2016-01-19T15:36:41Z" uid="2335615" user="a_isaeva" changeset="36682043" lat="55.7776805" lon="37.6291567">
    <tag k="historic" v="memorial"/>
    <tag k="name" v="Будда"/>
    <tag k="religion" v="buddhist"/>
    <tag k="tourism" v="attraction"/>
  </node>
  <node id="3955389230" version="1" timestamp="2016-01-19T16:04:07Z" uid="2335615" user="a_isaeva" changeset="36682714" lat="55.8446022" lon="37.6331394">
    <tag k="historic" v="memorial"/>
    <tag k="name" v="Конфуций"/>
    <tag k="tourism" v="attraction"/>
  </node>
  <node id="4119212089" version="2" timestamp="2016-04-13T15:23:42Z" uid="1966871" user="Maxim Dementyev" changeset="38528690" lat="55.6351655" lon="37.4314436">
    <tag k="level" v="0"/>
    <tag k="name" v="Макет Comcity"/>
    <tag k="tourism" v="attraction"/>
  </node>
  <node id="4162876094" version="1" timestamp="2016-05-03T09:55:18Z" uid="3284817" user="Crash-Bash" changeset="39062643" lat="55.9540645" lon="37.5767457">
    <tag k="tourism" v="attraction"/>
    <tag k="website" v="http://falconry-museum.ru/"/>
  </node>
  <node id="4169949366" version="2" timestamp="2016-05-06T15:33:30Z" uid="363136" user="neo-plan" changeset="39146782" lat="55.7771509" lon="37.9314721">
    <tag k="name" v="Бывшая усадьба Чижово"/>
    <tag k="tourism" v="attraction"/>
  </node>
  <node id="4171763491" version="1" timestamp="2016-05-07T14:26:56Z" uid="2088235" user="dbf_" changeset="39165061" lat="55.6672349" lon="37.667084">
    <tag k="name" v="Домик Петра Первого"/>
    <tag k="tourism" v="attraction"/>
  </node>
  <node id="4187406887" version="1" timestamp="2016-05-15T14:54:26Z" uid="624271" user="te_mark" changeset="39332581" lat="55.7293187" lon="37.6038809">
    <tag k="name" v="Парашютная вышка «Ёлка»"/>
    <tag k="tourism" v="attraction"/>
  </node>
  <node id="4192213712" version="1" timestamp="2016-05-17T18:57:23Z" uid="363136" user="neo-plan" changeset="39383987" lat="55.4889491" lon="37.7317477">
    <tag k="name" v="Здание вокзала станции Ленинская"/>
    <tag k="tourism" v="attraction"/>
  </node>
  <node id="4217394291" version="1" timestamp="2016-05-31T13:24:58Z" uid="117498" user="Tararan" changeset="39688637" lat="55.7182249" lon="37.5878885">
    <tag k="fixme" v="position"/>
    <tag k="name" v="Грот графа Орлова"/>
    <tag k="tourism" v="attraction"/>
    <tag k="website" v="http://park-gorkogo.com/places/48"/>
  </node>
  <node id="4220359698" version="3" timestamp="2017-01-24T14:20:14Z" uid="2853561" user="Владимир К" changeset="45437071" lat="55.7293079" lon="37.6507417">
    <tag k="addr:city" v="Москва"/>
    <tag k="addr:housenumber" v="19 с6"/>
    <tag k="addr:street" v="Кожевническая улица"/>
    <tag k="name" v="Палаты Кожевенной слободы"/>
    <tag k="tourism" v="attraction"/>
    <tag k="wikidata" v="Q19915831"/>
    <tag k="wikipedia" v="ru:Палаты Кожевенной слободы"/>
  </node>
  <node id="4220853191" version="3" timestamp="2016-06-27T05:08:41Z" uid="426548" user="KoraxDC" changeset="40313042" lat="55.7487396" lon="37.4859187">
    <tag k="name" v="Штурвал корабля мечты"/>
    <tag k="opening_hours" v="24/7"/>
    <tag k="tourism" v="attraction"/>
  </node>
  <node id="4255259891" version="1" timestamp="2016-06-20T21:39:37Z" uid="363136" user="neo-plan" changeset="40167879" lat="55.7879741" lon="37.6837013">
    <tag k="name" v="Городское училище (конец XIX в.)"/>
    <tag k="tourism" v="attraction"/>
  </node>
  <node id="4262313478" version="4" timestamp="2017-02-20T11:12:52Z" uid="3580412" user="Alexander-II" changeset="46240914" lat="55.7597728" lon="37.6007325">
    <tag k="description" v="200 year old tree"/>
    <tag k="genus" v="Quercus"/>
    <tag k="leaf_cycle" v="deciduous"/>
    <tag k="leaf_type" v="broadleaved"/>
    <tag k="name" v="Пушкинский дуб"/>
    <tag k="natural" v="tree"/>
    <tag k="tourism" v="attraction"/>
    <tag k="wikidata" v="Q18524261"/>
    <tag k="wikipedia" v="ru:Пушкинский дуб"/>
  </node>
  <node id="4285644707" version="1" timestamp="2016-07-06T05:46:37Z" uid="4043225" user="Adolf Hitler" changeset="40514183" lat="55.7626452" lon="37.5823839">
    <tag k="name" v="Россомахи"/>
    <tag k="tourism" v="attraction"/>
  </node>
  <node id="4285644900" version="1" timestamp="2016-07-06T05:46:34Z" uid="4043225" user="Adolf Hitler" changeset="40514183" lat="55.7645122" lon="37.5843783">
    <tag k="name" v="Олени Давида"/>
    <tag k="tourism" v="attraction"/>
  </node>
  <node id="4285650404" version="1" timestamp="2016-07-06T05:46:32Z" uid="4043225" user="Adolf Hitler" changeset="40514183" lat="55.7646396" lon="37.5839582">
    <tag k="name" v="Такины"/>
    <tag k="tourism" v="attraction"/>
  </node>
  <node id="4285653619" version="1" timestamp="2016-07-06T05:46:36Z" uid="4043225" user="Adolf Hitler" changeset="40514183" lat="55.7627455" lon="37.582126">
    <tag k="name" v="Хищные птицы"/>
    <tag k="tourism" v="attraction"/>
  </node>
  <node id="4285662489" version="1" timestamp="2016-07-06T05:46:31Z" uid="4043225" user="Adolf Hitler" changeset="40514183" lat="55.7645509" lon="37.5834685">
    <tag k="name" v="Лошади Пржевальского"/>
    <tag k="tourism" v="attraction"/>
  </node>
  <node id="4285662589" version="1" timestamp="2016-07-06T05:46:35Z" uid="4043225" user="Adolf Hitler" changeset="40514183" lat="55.7632146" lon="37.5838286">
    <tag k="name" v="Сурикаты"/>
    <tag k="tourism" v="attraction"/>
  </node>
  <node id="4285731291" version="1" timestamp="2016-07-06T07:59:33Z" uid="4043225" user="Adolf Hitler" changeset="40515805" lat="55.7643346" lon="37.5835385">
    <tag k="name" v="Медведи"/>
    <tag k="tourism" v="attraction"/>
  </node>
  <node id="4285731292" version="1" timestamp="2016-07-06T07:59:34Z" uid="4043225" user="Adolf Hitler" changeset="40515805" lat="55.7639258" lon="37.583891">
    <tag k="name" v="Тигры"/>
    <tag k="tourism" v="attraction"/>
  </node>
  <node id="4285752290" version="1" timestamp="2016-07-06T07:59:32Z" uid="4043225" user="Adolf Hitler" changeset="40515805" lat="55.7644082" lon="37.5839243">
    <tag k="name" v="Львы"/>
    <tag k="tourism" v="attraction"/>
  </node>
  <node id="4285859090" version="1" timestamp="2016-07-06T10:39:13Z" uid="4163413" user="Alisher Ishanov" changeset="40518278" lat="55.790296" lon="37.531718">
    <tag k="name" v="KidZania"/>
    <tag k="tourism" v="attraction"/>
  </node>
  <node id="4286072392" version="1" timestamp="2016-07-06T14:42:10Z" uid="4043225" user="Adolf Hitler" changeset="40522724" lat="55.7642046" lon="37.5843558">
    <tag k="name" v="Волки"/>
    <tag k="tourism" v="attraction"/>
  </node>
  <node id="4286089691" version="1" timestamp="2016-07-06T14:21:27Z" uid="4043225" user="Adolf Hitler" changeset="40522312" lat="55.7635042" lon="37.5815967">
    <tag k="name" v="Пеликаны"/>
    <tag k="tourism" v="attraction"/>
  </node>
  <node id="4286097196" version="1" timestamp="2016-07-06T14:21:22Z" uid="4043225" user="Adolf Hitler" changeset="40522312" lat="55.7636264" lon="37.5837347">
    <tag k="name" v="Жирафы"/>
    <tag k="tourism" v="attraction"/>
  </node>
  <node id="4286097197" version="1" timestamp="2016-07-06T14:21:24Z" uid="4043225" user="Adolf Hitler" changeset="40522312" lat="55.7627656" lon="37.5830897">
    <tag k="name" v="Обезьянник"/>
    <tag k="tourism" v="attraction"/>
  </node>
  <node id="4286104590" version="1" timestamp="2016-07-06T14:21:26Z" uid="4043225" user="Adolf Hitler" changeset="40522312" lat="55.7631835" lon="37.5824635">
    <tag k="name" v="Дагестанский тур"/>
    <tag k="tourism" v="attraction"/>
  </node>
  <node id="4286108490" version="1" timestamp="2016-07-06T14:42:08Z" uid="4043225" user="Adolf Hitler" changeset="40522724" lat="55.7642547" lon="37.5833813">
    <tag k="name" v="Шакалы"/>
    <tag k="tourism" v="attraction"/>
  </node>
  <node id="4286109689" version="2" timestamp="2016-12-02T11:01:09Z" uid="149412" user="Haserbaba" changeset="44111472" lat="55.7617875" lon="37.5789733">
    <tag k="attraction" v="animal"/>
    <tag k="name" v="Гуанакко"/>
    <tag k="tourism" v="attraction"/>
  </node>
  <node id="4286109789" version="2" timestamp="2016-07-11T19:27:32Z" uid="830106" user="literan" changeset="40663262" lat="55.7634688" lon="37.5825711">
    <tag k="name" v="Дикобразы"/>
    <tag k="tourism" v="attraction"/>
  </node>
  <node id="4287130590" version="1" timestamp="2016-07-07T06:09:17Z" uid="4043225" user="Adolf Hitler" changeset="40534353" lat="55.7636068" lon="37.5838458">
    <tag k="name" v="Зебры"/>
    <tag k="tourism" v="attraction"/>
  </node>
  <node id="4287131089" version="1" timestamp="2016-07-07T06:09:16Z" uid="4043225" user="Adolf Hitler" changeset="40534353" lat="55.763681" lon="37.584168">
    <tag k="name" v="Чёрные антилопы"/>
    <tag k="tourism" v="attraction"/>
  </node>
  <node id="4287294148" version="1" timestamp="2016-07-07T08:11:49Z" uid="4043225" user="Adolf Hitler" changeset="40536014" lat="55.7635082" lon="37.5751174">
    <tag k="name" v="Гривистый волк"/>
    <tag k="tourism" v="attraction"/>
  </node>
  <node id="4287413393" version="1" timestamp="2016-07-07T09:24:21Z" uid="4043225" user="Adolf Hitler" changeset="40537382" lat="55.7641587" lon="37.5750159">
    <tag k="name" v="Еноты"/>
    <tag k="tourism" v="attraction"/>
  </node>
  <node id="4287413493" version="1" timestamp="2016-07-07T09:27:39Z" uid="4043225" user="Adolf Hitler" changeset="40537469" lat="55.7635754" lon="37.575101">
    <tag k="name" v="Гиеновая собака"/>
    <tag k="tourism" v="attraction"/>
  </node>
  <node id="4287508477" version="1" timestamp="2016-07-07T09:38:39Z" uid="4043225" user="Adolf Hitler" changeset="40537703" lat="55.7639241" lon="37.5843213">
    <tag k="name" v="Полосатая гиена"/>
    <tag k="tourism" v="attraction"/>
  </node>
  <node id="4306250095" version="2" timestamp="2017-01-14T00:46:36Z" uid="3580412" user="Alexander-II" changeset="45151553" lat="55.7239163" lon="37.5296877">
    <tag k="name" v="Аллея звёзд отечественного кинематографа"/>
    <tag k="tourism" v="attraction"/>
  </node>
  <node id="4328336243" version="2" timestamp="2016-08-03T08:55:06Z" uid="382604" user="MosKartograf" changeset="41209628" lat="55.6152159" lon="37.6835666">
    <tag k="barrier" v="gate"/>
    <tag k="tourism" v="attraction"/>
  </node>
  <node id="4342795594" version="1" timestamp="2016-08-09T13:29:36Z" uid="2371233" user="Battalova" changeset="41345524" lat="55.836769" lon="37.2267365">
    <tag k="name" v="Лесное озеро "/>
    <tag k="tourism" v="attraction"/>
  </node>
  <node id="4351419301" version="1" timestamp="2016-08-15T18:14:36Z" uid="4424957" user="Валентин Лобан" changeset="41473288" lat="55.8402079" lon="37.6255334">
    <tag k="name" v="Городская ферма"/>
    <tag k="tourism" v="attraction"/>
  </node>
  <node id="4351595489" version="1" timestamp="2016-08-15T19:08:50Z" uid="4424957" user="Валентин Лобан" changeset="41474307" lat="55.8069009" lon="37.6665148">
    <tag k="name" v="истребитель миг 21"/>
    <tag k="tourism" v="attraction"/>
  </node>
  <node id="4363347292" version="1" timestamp="2016-08-23T18:28:31Z" uid="377791" user="#daf" changeset="41644702" lat="55.4303334" lon="37.5418886">
    <tag k="name" v="Доска Почёта"/>
    <tag k="name:ru" v="Доска Почёта"/>
    <tag k="tourism" v="attraction"/>
  </node>
  <node id="4365946208" version="1" timestamp="2016-08-25T08:13:30Z" uid="363136" user="neo-plan" changeset="41681236" lat="55.7592742" lon="37.8635892">
    <tag k="name" v="Бывшее паровозное депо"/>
    <tag k="tourism" v="attraction"/>
  </node>
  <node id="4365950544" version="2" timestamp="2016-09-05T07:40:48Z" uid="363136" user="neo-plan" changeset="41923577" lat="55.7596394" lon="37.8550437">
    <tag k="name" v="Бывший райисполком (РИК, 1929г)"/>
    <tag k="tourism" v="attraction"/>
  </node>
  <node id="4369839238" version="1" timestamp="2016-08-27T14:32:51Z" uid="624271" user="te_mark" changeset="41737311" lat="55.7860417" lon="37.7491723">
    <tag k="name" v="Горки"/>
    <tag k="tourism" v="attraction"/>
  </node>
  <node id="4369846215" version="1" timestamp="2016-08-27T14:38:09Z" uid="624271" user="te_mark" changeset="41737311" lat="55.7864165" lon="37.7512765">
    <tag k="name" v="Паровоз"/>
    <tag k="tourism" v="attraction"/>
  </node>
  <node id="4369846216" version="1" timestamp="2016-08-27T14:38:09Z" uid="624271" user="te_mark" changeset="41737311" lat="55.7862118" lon="37.7516393">
    <tag k="name" v="Симулятор"/>
    <tag k="tourism" v="attraction"/>
  </node>
  <node id="4369850788" version="1" timestamp="2016-08-27T14:42:21Z" uid="624271" user="te_mark" changeset="41737311" lat="55.7860655" lon="37.7513107">
    <tag k="name" v="Скатная гора"/>
    <tag k="tourism" v="attraction"/>
  </node>
  <node id="4369850889" version="1" timestamp="2016-08-27T14:42:21Z" uid="624271" user="te_mark" changeset="41737311" lat="55.7861296" lon="37.7515092">
    <tag k="name" v="Солнышко"/>
    <tag k="tourism" v="attraction"/>
  </node>
  <node id="4369879832" version="1" timestamp="2016-08-27T15:19:52Z" uid="624271" user="te_mark" changeset="41737311" lat="55.7807213" lon="37.7521669">
    <tag k="name" v="Летающие слоны"/>
    <tag k="tourism" v="attraction"/>
  </node>
  <node id="4369880516" version="2" timestamp="2016-08-27T15:21:34Z" uid="624271" user="te_mark" changeset="41737311" lat="55.7818427" lon="37.7523935">
    <tag k="name" v="Волшебный полёт"/>
    <tag k="tourism" v="attraction"/>
  </node>
  <node id="4369880517" version="2" timestamp="2016-08-27T15:21:34Z" uid="624271" user="te_mark" changeset="41737311" lat="55.781713" lon="37.752415">
    <tag k="name" v="Цепочка"/>
    <tag k="tourism" v="attraction"/>
  </node>
  <node id="4369880522" version="1" timestamp="2016-08-27T15:21:33Z" uid="624271" user="te_mark" changeset="41737311" lat="55.7816889" lon="37.7519214">
    <tag k="name" v="Зорб"/>
    <tag k="tourism" v="attraction"/>
  </node>
  <node id="4369880523" version="1" timestamp="2016-08-27T15:21:34Z" uid="624271" user="te_mark" changeset="41737311" lat="55.7818337" lon="37.7518946">
    <tag k="name" v="Семейная карусель"/>
    <tag k="tourism" v="attraction"/>
  </node>
  <node id="4369881313" version="1" timestamp="2016-08-27T15:22:06Z" uid="624271" user="te_mark" changeset="41737311" lat="55.7807808" lon="37.7526027">
    <tag k="name" v="Каноэ ривер"/>
    <tag k="tourism" v="attraction"/>
  </node>
  <node id="4369883634" version="1" timestamp="2016-08-27T15:22:29Z" uid="624271" user="te_mark" changeset="41737311" lat="55.7810229" lon="37.7520435">
    <tag k="name" v="Призовой аттракцион"/>
    <tag k="tourism" v="attraction"/>
  </node>
  <node id="4370198903" version="2" timestamp="2016-10-25T04:18:51Z" uid="2524145" user="mk13" changeset="43147452" lat="55.8165665" lon="37.5607947">
    <tag k="name" v="Голова &quot;Родины-Матери&quot;"/>
    <tag k="name:ru" v="Голова &quot;Родины-Матери&quot;"/>
    <tag k="tourism" v="attraction"/>
  </node>
  <node id="4395760590" version="1" timestamp="2016-09-11T07:31:00Z" uid="397326" user="trolleway" changeset="42072569" lat="55.8067277" lon="37.7449041">
    <tag k="name" v="Казарма Московской окружной железной дороги, 1908"/>
    <tag k="tourism" v="attraction"/>
  </node>
  <node id="4404186219" version="3" timestamp="2017-05-02T12:05:57Z" uid="3580412" user="Alexander-II" changeset="48333340" lat="55.7164256" lon="37.6898604">
    <tag k="historic" v="railroad_car"/>
    <tag k="name" v="Узкоколейный вагон ПВ-40"/>
    <tag k="tourism" v="attraction"/>
  </node>
  <node id="4418685089" version="1" timestamp="2016-09-26T09:26:13Z" uid="4043225" user="Adolf Hitler" changeset="42440324" lat="55.7645134" lon="37.5833739">
    <tag k="name" v="Верблюд и лошади Пржевальского"/>
    <tag k="tourism" v="attraction"/>
  </node>
  <node id="4433366890" version="2" timestamp="2016-10-06T21:38:23Z" uid="363136" user="neo-plan" changeset="42696422" lat="55.9701545" lon="37.9117143">
    <tag k="name" v="Бывший ДК фабрики им. А. М. Рудой (1926г)"/>
    <tag k="tourism" v="attraction"/>
  </node>
  <node id="4433409465" version="1" timestamp="2016-10-05T22:12:30Z" uid="363136" user="neo-plan" changeset="42670563" lat="55.9757132" lon="37.9058869">
    <tag k="name" v="Дом постройки 1928г"/>
    <tag k="tourism" v="attraction"/>
  </node>
  <node id="4433414260" version="1" timestamp="2016-10-05T22:16:40Z" uid="363136" user="neo-plan" changeset="42670563" lat="55.9750739" lon="37.9054524">
    <tag k="name" v="Дом постройки 1928г"/>
    <tag k="tourism" v="attraction"/>
  </node>
  <node id="4433414261" version="1" timestamp="2016-10-05T22:16:40Z" uid="363136" user="neo-plan" changeset="42670563" lat="55.9744976" lon="37.9050715">
    <tag k="name" v="Дом постройки 1929г"/>
    <tag k="tourism" v="attraction"/>
  </node>
  <node id="4448081798" version="1" timestamp="2016-10-14T18:41:27Z" uid="363136" user="neo-plan" changeset="42902837" lat="55.5827585" lon="37.9055168">
    <tag k="name" v="Первый многоэтажный дом Лыткарина (1938г)"/>
    <tag k="tourism" v="attraction"/>
  </node>
  <node id="4448113153" version="1" timestamp="2016-10-14T18:45:10Z" uid="363136" user="neo-plan" changeset="42902837" lat="55.5824705" lon="37.9048838">
    <tag k="name" v="Второй многоэтажный дом Лыткарина (1940г)"/>
    <tag k="tourism" v="attraction"/>
  </node>
  <node id="4449855643" version="1" timestamp="2016-10-15T22:48:20Z" uid="363136" user="neo-plan" changeset="42927161" lat="55.7411465" lon="37.7327191">
    <tag k="name" v="Старый пассажирский вокзал станции Андроновка"/>
    <tag k="tourism" v="attraction"/>
  </node>
  <node id="4449879489" version="1" timestamp="2016-10-15T23:25:41Z" uid="363136" user="neo-plan" changeset="42927464" lat="55.8420935" lon="37.6565085">
    <tag k="name" v="Бывший жилой дом V типа при станции Ростокино МОЖД"/>
    <tag k="tourism" v="attraction"/>
  </node>
  <node id="4450345787" version="1" timestamp="2016-10-16T11:37:05Z" uid="363136" user="neo-plan" changeset="42934263" lat="55.8289408" lon="37.7012684">
    <tag k="name" v="Бывший жилой дом при станции Белокаменная МОЖД"/>
    <tag k="tourism" v="attraction"/>
  </node>
  <node id="4450345788" version="1" timestamp="2016-10-16T11:37:05Z" uid="363136" user="neo-plan" changeset="42934263" lat="55.8294289" lon="37.7010807">
    <tag k="name" v="Старое здание железнодорожного вокзала Белокаменная"/>
    <tag k="tourism" v="attraction"/>
  </node>
  <node id="4450365393" version="1" timestamp="2016-10-16T11:52:58Z" uid="363136" user="neo-plan" changeset="42934530" lat="55.8423901" lon="37.5306101">
    <tag k="name" v="Бывший железнодорожный вокзал станции Лихоборы МОЖД"/>
    <tag k="tourism" v="attraction"/>
  </node>
  <node id="4450380317" version="1" timestamp="2016-10-16T12:11:35Z" uid="363136" user="neo-plan" changeset="42934813" lat="55.8409889" lon="37.5256843">
    <tag k="name" v="Старинный объект инфраструктуры МОЖД"/>
    <tag k="tourism" v="attraction"/>
  </node>
  <node id="4503625631" version="3" timestamp="2017-04-17T04:33:52Z" uid="3580412" user="Alexander-II" changeset="47855342" lat="55.8942268" lon="37.5358984">
    <tag k="historic" v="cannon"/>
    <tag k="name" v="85-мм пушка Д-44"/>
    <tag k="tourism" v="attraction"/>
  </node>
  <node id="4503625632" version="3" timestamp="2017-04-17T04:33:52Z" uid="3580412" user="Alexander-II" changeset="47855342" lat="55.8941689" lon="37.5358958">
    <tag k="historic" v="cannon"/>
    <tag k="name" v="85-мм пушка Д-44"/>
    <tag k="tourism" v="attraction"/>
  </node>
  <node id="4511608906" version="1" timestamp="2016-11-20T07:41:46Z" uid="363136" user="neo-plan" changeset="43816196" lat="55.7219814" lon="37.5127149">
    <tag k="name" v="Второй &quot;круглый&quot; дом"/>
    <tag k="tourism" v="attraction"/>
  </node>
  <node id="4518520584" version="2" timestamp="2016-11-24T14:18:43Z" uid="1083405" user="vylekzhanin" changeset="43921737" lat="55.687577" lon="37.7695588">
    <tag k="name" v="Вертолёт Ми-2"/>
    <tag k="tourism" v="attraction"/>
  </node>
  <node id="4518521694" version="2" timestamp="2016-11-24T14:18:43Z" uid="1083405" user="vylekzhanin" changeset="43921737" lat="55.6879625" lon="37.7693735">
    <tag k="name" v="Самолёт МиГ-21ПФ"/>
    <tag k="tourism" v="attraction"/>
  </node>
  <node id="4518521706" version="1" timestamp="2016-11-24T06:42:56Z" uid="1083405" user="vylekzhanin" changeset="43912032" lat="55.6871838" lon="37.7706181">
    <tag k="name" v="Аэропоток"/>
    <tag k="tourism" v="attraction"/>
    <tag k="website" v="www.aeropotok.ru"/>
  </node>
  <node id="4518521710" version="2" timestamp="2016-11-24T14:18:43Z" uid="1083405" user="vylekzhanin" changeset="43921737" lat="55.6874953" lon="37.7728403">
    <tag k="name" v="Самолёт Ан-2"/>
    <tag k="tourism" v="attraction"/>
  </node>
  <node id="4518521723" version="2" timestamp="2016-11-24T14:18:43Z" uid="1083405" user="vylekzhanin" changeset="43921737" lat="55.6875073" lon="37.7690785">
    <tag k="name" v="БТР-70"/>
    <tag k="tourism" v="attraction"/>
  </node>
  <node id="4519364994" version="1" timestamp="2016-11-24T18:53:08Z" uid="4882048" user="Alexsirotin" changeset="43928603" lat="55.9087048" lon="37.7453612">
    <tag k="name" v="Кошка из Габрово"/>
    <tag k="name:ru" v="Кошка из Габрово"/>
    <tag k="tourism" v="attraction"/>
  </node>
  <node id="4523601546" version="1" timestamp="2016-11-26T17:05:13Z" uid="624271" user="te_mark" changeset="43967287" lat="55.7604011" lon="37.5834297">
    <tag k="name" v="Гуси"/>
    <tag k="tourism" v="attraction"/>
  </node>
  <node id="4523601547" version="1" timestamp="2016-11-26T17:05:13Z" uid="624271" user="te_mark" changeset="43967287" lat="55.7604901" lon="37.5831186">
    <tag k="name" v="Фазаны"/>
    <tag k="tourism" v="attraction"/>
  </node>
  <node id="4523604269" version="1" timestamp="2016-11-26T17:06:53Z" uid="624271" user="te_mark" changeset="43967287" lat="55.7607474" lon="37.5835075">
    <tag k="name" v="Домашние птицы"/>
    <tag k="tourism" v="attraction"/>
  </node>
  <node id="4523605216" version="1" timestamp="2016-11-26T17:07:49Z" uid="624271" user="te_mark" changeset="43967287" lat="55.7605165" lon="37.5845106">
    <tag k="name" v="Шиншиллы"/>
    <tag k="tourism" v="attraction"/>
  </node>
  <node id="4528647814" version="1" timestamp="2016-11-29T15:54:22Z" uid="1781102" user="elazarev" changeset="44037478" lat="55.7653519" lon="37.57671">
    <tag k="name" v="Экзотические лягушки"/>
    <tag k="tourism" v="attraction"/>
  </node>
  <node id="4541543849" version="4" timestamp="2017-04-19T12:07:17Z" uid="830106" user="literan" changeset="47936470" lat="55.7892659" lon="37.6818134">
    <tag k="artist_name" v="М. К. Геппенер"/>
    <tag k="man_made" v="tower"/>
    <tag k="name" v="Пожарная каланча"/>
    <tag k="start_date" v="1884"/>
    <tag k="tourism" v="attraction"/>
    <tag k="tower:type" v="observation"/>
    <tag k="wikidata" v="Q19916582"/>
    <tag k="wikipedia" v="ru:Сокольническая пожарная каланча"/>
  </node>
  <node id="4544542365" version="1" timestamp="2016-12-08T09:34:09Z" uid="149412" user="Haserbaba" changeset="44254090" lat="55.7632369" lon="37.5815817">
    <tag k="attraction" v="animal"/>
    <tag k="is_in:zoo" v="Московский зоопарк"/>
    <tag k="name" v="Аквариум осетровых рыб"/>
    <tag k="name:en" v="Sturgeons"/>
    <tag k="tourism" v="attraction"/>
  </node>
  <node id="4558783254" version="1" timestamp="2016-12-17T16:56:23Z" uid="421932" user="pav5000" changeset="44474320" lat="55.7637698" lon="37.6899199">
    <tag k="name" v="Грот Растрелли"/>
    <tag k="tourism" v="attraction"/>
  </node>
  <node id="4558783255" version="1" timestamp="2016-12-17T16:56:23Z" uid="421932" user="pav5000" changeset="44474320" lat="55.7631571" lon="37.6891715">
    <tag k="name" v="Плотина Венеры"/>
    <tag k="tourism" v="attraction"/>
  </node>
  <node id="4595636713" version="3" timestamp="2017-04-11T13:47:35Z" uid="3580412" user="Alexander-II" changeset="47657964" lat="55.7443636" lon="37.618606">
    <tag k="name" v="Деревья любви"/>
    <tag k="start_date" v="2007-04"/>
    <tag k="tourism" v="attraction"/>
    <tag k="wikidata" v="Q4158815"/>
    <tag k="wikipedia" v="ru:Дерево любви"/>
  </node>
  <node id="4646606685" version="2" timestamp="2017-04-23T02:45:33Z" uid="1746767" user="xurvars" changeset="48049313" lat="55.7559336" lon="37.6123337">
    <tag k="alt_name" v="Батискаф &quot;Аргус&quot;"/>
    <tag k="name" v="Подводный обитаемый аппарат «Аргус»"/>
    <tag k="short_name" v="ПАО &quot;Аргус&quot;"/>
    <tag k="tourism" v="attraction"/>
  </node>
  <node id="4650948389" version="1" timestamp="2017-02-01T08:10:19Z" uid="5239532" user="elp87" changeset="45709663" lat="55.724755" lon="37.5937494">
    <tag k="name" v="Водолаз-маяк"/>
    <tag k="tourism" v="attraction"/>
  </node>
  <node id="4692191290" version="1" timestamp="2017-02-18T14:09:45Z" uid="5271345" user="elena moskvina" changeset="46193443" lat="55.7393808" lon="37.6286348">
    <tag k="name" v="Городская усадьба О.П. Коробковой"/>
    <tag k="name:ru" v="Городская усадьба О.П. Коробковой"/>
    <tag k="tourism" v="attraction"/>
  </node>
  <node id="4705219598" version="1" timestamp="2017-02-25T14:49:57Z" uid="5271345" user="elena moskvina" changeset="46394731" lat="55.7442619" lon="37.5887893">
    <tag k="name" v="Доходный дом Г.Е. Бройдо"/>
    <tag k="name:ru" v="Доходный дом Г.Е. Бройдо"/>
    <tag k="tourism" v="attraction"/>
  </node>
  <node id="4705231893" version="1" timestamp="2017-02-25T14:49:58Z" uid="5271345" user="elena moskvina" changeset="46394731" lat="55.7435936" lon="37.5955052">
    <tag k="name" v="Городская усадьба братьев Гандуриных"/>
    <tag k="name:ru" v="Городская усадьба братьев Гандуриных"/>
    <tag k="tourism" v="attraction"/>
  </node>
  <node id="4724681366" version="3" timestamp="2017-03-09T12:24:59Z" uid="830106" user="literan" changeset="46708145" lat="55.6670796" lon="37.6683156">
    <tag k="genus" v="Quercus"/>
    <tag k="genus:ru" v="Дуб"/>
    <tag k="height" v="26"/>
    <tag k="leaf_cycle" v="deciduous"/>
    <tag k="leaf_type" v="broadleaved"/>
    <tag k="natural" v="tree"/>
    <tag k="start_date" v="mid C15"/>
    <tag k="tourism" v="attraction"/>
  </node>
  <node id="4762121986" version="1" timestamp="2017-03-29T15:38:39Z" uid="830106" user="literan" changeset="47263709" lat="55.7506176" lon="37.5947374">
    <tag k="contact:phone" v="+7 495 2012516"/>
    <tag k="contact:website" v="https://domvverhdnom.com"/>
    <tag k="name" v="Дом вверх дном"/>
    <tag k="opening_hours" v="Mo-Su 11:00-24:00"/>
    <tag k="tourism" v="attraction"/>
  </node>
  <node id="4780985524" version="2" timestamp="2017-04-07T14:36:10Z" uid="830106" user="literan" changeset="47541813" lat="55.6676593" lon="37.6694397">
    <tag k="name" v="Передние ворота"/>
    <tag k="name:ru" v="Передние ворота"/>
    <tag k="tourism" v="attraction"/>
  </node>
  <node id="4822877521" version="1" timestamp="2017-04-28T12:41:42Z" uid="5629946" user="Eugene Feinstein" changeset="48227357" lat="55.6778971" lon="37.7270457">
    <tag k="name" v="1967 Китаевка - трансформаторная будка"/>
    <tag k="name:ru" v="1967 Китаевка - трансформаторная будка"/>
    <tag k="tourism" v="attraction"/>
  </node>
  <node id="4831674963" version="1" timestamp="2017-05-02T22:38:18Z" uid="830106" user="literan" changeset="48348979" lat="55.804948" lon="37.5859022">
    <tag k="addr:entrance" v="3"/>
    <tag k="addr:room" v="5"/>
    <tag k="attraction" v="escape_room"/>
    <tag k="contact:phone" v="+7 495 7604830"/>
    <tag k="operator" v="Кубикулум"/>
    <tag k="tourism" v="attraction"/>
  </node>
</osm>
